id,name,city,country,IATA_FFA,CIAO,Latitude,longitude,totalDegre,ID_metro,affil_ID,Lat_met,Lon_met
5714,Aberdeen Regional Airport,Aberdeen,United States,ABR,KABR,45.4491,-98.4218,240,10100,"No State Univ, Dept Sport Marketing & Adm, Aberdeen, SD USA,45.4590911865,-98.4873199463,Aberdeen SD United States,1,5597,1|,Aberdeen SD United States|",45.459091,-98.48732
3718,Abilene Rgnl,Abilene,United States,ABI,KABI,32.411319,-99.681897,480,10180,"Abilene Christian Univ, Abilene, TX 79699 USA,32.4491691589,-99.7414169312,Abilene TX United States,6,1207,6|,Abilene TX United States|",32.449169,-99.741417
2885,Rafael Hernandez,Aguadilla,Puerto Rico,BQN,TJBQ,18.494861,-67.129444,1208,10380,"Univ Puerto Rico, Aguadilla, PR 00604 USA,18.4346008301,-67.1551895142,Aguadilla PR USA,1,6334,1|,Aguadilla PR USA|",18.434601,-67.15519
4112,Akron Canton Regional Airport,Akron,United States,CAK,KCAK,40.916083,-81.442194,5186,10420,"Kent State Univ, Dept Psychol, Kent, OH 44242 USA,41.1509284973,-81.3582229614,Kent OH United States,350,328|429|1130|1188|2214|4702|5793,158|143|21|20|6|1|1|,Kent OH United States|Akron OH United States|Rootstown OH United States|Hiram OH United States|",41.150928,-81.358223
5715,Southwest Georgia Regional Airport,Albany,United States,ABY,KABY,31.5355,-84.1945,960,10500,"Emory Univ Hosp, Dept Thorac Surg, Ne Atlanta, GA 30308 USA,31.78647995,-84.4424972534,Ne Atlanta GA USA,1,4856|6660,1|0|,Ne Atlanta GA USA|Dawson GA United States|",31.78648,-84.442497
3864,Albany Intl,Albany,United States,ALB,KALB,42.748267,-73.801692,7021,10580,"SUNY Albany, Dept Phys, Albany, NY 12222 USA,42.651550293,-73.7552108765,Albany NY United States,618,227|275|843|884|984|1015|1839|2636|4663|5077|6734,238|267|21|34|22|26|6|2|1|1|0|,Troy NY United States|Albany NY United States|Schenectady NY United Stat",42.65155,-73.755211
4019,Albuquerque International Sunport,Albuquerque,United States,ABQ,KABQ,35.040222,-106.609194,10909.333336,10740,"Sandia Natl Labs, Albuquerque, NM 87123 USA,35.0841789246,-106.648643494,Albuquerque NM United States,882,86|1067|2085|5734|6466,845|28|7|1|1|,Albuquerque NM United States|Kirtland AFB NM USA|Los Lunas NM USA|Rio Rancho NM United States|Jemez Springs NM",35.084179,-106.648643
3852,Alexandria Intl,Alexandria,United States,AEX,KAEX,31.3274,-92.549833,1440,10780,"Christus St Frances Cabrini Hosp, Alexandria, LA USA,31.3126602173,-92.4456787109,Alexandria LA United States,2,3541,2|,Alexandria LA United States|",31.31266,-92.445679
4355,Lehigh Valley Intl,Allentown,United States,ABE,KABE,40.652083,-75.440806,3140,10900,"St Lukes Canc Ctr, Bethlehem, PA USA,40.6310195923,-75.3777770996,Bethlehem PA United States,69,985|1046|1371|2682|3835|4577|4788,30|17|15|3|2|1|1|,Bethlehem PA United States|Allentown PA United States|Easton PA United States|Lehigh PA USA|Hackettstown N",40.63102,-75.377777
5720,Alpena County Regional Airport,Alpena,United States,APN,KAPN,45.0781,-83.5603,480,10980,"Norheast Michigan Med Control Author, Alpena, MI USA,45.0615615845,-83.4451522827,Alpena MI USA,3,2719,3|,Alpena MI USA|",45.061562,-83.445152
3694,Altoona Blair Co,Altoona,United States,AOO,KAOO,40.296372,-78.320022,480,11020,"Penn State Altoona, Dept Math & Stat, Altoona, PA 16601 USA,40.5071907043,-78.3989028931,Altoona PA United States,5,2735|5114,4|1|,Altoona PA United States|Duncansville PA United States|",40.507191,-78.398903
3840,Rick Husband Amarillo Intl,Amarillo,United States,AMA,KAMA,35.219369,-101.705931,2276.333344,11100,"Texas Tech Hlth Sci Ctr, Div Geriatr, Associate Fac Sch Med, Amarillo, TX USA,35.2072486877,-101.833892822,Amarillo TX United States,11,1756|6515,10|1|,Amarillo TX United States|Canyon TX United States|",35.207249,-101.833893
3774,Ted Stevens Anchorage Intl,Anchorage,United States,ANC,PANC,61.174361,-149.996361,15283.666626,11260,"Natl Pk Serv, Anchorage, AK 99501 USA,61.2175598145,-149.858383179,Anchorage AK United States,28,1030|4403,28|0|,Anchorage AK United States|Eagle River AK USA|",61.21756,-149.858383
4007,Asheville Regional Airport,Asheville,United States,AVL,KAVL,35.436194,-82.541806,2940,11700,"Canc Ctr N Carolina Asheville, Asheville, NC USA,35.5984611511,-82.5531387329,Asheville NC United States,18,1232|5456|6746,17|1|0|,Asheville NC United States|Arden NC United States|Fletcher NC United States|",35.598461,-82.553139
5716,Athens Ben Epps Airport,Athens,United States,AHN,KAHN,33.9486,-83.3263,80,12020,"Univ Georgia, Dept Advertising & Publ Relat, Grady Coll Journalism & Mass Commun, Athens, GA 30602 USA,33.9581298828,-83.3732528687,Athens GA United States,610,149|6830,610|0|,Athens GA United States|Athens GA United States|",33.95813,-83.373253
3682,Hartsfield Jackson Atlanta Intl,Atlanta,United States,ATL,KATL,33.636719,-84.428067,267681.142029,12060,"Emory Univ, Atlanta, GA 30322 USA,33.7483100891,-84.3911132813,Atlanta GA United States,3434,18|778|1106|1378|1549|1882|2027|2030|2447|2591|2785|3000|3054|3263|3338|3894|4383|4652|4840|4857|4861|4883|5001|5055|5105|5320|5374|5786|6763,3296|42|23|17|12|7|",33.74831,-84.391113
3524,Atlantic City Intl,Atlantic City,United States,ACY,KACY,39.457583,-74.577167,2594,12100,"Stockton State Coll, Galloway, NJ USA,39.4674186707,-74.5007629395,Galloway NJ USA,3,4051|5792,2|1|,Galloway NJ USA|Pomona NJ United States|",39.467419,-74.500763
3658,Augusta Rgnl At Bush Fld,Bush Field,United States,AGS,KAGS,33.369944,-81.9645,1653.333313,12260,"Georgia Regents Univ Augusta, Dept Family Med, Augusta, GA 30912 USA,33.4790916443,-81.9753112793,Augusta GA United States,309,268|1669|2961,298|11|0|,Augusta GA United States|Aiken SC United States|Ridgefield CO USA|",33.479092,-81.975311
3701,Augusta State,Augusta,United States,AUG,KAUG,44.320647,-69.797317,80,12300,"Colby Coll, Goldfarb Ctr Publ Affairs & Civ Engagement, Waterville, ME 04901 USA,44.5527915955,-69.6313476563,Waterville ME United States,18,1397|1662|6611,13|5|0|,Waterville ME United States|Augusta ME United States|China ME United States|",44.552792,-69.631348
3673,Austin Bergstrom Intl,Austin,United States,AUS,KAUS,30.194528,-97.669889,23677.0666889999,12420,"Univ Texas, Inst Cellular & Mol Biol, Austin, TX USA,30.2675895691,-97.7429885864,Austin TX United States,1141,77|872|1767|2461|2500|2960|4914|6040,1081|37|10|4|5|2|1|1|,Austin TX United States|San Marcos TX United States|Smithville TX United States|Geor",30.26759,-97.742989
3558,Meadows Fld,Bakersfield,United States,BFL,KBFL,35.433598,-119.05677,1120,12540,"Air Force Res Lab, Space & Missile Prop Div, Edwards AFB, CA 93524 USA,34.8898391724,-117.833190918,CA United States,27,1277|2209|4396|4447,19|6|1|1|,CA United States|Bakersfield CA United States|Edwards Afb CA USA|Tehachapi CA USA|",34.889839,-117.833191
3849,Baltimore Washington Intl,Baltimore,United States,BWI,KBWI,39.175361,-76.668333,38756.566589,12580,"Johns Hopkins Sch Med, Dept Med, Baltimore, MD USA,39.2905807495,-76.6092605591,Baltimore MD United States,4941,8|933|951|1023|1354|1679|1690|1742|1911|1943|2006|2300|2694|2788|2818|3504|3606|3778|3892|4449|5078|5469|5826|5915|5988|6260|6512|6843,4776|25",39.290581,-76.609261
3463,Bangor Intl,Bangor,United States,BGR,KBGR,44.807444,-68.828139,2040,12620,"Univ Maine, Sch Marine Sci, Orono, ME 04469 USA,44.8858795166,-68.6739883423,Orono ME United States,80,708|1320|2215,60|14|6|,Orono ME United States|Bangor ME United States|Brewer ME United States|",44.88588,-68.673988
4278,Barnstable Muni Boardman Polando Fld,Barnstable,United States,HYA,KHYA,41.669336,-70.280356,280,12700,"Woods Hole Oceanog Inst, Woods Hole, MA 02543 USA,41.5276985168,-70.6674423218,Woods Hole MA United States,149,444|2515|3621|3717|5221,139|5|2|2|1|,Woods Hole MA United States|Falmouth MA United States|Hyannis MA USA|North Falmouth MA United States|Mashp",41.527699,-70.667442
3846,Baton Rouge Metro Ryan Fld,Baton Rouge,United States,BTR,KBTR,30.533167,-91.149639,1930,12940,"Louisiana State Univ, Pennington Biomed Rsch Cntr, Baton Rouge, LA 70803 USA,30.4433403015,-91.1869888306,Baton Rouge LA United States,369,183|523|2560,364|5|0|,Baton Rouge LA United States|Livingston LA USA|Baton Rouged LA USA|",30.44334,-91.186989
3612,Southeast Texas Rgnl,Beaumont,United States,BPT,KBPT,29.950833,-94.020694,480,13140,"Beaumont Childrens Hosp, Beaumont, TX USA,30.0861492157,-94.1015777588,Beaumont TX United States,6,1709,6|,Beaumont TX United States|",30.086149,-94.101578
3777,Bellingham Intl,Bellingham,United States,BLI,KBLI,48.792694,-122.537528,2660,13380,"Western Washington Univ, Bellingham, WA 98225 USA,48.7523498535,-122.471221924,Bellingham WA United States,25,1047|1832,16|9|,Bellingham WA United States|Lynden WA USA|",48.75235,-122.471222
4287,Bemidji Regional Airport,Bemidji,United States,BJI,KBJI,47.510722,-94.934722,240,13420,"Assoc Camp Nurses, Bemidji, MN USA,47.4731407166,-94.8796463013,Bemidji MN USA,0,3468,0|,Bemidji MN USA|",47.473141,-94.879646
4103,Roberts Fld,Redmond-Bend,United States,RDM,KRDM,44.254066,-121.149964,1680,13460,"Indiana Univ S Bend, Bend, OR USA,44.0573883057,-121.315811157,Bend OR United States,3,3087,3|,Bend OR United States|",44.057388,-121.315811
4021,Billings Logan International Airport,Billings,United States,BIL,KBIL,45.80921,-108.537654,2186,13740,"Billings Clin, Billings, MT USA,45.783821106,-108.50567627,Billings MT United States,6,2014,6|,Billings MT United States|",45.783821,-108.505676
4129,Greater Binghamton Edwin A Link Fld,Binghamton,United States,BGM,KBGM,42.208689,-75.979839,960,13780,"SUNY Binghamton, Dept Biol Sci, Binghamton, NY 13902 USA,42.098690033,-75.9113616943,Binghamton NY United States,87,604|6004|6092,85|1|1|,Binghamton NY United States|Owego NY United States|Johnson City NY USA|",42.09869,-75.911362
3811,Birmingham Intl,Birmingham,United States,BHM,KBHM,33.562942,-86.75355,8816,13820,"Childrens Hosp, Birmingham, AL USA,33.5206794739,-86.8117599487,Birmingham AL United States,1391,58|3040|4097|6293,1386|2|2|1|,Birmingham AL United States|Alabaster AL USA|Birmingham AL United States|Montevallo AL USA|",33.520679,-86.81176
4083,Bismarck Municipal Airport,Bismarck,United States,BIS,KBIS,46.775842,-100.757931,1508,13900,"N Dakota Dept Hlth, Med Serv Sect, Div Dis Control, Bismarck, ND USA,46.8053588867,-100.779327393,Bismarck ND United States,2,3165,2|,Bismarck ND United States|",46.805359,-100.779327
4037,Central Illinois Rgnl,Bloomington,United States,BMI,KBMI,40.477111,-88.915917,2956,14010,"Indiana Univ Hlth, Bloomington, IL USA,40.4944114685,-88.9210357666,Bloomington IL United States,90,822|823|5099,44|45|1|,Normal IL United States|Bloomington IL United States|Normal Illinois IL USA|",40.494411,-88.921036
3495,Boise Air Terminal,Boise,United States,BOI,KBOI,43.564361,-116.222861,5215,14260,"Boise State Univ, Dept Elect & Comp Engn, Boise, ID 83725 USA,43.6069793701,-116.193412781,Boise ID United States,77,623|3555,75|2|,Boise ID United States|Caldwell ID United States|",43.606979,-116.193413
3448,General Edward Lawrence Logan Intl,Boston,United States,BOS,KBOS,42.364347,-71.005181,73856.740494,14460,"Harvard Univ, Sch Publ Hlth, Ctr Hlth Decis Sci, Boston, MA 02115 USA,42.3586616516,-71.0567398071,Boston MA United States,15140,5|12|266|285|300|356|396|414|508|546|640|727|772|868|885|964|975|994|1008|1167|1174|1222|1230|1317|1376|1423|1444|1473|1654|1",42.358662,-71.05674
4020,Gallatin Field,Bozeman,United States,BZN,KBZN,45.777643,-111.160151,1978,14580,"Montana State Univ, Dept Land Resources & Environm Sci, Bozeman, MT 59717 USA,45.6793212891,-111.033180237,Bozeman MT United States,130,439,130|,Bozeman MT United States|",45.679321,-111.03318
6957,Brainerd Lakes Rgnl,Brainerd,United States,BRD,KBRD,46.398308,-94.138078,480,14660,"Mayo Clin, Robert & Arlene Kogod Ctr Aging, Sw Rochester, MN USA,46.3493614197,-94.1983718872,Sw Rochester MN USA,4,5404|5465|5959|6492,1|1|1|1|,Sw Rochester MN USA|Brainerd MN USA|St Croix MN USA|Int Falls MN USA|",46.349361,-94.198372
3560,Valley Intl,Harlingen,United States,HRL,KHRL,26.2285,-97.654389,2470.666687,15180,"Univ Texas Brownsville, Brownsville, TX 78520 USA,25.8995704651,-97.4954986572,Brownsville TX USA,5,753|6384,4|1|,Brownsville TX USA|Harlingen TX USA|",25.89957,-97.495499
3820,Buffalo Niagara Intl,Buffalo,United States,BUF,KBUF,42.940525,-78.732167,10476.933289,15380,"SUNY Buffalo, Western NewYork VA Med Ctr, Buffalo, NY 14260 USA,42.8854408264,-78.8784637451,Buffalo NY United States,786,95|1596|2086|3901|4321|5585|6061|6476,766|8|7|1|1|1|1|1|,Buffalo NY United States|Amherst NY United States|Williamsville NY USA|Lewi",42.885441,-78.878464
3711,Burlington Intl,Burlington,United States,BTV,KBTV,44.471861,-73.153278,3240,15540,"89 North Inc, Burlington, VT USA,44.4759216309,-73.2132263184,Burlington VT United States,229,335|1137|1977|2642|4507|4959|6833,200|18|7|3|0|1|0|,Burlington VT United States|Colchester VT United States|South Burlington VT United States|Essex Junction VT",44.475922,-73.213226
4022,Bert Mooney Airport,Butte,United States,BTM,KBTM,45.954806,-112.497472,240,15580,"Montana Tech Univ Montana, Dept Safety Hlth & Ind Hyg, Butte, MT USA,46.001750946,-112.520889282,Butte MT United States,0,5479,0|,Butte MT United States|",46.001751,-112.520889
3793,Southwest Florida Intl,Fort Myers,United States,RSW,KRSW,26.536167,-81.755167,18083.666473,15980,"Florida Gulf Coast Univ, Coll Arts & Sci, Egan Observ, Ft Myers, FL 33965 USA,26.6408405304,-81.8680801392,Fort Myers FL United States,8,1806|4367|6059,6|1|1|,Fort Myers FL United States|Cape Coral FL USA|Bonita Springs FL USA|",26.640841,-81.86808
6825,Williamson Country Regional Airport,Marion,United States,MWA,KMWA,37.754957,-89.011094,80,16060,"So Illinois Univ, Dept Comp Sci, Carbondale, IL 62901 USA,37.7272987366,-89.2157974243,Carbondale IL United States,104,534|5098,103|1|,Carbondale IL United States|Carterville IL USA|",37.727299,-89.215797
3872,Natrona Co Intl,Casper,United States,CPR,KCPR,42.908,-106.464417,720,16220,"Univ Wyoming, Casper Coll Ctr, Dept Zool & Physiol, Casper, WY 82601 USA,42.8500785828,-106.327789307,Casper WY USA,1,6423,1|,Casper WY USA|",42.850079,-106.327789
3824,Cedar City Rgnl,Cedar City,United States,CDC,KCDC,37.700967,-113.098847,240,16260,"So Utah Univ Baseball, Cedar City, UT USA,37.6779518127,-113.061759949,Cedar City UT USA,1,5930,1|,Cedar City UT USA|",37.677952,-113.06176
4043,Cedar Rapids,Cedar Rapids,United States,CID,KCID,41.884694,-91.710806,4272,16300,"Cedar Rapids Oncol Project CCOP, Cedar Rapids, IA USA,41.9763412476,-91.6737594604,Cedar Rapids IA United States,7,2584|2964,4|3|,Cedar Rapids IA United States|Mount Vernon IA United States|",41.976341,-91.673759
4049,Champaign,Champaign,United States,CMI,KCMI,40.03925,-88.278056,960,16580,"Univ Illinois, Dept Phys, Urbana, IL 61801 USA,40.1287918091,-88.2220535278,Urbana IL United States,1085,60|466|4435,950|134|1|,Urbana IL United States|Champaign IL United States|Urbana IL United States|",40.128792,-88.222054
4285,Yeager,Charleston,United States,CRW,KCRW,38.373147,-81.593189,2542,16620,"Charleston Eye Care, Charleston, WV USA,38.3501396179,-81.6389312744,Charleston WV United States,4,2165|4253|5421|6693,2|2|0|0|,Charleston WV United States|Dunbar WV United States|Charleston VA USA|South Charleston WV United States|",38.35014,-81.638931
3806,Charleston Afb Intl,Charleston,United States,CHS,KCHS,32.898647,-80.040528,8476.93338,16700,"Med Univ S Carolina, Dept Cardiol, Charleston, SC 29425 USA,32.7811508179,-79.931602478,Charleston SC United States,576,143|4222|5420|5575,572|2|1|1|,Charleston SC United States|Cordesville SC USA|Charleston SC United States|Mount Pleasant SC United Stat",32.781151,-79.931602
3876,Charlotte Douglas Intl,Charlotte,United States,CLT,KCLT,35.214,-80.943139,84986.80249,16740,"Carolinas Rehabil, Charlotte, NC USA,35.222858429,-80.8379592896,Charlotte NC United States,250,315|1894|2285|2582|3003|3473|3514|3591|4191|5327|5395|6523,222|6|4|4|3|2|2|2|2|1|1|1|,Charlotte NC United States|Statesville NC United States|Rock Hill SC Uni",35.222858,-80.837959
4015,Charlottesville-Albemarle,Charlottesville VA,United States,CHO,KCHO,38.138639,-78.452861,3120,16820,"Natl Radio Astron Observ, Charlottesville, VA 22903 USA,38.0321311951,-78.4775314331,Charlottesville VA United States,1040,74|4209|4210|5172|5368|5976|6486|6487,1034|2|2|0|1|0|0|1|,Charlottesville VA United States|Charllottesville VA USA|Chalottesville V",38.032131,-78.477531
3578,Lovell Fld,Chattanooga,United States,CHA,KCHA,35.035278,-85.203808,3900,16860,"Univ Tennessee, Coll Med Chattanooga, Chattanooga, TN USA,35.0464401245,-85.309463501,Chattanooga TN United States,32,972,32|,Chattanooga TN United States|",35.04644,-85.309464
3804,Cheyenne Rgnl Jerry Olson Fld,Cheyenne,United States,CYS,KCYS,41.155722,-104.811839,1440,16940,"Cheyenne Childrens Clin, Cheyenne, WY USA,41.1348114014,-104.821540833,Cheyenne WY United States,1,3410,1|,Cheyenne WY United States|",41.134811,-104.821541
3830,Chicago Ohare Intl,Chicago,United States,ORD,KORD,41.978603,-87.904842,214682.551163,16980,"Northwestern Univ, Ctr Canc, Chicago, IL 60611 USA,41.8842506409,-87.6324462891,Chicago IL United States,8075,7|20|76|291|299|303|542|636|667|702|886|931|1055|1278|1283|1297|1392|1455|1535|1548|1551|1562|1588|1613|1701|1702|2149|2278|2324|2326|2389|2390|",41.884251,-87.632446
3710,Chico Muni,Chico,United States,CIC,KCIC,39.795383,-121.858422,80,17020,"Calif State Univ Chico, Dept Kinesiol, Chico, CA 95929 USA,39.7319984436,-121.841979981,Chico CA United States,8,1711,8|,Chico CA United States|",39.731998,-121.84198
3488,Cincinnati Northern Kentucky Intl,Cincinnati,United States,CVG,KCVG,39.048836,-84.667822,20046.666733,17140,"Univ Cincinnati, Coll Med, Cincinnati, OH USA,39.1071281433,-84.5041275024,Cincinnati OH United States,1797,46|559|1149|1461|3260|3619|3942|3968|4048|4642|5020|5440|6044,1651|94|23|15|3|2|2|2|2|0|1|1|1|,Cincinnati OH United States|Oxford OH United States",39.107128,-84.504128
5749,Lebanon Municipal Airport,Lebanon,United States,LEB,KLEB,43.6261,-72.3042,160,17200,"Dartmouth Coll, Hitchcock Med Ctr, Dartmouth Med Sch, Dept Med, Hanover, NH 03756 USA,43.7004585266,-72.2894973755,Hanover NH United States,805,224|226|770|2381|2439|3350|3613|3684|4775|5542|5718|5779,351|383|52|5|4|3|1|2|1|1|1|1|,Lebanon NH United State",43.700459,-72.289497
5730,Harrison Marion Regional Airport,Clarksburg,United States,CKB,KCKB,39.2966,-80.2281,660,17220,"Louis Johnson VA Med Ctr, Clarksburg, WV USA,39.2794303894,-80.3401184082,Clarksburg WV USA,0,5369,0|,Clarksburg WV USA|",39.27943,-80.340118
3486,Cleveland Hopkins Intl,Cleveland,United States,CLE,KCLE,41.411689,-81.849794,20369.366699,17460,"Cleveland Clin, Neuromuscular Ctr, Cleveland, OH 44106 USA,41.5047492981,-81.6907196045,Cleveland OH United States,2286,33|1249|1600|2619|2710|2988|3212|3549|3826|3920|3954|4141|4219|4466|4478|4654|4655|4656|4657|5007|5506|5628|5658|5999|6562,2231|18|10|",41.504749,-81.69072
3715,Easterwood Fld,College Station,United States,CLL,KCLL,30.588583,-96.363833,720,17780,"Texas A&M Univ, Zachry Dept Civil Engn, College Stn, TX 77843 USA,30.6205406189,-96.3258972168,College Station TX United States,790,84|2789,786|4|,College Station TX United States|Bryan TX United States|",30.620541,-96.325897
3819,City Of Colorado Springs Muni,Colorado Springs,United States,COS,KCOS,38.805805,-104.700778,3440,17820,"Colorado Coll, Dept Anthropol, Colorado Springs, CO 80903 USA,38.8334312439,-104.821807861,Colorado Springs CO United States,55,733|4561|4687,53|1|1|,Colorado Springs CO United States|Woodland Pk CO USA|Ft Collings CO USA|",38.833431,-104.821808
3719,Columbia Rgnl,Columbia,United States,COU,KCOU,38.818094,-92.219631,960,17860,"Univ Missouri, Interdisciplinary Neurosci Program, Columbia, MO USA,38.9522094727,-92.3341522217,Columbia MO United States,586,150,586|,Columbia MO United States|",38.952209,-92.334152
3561,Columbia Metropolitan,Columbia,United States,CAE,KCAE,33.938833,-81.119528,4071.5,17900,"Univ S Carolina, Dept Phys & Astron, Columbia, SC 29208 USA,33.9988212585,-81.0453720093,Columbia SC United States,430,157|5348|6345,429|0|1|,Columbia SC United States|Lexington SC United States|SC United States|",33.998821,-81.045372
4255,Columbus Metropolitan Airport,Columbus,United States,CSG,KCSG,32.516333,-84.938861,720,17980,"Columbus State Univ, Dept Math & Philosophy, Columbus, GA 31907 USA,32.4629211426,-84.9875717163,Columbus GA USA,2,4688|6433,1|1|,Columbus GA USA|Ft Benning GA USA|",32.462921,-84.987572
4273,Golden Triangle Regional Airport,Columbus Mississippi,United States,GTR,KGTR,33.450333,-88.591361,720,18060,"Solove Res Inst, Columbus, MS USA,33.4950294495,-88.4288024902,Columbus MS United States,1,4031,1|,Columbus MS United States|",33.495029,-88.428802
3759,Port Columbus Intl,Columbus,United States,CMH,KCMH,39.997972,-82.891889,16841.666748,18140,"Ohio State Univ, Columbus, OH 43210 USA,39.9619903564,-83.002746582,Columbus OH United States,2599,30|934|1196|1233|1623|1708|2318|2700|2993|5627|5630|6073,2506|30|21|18|2|10|4|3|2|1|1|1|,Columbus OH United States|Granville OH United States|Columbus OH U",39.96199,-83.002747
5757,Southwest Oregon Regional Airport,North Bend,United States,OTH,KOTH,43.4171,-124.246,320,18300,"Oregon Inst Marine Biol, Charleston, OR 97420 USA,43.3394317627,-124.323936462,Charleston OR United States,0,3930,0|,Charleston OR United States|",43.339432,-124.323936
3744,Corpus Christi Intl,Corpus Christi,United States,CRP,KCRP,27.770361,-97.501222,1181.333344,18580,"Cardiol Associates Corpus Christi, Corpus Christi, TX USA,27.7964096069,-97.4035568237,Corpus Christi TX United States,12,1445|2501|4628,10|1|1|,Corpus Christi TX United States|Port Aransas TX United States|Corpus Christ TX USA|",27.79641,-97.403557
3873,Eglin Afb,Valparaiso,United States,VPS,KVPS,30.48325,-86.5254,2505,18880,"USAF, Test Management Grp 53, Eglin AFB, FL USA,30.495929718,-86.5494995117,Eglin AFB FL USA,3,3346|6203,2|1|,Eglin AFB FL USA|Shalimar FL USA|",30.49593,-86.5495
3670,Dallas Fort Worth Intl,Dallas-Fort Worth,United States,DFW,KDFW,32.896828,-97.037997,154222.832687,19100,"Univ Texas SW Med Ctr Dallas, Div Digest & Liver Dis, Dallas, TX 75390 USA,32.7781486511,-96.7954025269,Dallas TX United States,2073,48|264|452|516|592|1289|1536|1755|2327|2810|4482|4550|4684|4771|5316|5613|5868|5928|6383,1562|156|126|102|83|14|10|9|4|0|",32.778149,-96.795403
4072,Quad City Intl,Moline,United States,MLI,KMLI,41.448528,-90.507539,3668,19340,"Augustana Coll, Dept Phys & Astron, Rock Isl, IL 61201 USA,41.5115699768,-90.5760421753,Rock Island IL United States,14,1492|4952|5677|5872,11|1|1|1|,Rock Island IL United States|Moline IL United States|Davenport IA USA|Bettendorf IA United States|",41.51157,-90.576042
3627,James M Cox Dayton Intl,Dayton,United States,DAY,KDAY,39.902375,-84.219375,7669.333344,19380,"Univ Dayton, Res Inst, Dayton, OH 45469 USA,39.7591094971,-84.194442749,Dayton OH United States,324,387|513|1705|1713|2021|2225|2753|3446|3458|4060|4871|6101|6538,174|117|9|7|7|0|1|2|2|2|1|1|1|,Dayton OH United States|OH United States|Fairborn OH United",39.759109,-84.194443
4042,Decatur,Decatur,United States,DEC,KDEC,39.834564,-88.865689,160,19500,"Canc Care Specialists Cent Illinois, Decatur, IL 62526 USA,39.8458404541,-88.9524612427,Decatur IL United States,7,1893,7|,Decatur IL United States|",39.84584,-88.952461
3950,Daytona Beach Intl,Daytona Beach,United States,DAB,KDAB,29.179917,-81.058056,1316.666626,19660,"Halifax Med Ctr, Daytona Beach, FL USA,29.2035694122,-81.0393981934,Daytona Beach FL United States,6,2380|3244|5451|5504,3|2|1|0|,Daytona Beach FL United States|De Land FL United States|Orange City FL USA|Deltona FL United States|",29.203569,-81.039398
3751,Denver Intl,Denver,United States,DEN,KDEN,39.861656,-104.673178,101043.395187,19740,"Univ Colorado, Dept Med, Div Pulm Sci & Crit Care Med, Denver, CO USA,39.7400093079,-104.992301941,Denver CO United States,1537,90|146|503|674|1239|1661|1928|2045|2161|2261|3453|3865|3958|4430|5227|5520|5581|5689|5803|6098,773|533|123|54|17|8|7|4|6|0|2|2",39.740009,-104.992302
3729,Des Moines Intl,Des Moines,United States,DSM,KDSM,41.533972,-93.663083,6977.999939,19780,"Iowa Methodist Med Ctr, Dept Emergency Med, Des Moines, IA USA,41.5897598267,-93.6156463623,Des Moines IA United States,37,1004|2040|2434,29|4|4|,Des Moines IA United States|Ankeny IA United States|West Des Moines IA United States|",41.58976,-93.615646
3645,Detroit Metro Wayne Co,Detroit,United States,DTW,KDTW,42.212444,-83.353389,67009.99437,19820,"Wayne State Univ, Dept Psychol, Behav & Cognit Neurosci Program, Detroit, MI 48202 USA,42.3316802979,-83.047996521,Detroit MI United States,4006,19|346|372|378|641|882|883|1033|1059|1253|1361|1594|1721|1917|1940|2284|2388|2608|2937|3048|3071|3072|3125|31",42.33168,-83.047997
4388,Dubuque Rgnl,Dubuque IA,United States,DBQ,KDBQ,42.402,-90.709472,480,20220,"Loras Coll, Dept Psychol, Dubuque, IA 52001 USA,42.499130249,-90.663269043,Dubuque IA United States,4,2413,4|,Dubuque IA United States|",42.49913,-90.663269
3598,Duluth Intl,Duluth,United States,DLH,KDLH,46.842091,-92.193649,1200,20260,"Univ Minnesota, Dept Geol Sci, Duluth, MN 55812 USA,46.7879600525,-92.0998535156,Duluth MN United States,44,655|5687|6288|6420,41|1|1|1|,Duluth MN United States|Cloquet MN USA|Ely MN USA|Superior WI USA|",46.78796,-92.099854
3713,Durango La Plata Co,Durango,United States,DRO,KDRO,37.151516,-107.75377,1200,20420,"Ft Lewis Coll, Dept Athlet, Durango, CO USA,37.2736701965,-107.879302978,Durango CO United States,13,1365,13|,Durango CO United States|",37.27367,-107.879303
5735,Chippewa Valley Regional Airport,Eau Claire,United States,EAU,KEAU,44.8658,-91.4843,240,20740,"Univ Wisconsin, Dept Biol, Eau Claire, WI 54702 USA,44.8165092468,-91.5012283325,Eau Claire WI United States,42,830,42|,Eau Claire WI United States|",44.816509,-91.501228
4250,Eagle Co Rgnl,Vail,United States,EGE,KEGE,39.642556,-106.917694,240,20780,"Steadman Philippon Res Inst, Biomech Res Dept, Vail, CO USA,39.6452598572,-106.384780884,Vail CO United States,9,1752,9|,Vail CO United States|",39.64526,-106.384781
5736,Elko Regional Airport,Elko,United States,EKO,KEKO,40.8249,-115.792,80,21220,"Ruby Mt Chiropract Ctr, Elko, NV USA,40.8356781006,-115.767539978,Elko NV USA,1,5819,1|,Elko NV USA|",40.835678,-115.76754
3946,Elmira Corning Rgnl,Elmira,United States,ELM,KELM,42.159889,-76.891611,1470,21300,"Arnot Med Serv, Elmira, NY USA,42.0904083252,-76.7988128662,Elmira NY USA,2,4441|5696,1|1|,Elmira NY USA|Pine City NY United States|",42.090408,-76.798813
3559,El Paso Intl,El Paso,United States,ELP,KELP,31.80725,-106.377583,5705.333382,21340,"Univ Texas El Paso, Coll Engn, Ctr Transportat Infrastruct Syst, El Paso, TX 79968 USA,31.7591590881,-106.487487793,El Paso TX United States,86,573,86|,El Paso TX United States|",31.759159,-106.487488
4276,Erie Intl Tom Ridge Fld,Erie,United States,ERI,KERI,42.082022,-80.176217,960,21500,"Erie Cty Court Common Pleas, Erie, PA USA,42.1294403076,-80.0852432251,Erie PA United States,12,1655|3614,10|2|,Erie PA United States|Edinboro PA United States|",42.12944,-80.085243
4099,Mahlon Sweet Fld,Eugene,United States,EUG,KEUG,44.124583,-123.211972,3088,21660,"1218 Univ Oregon, Dept Anthropol, Eugene, OR 97403 USA,44.0499191284,-123.088539124,Eugene OR United States,237,262|5655,237|0|,Eugene OR United States|Springfield OR USA|",44.049919,-123.088539
4384,Arcata,Arcata CA,United States,ACV,KACV,40.978111,-124.108611,240,21700,"Humboldt State Univ, Arcata, CA USA,40.8676605225,-124.08506012,Arcata CA United States,12,1694|3714,10|2|,Arcata CA United States|Eureka CA USA|",40.867661,-124.08506
4018,Evansville Regional,Evansville,United States,EVV,KEVV,38.036997,-87.532364,2160,21780,"Indiana Univ Sch Med, Dept Anat & Cell Biol, Evansville, IN 47712 USA,37.9770812988,-87.5640487671,Evansville IN United States,97,561|5835,96|1|,Evansville IN United States|Mount Vernon IN United States|",37.977081,-87.564049
3832,Fairbanks Intl,Fairbanks,United States,FAI,PAFA,64.815114,-147.856267,3278,21820,"Univ Alaska Fairbanks, Inst Arctic Biol, Fairbanks, AK 99775 USA,64.8450775146,-147.722061157,Fairbanks AK United States,98,571|1901,90|8|,Fairbanks AK United States|Ft Wainwright AK USA|",64.845078,-147.722061
4292,Hector International Airport,Fargo,United States,FAR,KFAR,46.92065,-96.815764,3492,22020,"N Dakota State Univ, Fargo, ND 58108 USA,46.8759117126,-96.7817611694,Fargo ND United States,119,545|1273,102|17|,Fargo ND United States|Moorhead MN United States|",46.875912,-96.781761
3743,Four Corners Rgnl,Farmington,United States,FMN,KFMN,36.74125,-108.229944,2160,22140,"Dine Coll, Shiprock, NM USA,36.785369873,-108.683410645,Shiprock NM United States,4,1686|6450,4|0|,Shiprock NM United States|Kirtland NM USA|",36.78537,-108.683411
5738,Fayetteville Regional Grannis Field,Fayetteville,United States,FAY,KFAY,34.9912,-78.8803,1944,22180,"Methodist Univ, Dept Philosophy & Relig, Fayetteville, NC 28311 USA,35.0544891357,-78.8775787354,Fayetteville NC United States,13,1506|6534,12|1|,Fayetteville NC United States|Fort Bragg NC United States|",35.054489,-78.877579
4356,NW Arkansas Regional,Bentonville,United States,XNA,KXNA,36.281869,-94.306811,5795,22220,"Fayetteville Publ Lib, Fayetteville, AR USA,36.0632019043,-94.157913208,Fayetteville AR United States,200,376|1886|3460|5247,190|7|2|1|,Fayetteville AR United States|Glendale AR USA|The Phoenix AR United States|Rogers AR USA|",36.063202,-94.157913
4124,Page Municipal Airport,Page,United States,PGA,KPGA,36.9261,-111.4483,1840,22380,"Lowell Observ, Flagstaff, AZ 86001 USA,35.1982002258,-111.651298523,Flagstaff AZ United States,210,345|2941,207|3|,Flagstaff AZ United States|Page AZ United States|",35.1982,-111.651299
4089,Bishop International,Flint,United States,FNT,KFNT,42.965424,-83.743629,3216,22420,"Bridges Future, Flint, MI USA,43.0114402771,-83.6867904663,Flint MI United States,522,169|1539|4260|4462|5443|6493|6866,508|9|2|1|1|1|0|,Flint MI United States|Grand Blanc MI United States|Davidson MI USA|Flushing MI USA|Fenton MI United States|Swartz Cr",43.01144,-83.68679
3879,Florence Rgnl,Florence,United States,FLO,KFLO,34.185361,-79.723889,480,22500,"Francis Marion Univ, Dept Biol, Florence, SC USA,34.1936302185,-79.7690582275,Florence SC United States,0,6726,0|,Florence SC United States|",34.19363,-79.769058
5756,Northwest Alabama Regional Airport,Muscle Shoals,United States,MSL,KMSL,34.7453,-87.6102,240,22520,"Univ N Alabama, Florence, AL USA,34.8004493713,-87.6752624512,Florence AL USA,3,2822,3|,Florence AL USA|",34.800449,-87.675262
3437,Fort Smith Rgnl,Fort Smith,United States,FSM,KFSM,35.336583,-94.367444,1200,22900,"Univ Arkansas Ft Smith, Carolyn McKelvey Moore Sch Nursing, Coll Hlth Sci, Ft Smith, AR 72913 USA,35.384601593,-94.4213027954,Ft Smith AR USA,1,6111,1|,Ft Smith AR USA|",35.384602,-94.421303
4041,Fort Wayne,Fort Wayne,United States,FWA,KFWA,40.978472,-85.195139,3878,23060,"Indiana Univ Purdue Univ, Coll Arts & Sci, Ft Wayne, IN 46805 USA,41.0802612305,-85.1383132935,Fort Wayne IN United States,625,141|5118,624|1|,Fort Wayne IN United States|Ft Wayne IN United States|",41.080261,-85.138313
3687,Fresno Yosemite Intl,Fresno,United States,FAT,KFAT,36.776194,-119.71814,4668,23420,"Calif State Univ Fresno, Dept Phys, Fresno, CA 93740 USA,36.7406806946,-119.785728455,Fresno CA United States,37,715|4112|5134|5232,35|0|1|1|,Fresno CA United States|Parlier CA United States|Pinedale CA United States|Sunnyside CA USA|",36.740681,-119.785728
3472,Gainesville Rgnl,Gainesville,United States,GNV,KGNV,29.690056,-82.271778,2846.666656,23540,"Univ Florida, Dept Astron, Bryant Space Sci Ctr 211, Gainesville, FL 32611 USA,29.6519508362,-82.3231811523,Gainesville FL United States,1366,49|3929|5939,1365|0|1|,Gainesville FL United States|Alachua FL United States|Newberry FL USA|",29.651951,-82.323181
7001,Aspen Pitkin County Sardy Field,Aspen,United States,ASE,KASE,39.2232,-106.869,480,24060,"Strategyn Inc, Aspen, CO USA,39.1900215149,-106.81817627,Aspen CO United States,1,5993,1|,Aspen CO United States|",39.190022,-106.818176
3442,Grand Forks Intl,Grand Forks,United States,GFK,KGFK,47.949256,-97.176111,1220,24220,"Univ N Dakota, Dept Chem, Grand Forks, ND 58202 USA,47.924079895,-97.0320281982,Grand Forks ND United States,72,672,72|,Grand Forks ND United States|",47.92408,-97.032028
4063,Grand Junction Regional,Grand Junction,United States,GJT,KGJT,39.122413,-108.526735,1920,24300,"Colorado Mesa Univ, Dept Phys & Environm Sci, Grand Junction, CO 81501 USA,39.0687904358,-108.564453125,Grand Junction CO United States,1,2169,1|,Grand Junction CO United States|",39.06879,-108.564453
3685,Gerald R Ford Intl,Grand Rapids,United States,GRR,KGRR,42.880833,-85.522806,7010.333328,24340,"Pine Rest Christian Mental Hlth Serv, Dept Behav Med, Grand Rapids, MI USA,42.9664115906,-85.6711807251,Grand Rapids MI United States,394,281|742|751|821|2150|6832|6868,245|60|54|29|6|0|0|,Grand Rapids MI United States|Hickory Corners MI United States|Ho",42.966412,-85.671181
3880,Great Falls Intl,Great Falls,United States,GTF,KGTF,47.482,-111.370689,1680,24500,"Univ Great Falls, Dept Business, Great Falls, MT 59405 USA,47.5071411133,-111.30606842,Great Falls MT United States,1,6217,1|,Great Falls MT United States|",47.507141,-111.306068
3653,Austin Straubel Intl,Green Bay,United States,GRB,KGRB,44.485072,-88.129589,1954,24580,"Green Bay Oncol, Green Bay, WI USA,44.5127906799,-88.0101623535,Green Bay WI United States,12,1497|5974,12|0|,Green Bay WI United States|De Pere WI USA|",44.512791,-88.010162
4008,Piedmont Triad,Greensboro,United States,GSO,KGSO,36.09775,-79.937306,6316.338074,24660,"Univ N Carolina, Dept Publ Hlth Educ, Greensboro, NC 27401 USA,36.0689888,-79.7947006226,Greensboro NC United States,111,451|2048|5600,105|5|1|,Greensboro NC United States|High Point NC United States|Asheboro NC USA|",36.068989,-79.794701
6130,Mid Delta Regional Airport,Greenville,United States,GLH,GLH,33.4829,-90.9856,240,24740,"Jamie Whitten Delta States Res Ctr, Genom & Bioinformat Res Unit, Stoneville, MS 38776 USA,33.422580719,-90.9173583984,Stoneville MS United States,3,2660,3|,Stoneville MS United States|",33.422581,-90.917358
6959,Pitt-Greenville Airport,Greenville,United States,PGV,KPGV,35.635278,-77.385278,480,24780,"E Carolina Univ, Greenville, NC USA,35.6072006226,-77.3802337646,Greenville NC United States,114,476,114|,Greenville NC United States|",35.607201,-77.380234
4038,Gulfport-Biloxi,Gulfport,United States,GPT,KGPT,30.407278,-89.070111,2160,25060,"Eco Modeling, Diamondhead, MS USA,30.3799095154,-89.3669509888,Diamondhead MS United States,6,3611|4197|4198,2|2|2|,Diamondhead MS United States|Gulfport MS United States|Ocean Springs MS USA|",30.37991,-89.366951
6739,Hagerstown Regional Richard A Henson Field,Hagerstown,United States,HGR,KHGR,39.7079,-77.7295,320,25180,"Meritus Med Ctr, Hagerstown, MD USA,39.6425018311,-77.7175827026,Hagerstown MD United States,3,2308|4920|6815,2|1|0|,Hagerstown MD United States|Keedysville MD USA|Milwaukee MD USA|",39.642502,-77.717583
3542,Harrisburg Intl,Harrisburg,United States,MDT,KMDT,40.193494,-76.763403,4737.333344,25420,"Penn State Univ, Dept Biochem & Mol Biol, Coll Med, Hershey, PA 17033 USA,40.2853813171,-76.6509094238,Hershey PA United States,296,283|1411|2080|2356|3943|4694,270|16|3|5|2|0|,Hershey PA United States|Hummelstown PA United States|Harrisburg PA United St",40.285381,-76.650909
3461,Boone Co,Harrison,United States,HRO,KHRO,36.261519,-93.154728,160,25460,"Whispering Pines Observ, Harrison, AR 72601 USA,36.2286186218,-93.1105194092,Harrison AR United States,1,6524,1|,Harrison AR United States|",36.228619,-93.110519
3825,Bradley Intl,Windsor Locks,United States,BDL,KBDL,41.938889,-72.683222,13674.633362,25540,"Univ Connecticut, Dept Civil & Environm Engn, Storrs, CT 06269 USA,41.8084793091,-72.2499389648,Storrs CT United States,679,238|311|427|903|1333|1462|1726|1896|2205|2703|3562|4599|4922|6459,295|180|118|37|13|9|10|5|4|3|2|1|1|1|,Storrs CT United States|Fa",41.808479,-72.249939
3504,Helena Rgnl,Helena,United States,HLN,KHLN,46.606806,-111.98275,1080,25740,"Indiana Univ, Judson Mead Geol Field Stn, Cardwell, MT 59721 USA,45.8604812622,-111.952629089,Cardwell MT United States,4,2764|3089,1|3|,Helena MT United States|Cardwell MT United States|",45.860481,-111.952629
3514,Kona Intl At Keahole,Kona,United States,KOA,PHKO,19.738767,-156.045631,7762.666656,25900,"Univ Hawaii, Coll Pharm, Dept Pharmaceut Sci, Hilo, HI 96720 USA,19.7192401886,-155.081848144,Hilo HI United States,140,537|705|4443|6443,88|51|0|1|,Hilo HI United States|Waimea HI United States|Pahoa HI USA|HI United States|",19.71924,-155.081848
7002,Hilton Head,Hilton Head,United States,HHH,KHHH,32.216,-80.752,960,25940,"Spine Ctr, Bluffton, SC USA,32.2372093201,-80.861328125,Bluffton SC United States,4,2773,4|,Bluffton SC United States|",32.237209,-80.861328
5741,Memorial Field,Hot Springs,United States,HOT,KHOT,34.478,-93.0962,160,26300,"Arizona State Univ, Sch Publ Affairs, Off Management & Budget, Courses Performance Management, Maricopa Cty, AR USA,34.5220108032,-93.1885986328,Maricopa Cty AR USA,2,3463,2|,Maricopa Cty AR USA|",34.522011,-93.188599
5732,Houghton County Memorial Airport,Hancock,United States,CMX,KCMX,47.1684,-88.4891,240,26340,"Michigan Technol Univ, Sch Forest Resources & Environm Sci, Houghton, MI 49931 USA,47.1218605042,-88.570022583,Houghton MI United States,120,498|3837|4693,118|1|1|,Houghton MI United States|Boston MI USA|Hancock MI USA|",47.121861,-88.570023
3550,George Bush Intercontinental,Houston,United States,IAH,KIAH,29.984433,-95.341442,99796.9524,26420,"Baylor Coll Med, Houston, TX 77030 USA,29.7604503632,-95.3697814941,Houston TX United States,3832,14|321|920|1649|1768|2083|3515|4813|4866|5429|5430|5847|6510|6563|6585,3539|230|35|6|10|7|0|1|1|1|0|0|1|1|0|,Houston TX United States|Galveston TX United St",29.76045,-95.369781
5742,Tri State Milton J Ferguson Field,Huntington,United States,HTS,KHTS,38.3667,-82.558,1260,26580,"Marshall Univ, Dept Biochem & Microbiol, Byrd Biotechnol Sci Ctr, Huntington, WV 25755 USA,38.4198188782,-82.4453735352,Huntington WV United States,37,958|2793|5387|5782,32|3|1|1|,Huntington WV United States|Ashland KY United States|Chesapeake OH USA|Fla",38.419819,-82.445374
4113,Huntsville International Airport-Carl T Jones Field,Huntsville,United States,HSV,KHSV,34.637194,-86.775056,4294.333313,26620,"Univ Alabama, CSPAR, Huntsville, AL 35899 USA,34.7291297913,-86.5849761963,Huntsville AL United States,105,458|2910|4422,102|2|1|,Huntsville AL United States|Normal AL United States|Redstone Arsenal AL USA|",34.72913,-86.584976
4100,Idaho Falls Rgnl,Idaho Falls,United States,IDA,KIDA,43.514556,-112.07075,960,26820,"Idaho Natl Lab, Idaho Falls, ID 83415 USA,43.4920005798,-112.041992188,Idaho Falls ID United States,14,1501,14|,Idaho Falls ID United States|",43.492001,-112.041992
3585,Indianapolis Intl,Indianapolis,United States,IND,KIND,39.717331,-86.294383,17516.166656,26900,"Indiana Univ Sch Med, Dept Cellular & Integrat Physiol, Indianapolis, IN USA,39.766910553,-86.1499633789,Indianapolis IN United States,50578,2|760|1138|1332|1563|1812|2201|3088|3091|3409|3482|3731|3733|3735|3736|3737|3738|3739|5113|5117|5120|5127|5128|51",39.766911,-86.149963
3947,Ithaca Tompkins Rgnl,Ithaca,United States,ITH,KITH,42.491028,-76.458444,960,27060,"Kavli Inst Cornell Nanoscale Sci, Ithaca, NY 14853 USA,42.4405097961,-76.4954605103,Ithaca NY United States,889,59,889|,Ithaca NY United States|",42.44051,-76.495461
3580,Jackson Evers Intl,Jackson,United States,JAN,KJAN,32.311167,-90.075889,4342.499931,27140,"Univ Mississippi, Med Ctr, Dept Psychiat & Human Behav, Jackson, MS 39216 USA,32.2986907959,-90.1804885864,Jackson MS United States,281,255|2254|5797,275|5|1|,Jackson MS United States|Tougaloo MS United States|Flowood MS United States|",32.298691,-90.180489
3704,Mc Kellar Sipes Rgnl,Jackson,United States,MKL,KMKL,35.599889,-88.915611,160,27180,"Union Univ, McAfee Sch Business, Jackson, TN USA,35.613899231,-88.8193969727,Jackson TN United States,1,4092,1|,Jackson TN United States|",35.613899,-88.819397
4027,Jackson Hole Airport,Jacksn Hole,United States,JAC,KJAC,43.607333,-110.73775,488,27220,"GATS Inc, Driggs, ID USA,43.7237815857,-111.111061096,Driggs ID USA,3,3659|6437,2|1|,Driggs ID USA|Jackson WY USA|",43.723782,-111.111061
3712,Jacksonville Intl,Jacksonville,United States,JAX,KJAX,30.494056,-81.687861,12544.5,27260,"Univ Florida, Dept Med, Jacksonville, FL USA,30.3314704895,-81.6562194824,Jacksonville FL United States,371,200|2478|5010|6062|6796,364|5|1|1|0|,Jacksonville FL United States|St Augustine FL United States|Orange Park FL United States|Green Cove Springs F",30.33147,-81.656219
4386,Albert J Ellis,Jacksonville NC,United States,OAJ,KOAJ,34.829164,-77.612139,1680,27340,"USN, Hosp Camp Lejeune, Camp Lejeune, NC USA,34.7257003784,-77.3440933228,Camp Lejeune NC United States,1,4234,1|,Camp Lejeune NC United States|",34.7257,-77.344093
7059,Chautauqua County-Jamestown,Jamestown,United States,JHW,KJHW,42.153333,-79.258056,480,27460,"New York State Dept Environm Conservat, Lake Erie Fisheries Res Unit, Dunkirk, NY 14048 USA,42.4872398376,-79.3357772827,Dunkirk NY USA,3,2782|3900|6593,1|2|0|,Fredonia NY United States|Dunkirk NY USA|Irving NY United States|",42.48724,-79.335777
4169,John Murtha Johnstown-Cambria County Airport,Johnstown,United States,JST,KJST,40.316111,-78.833889,480,27780,"Mt Aloysius Coll, Sci & Math Dept, Cresson, PA USA,40.4686088562,-78.5802993774,Cresson PA USA,3,5488|5960|6328,1|1|1|,Cresson PA USA|Loretto PA USA|Johnstown PA United States|",40.468609,-78.580299
4354,Joplin Rgnl,Joplin,United States,JLN,KJLN,37.151814,-94.498269,480,27900,"St Johns Reg Med Ctr, Joplin, MO USA,37.0847587585,-94.5134735107,Joplin MO United States,1,5965,1|,Joplin MO United States|",37.084759,-94.513474
3492,Juneau Intl,Juneau,United States,JNU,PAJN,58.354972,-134.576278,3104,27940,"Univ Alaska Southeast, Biol & Marine Biol Program, Juneau, AK USA,58.2997283936,-134.406784058,Juneau AK United States,2,4098,2|,Juneau AK United States|",58.299728,-134.406784
3456,Kahului,Kahului,United States,OGG,PHOG,20.89865,-156.430458,14774,27980,"Maui High Performance Comp Ctr, Kihei, HI 96753 USA,20.782119751,-156.463119507,Kihei HI United States,2,4348|5396|6733,1|1|0|,Kihei HI United States|Makawao HI USA|Pukalani HI USA|",20.78212,-156.46312
4039,Kalamazoo,Kalamazoo,United States,AZO,KAZO,42.234875,-85.552058,1440,28020,"Western Michigan Univ, Kalamazoo, MI 49008 USA,42.2915687561,-85.588508606,Kalamazoo MI United States,170,374|3864|3951,168|2|0|,Kalamazoo MI United States|Mattawan MI USA|Portage MI USA|",42.291569,-85.588509
4127,Glacier Park Intl,Kalispell,United States,FCA,KFCA,48.310472,-114.256,1200,28060,"Genectar Com LLC, Whitefish, MT 59937 USA,48.410610199,-114.337471008,Whitefish MT USA,1,4951|6446,1|0|,Whitefish MT USA|W Glacier MT USA|",48.41061,-114.337471
3458,Kansas City Intl,Kansas City,United States,MCI,KMCI,39.297606,-94.713905,20227.000031,28140,"Childrens Mercy Hosp, Kansas City, MO 64108 USA,39.1029510498,-94.5830764771,Kansas City MO United States,630,191|363|1441|1495|1967|2166|2266|2629|3536|3605|4611|4818|5300|5636|6036|6744,401|183|10|14|0|6|6|4|2|2|0|0|1|0|1|0|,Kansas City MO United State",39.102951,-94.583076
6129,Kearney Municipal Airport,Kearney,United States,EAR,EAR,40.727,-99.0068,80,28260,"Univ Nebraska, Coll Business & Technol, Kearney, NE 68849 USA,40.7004699707,-99.0834732056,Kearney NE USA,1,6303,1|,Kearney NE USA|",40.70047,-99.083473
6133,Tri Cities Airport,Pasco,United States,PSC,PSC,46.2647,-119.119,1920,28420,"Hanford Observ, LIGO, Richland, WA 99352 USA,46.2739105225,-119.273719788,Richland WA United States,387,179,387|,Richland WA United States|",46.273911,-119.27372
3808,Ketchikan Intl,Ketchikan,United States,KTN,PAKT,55.355556,-131.71375,3168,28540,"Univ Arkansas, Dept Pediat, Little Rock, AK USA,55.0032997131,-131.18800354,Little Rock AK USA,1,6112,1|,Little Rock AK USA|",55.0033,-131.188004
3775,Robert Gray Aaf,Killeen,United States,GRK,KGRK,31.06725,-97.828917,1440,28660,"Scott & White Mem Hosp & Clin, Texas A&M Hlth Sci Ctr, Dept Internal Med, Temple, TX 76508 USA,31.0974693298,-97.3430328369,Temple TX United States,87,548|3034|4069,82|3|2|,Temple TX United States|Ft Hood TX USA|Killeen TX USA|",31.097469,-97.343033
4116,Tri-Cities Regional Airport,BRISTOL,United States,TRI,KTRI,36.475222,-82.407417,1692,28700,"Eastman Chem Co, Appl Stat Grp, Kingsport, TN USA,36.5477981567,-82.5604171753,Kingsport TN United States,4,3025|3779|4855|6381,2|0|1|1|,Kingsport TN United States|Abingdon VA USA|Emory VA United States|Bristol TN USA|",36.547798,-82.560417
5744,Kirksville Regional Airport,Kirksville,United States,IRK,KIRK,40.0935,-92.5449,80,28860,"AT Still Univ Hlth Sci, Dept Pharmacol, Kirksville, MO 63501 USA,40.1966896057,-92.5720214844,Kirksville MO United States,8,1889,8|,Kirksville MO United States|",40.19669,-92.572021
5750,Klamath Falls Airport,Klamath Falls,United States,LMT,KLMT,42.1561,-121.733,160,28900,"Sky Lakes Med Ctr, Klamath Falls, OR USA,42.2238807678,-121.782058716,Klamath Falls OR USA,2,3227,2|,Klamath Falls OR USA|",42.223881,-121.782059
3676,Mc Ghee Tyson,Knoxville,United States,TYS,KTYS,35.810972,-83.994028,7463,28940,"Univ Tennessee, Oak Ridge Natl Lab, Dept Biochem, Ctr Biophys Mol, Oak Ridge, TN USA,36.0145301819,-84.2565383911,Oak Ridge TN United States,795,211|213|3836|3905|5768|6382,365|425|1|2|1|1|,Knoxville TN United States|Oak Ridge TN United States|Maryville",36.01453,-84.256538
4044,La Crosse Municipal,La Crosse,United States,LSE,KLSE,43.878986,-91.256711,720,29100,"Univ Wisconsin, Dept Exercise & Sport Sci, La Crosse, WI 54601 USA,43.8126182556,-91.2519226074,La Crosse WI United States,44,842|4999,43|1|,La Crosse WI United States|La Crosse WI United States|",43.812618,-91.251923
3493,Lafayette Rgnl,Lafayette,United States,LFT,KLFT,30.205278,-91.987611,1440,29180,"Faith Hope & Love Canc Ctr, Lafayette, IN USA,30.2203197479,-92.0170516968,Lafayette LA United States,96,657|1178,75|21|,Lafayette LA United States|Lafayette LA United States|",30.22032,-92.017052
3513,Lake Charles Rgnl,Lake Charles,United States,LCH,KLCH,30.126112,-93.223335,720,29340,"Rockefeller Wildlife Refuge, Louisiana Dept Wildlife & Fisheries, Grand Chenier, LA 70643 USA,29.7666702271,-92.9755096436,Grand Chenier LA United States,2,3378|3993,0|2|,Lake Charles LA United States|Grand Chenier LA United States|",29.76667,-92.97551
6132,Kingman Airport,Kingman,United States,IGM,IGM,35.2595,-113.938,1008,29420,"Rehab Walls, Marshall, AZ USA,34.460231781,-114.274772644,Lake Havasu City AZ United States,1,4434|5783,0|1|,Lake Havasu City AZ USA|Lake Havasu City AZ United States|",34.460232,-114.274773
5751,Lancaster Airport,Lancaster,United States,LNS,KLNS,40.1217,-76.2961,80,29540,"Franklin & Marshall Coll, Dept Geosci, Lancaster, PA 17604 USA,40.0237312317,-76.3317184448,Lancaster PA United States,36,980|2346|2704|4852|4892,27|5|4|0|0|,Lancaster PA United States|Strasburg PA United States|Millersville PA United States|Elizabethtow",40.023731,-76.331718
3544,Capital City,Lansing,United States,LAN,KLAN,42.7787,-84.587357,1952,29620,"Michigan State Univ, Eli Broad Grad Sch Management, Dept Management, E Lansing, MI 48824 USA,42.7374992371,-84.4837799072,East Lansing MI United States,2214,35|377|1037|3711|5416,2018|170|24|1|1|,East Lansing MI United States|Lansing MI United States|Oke",42.737499,-84.48378
5746,Laramie Regional Airport,Laramie,United States,LAR,KLAR,41.3121,-105.675,80,29660,"Univ Wyoming, Dept Mol Biol, Laramie, WY 82071 USA,41.310798645,-105.590316773,Laramie WY United States,196,358,196|,Laramie WY United States|",41.310799,-105.590317
3691,Laredo Intl,Laredo,United States,LRD,KLRD,27.54375,-99.461556,960,29700,"Texas A&M Int, Behav Sci, Laredo, TX USA,27.5309200287,-99.5019989014,Laredo TX United States,7,2093,7|,Laredo TX United States|",27.53092,-99.501999
3877,Mc Carran Intl,Las Vegas,United States,LAS,KLAS,36.080056,-115.15225,77637.411911,29820,"Comprehens Canc Ctr Nevada, Las Vegas, NV USA,36.1719093323,-115.139968872,Las Vegas NV United States,183,395|1312|4585|6058|6454,162|18|1|1|1|,Las Vegas NV United States|Henderson NV United States|Las Vegas NV United States|Henderson NV United States|Bo",36.171909,-115.139969
3945,Lewiston Nez Perce Co,Lewiston,United States,LWS,KLWS,46.3745,-117.015389,960,30300,"Snake River Community Clin, Lewiston, ID USA,46.4186592102,-117.016647339,Lewiston ID United States,0,5924,0|,Lewiston ID United States|",46.418659,-117.016647
4017,Blue Grass,Lexington KY,United States,LEX,KLEX,38.0365,-84.605889,4867.5,30460,"Univ Kentucky, Dept Mech Engn, Lexington, KY 40506 USA,38.0485916138,-84.5003204346,Lexington KY United States,810,102,810|,Lexington KY United States|",38.048592,-84.50032
3543,Lincoln,Lincoln,United States,LNK,KLNK,40.850971,-96.75925,720,30700,"Univ Nebraska, Dept Biochem, Lincoln, NE 68588 USA,40.813621521,-96.7077407837,Lincoln NE United States,408,164,408|,Lincoln NE United States|",40.813622,-96.707741
3660,Adams Fld,Little Rock,United States,LIT,KLIT,34.729444,-92.224306,7042.666687,30780,"Univ Arkansas Med Sci, Dept Surg, Coll Med, Little Rock, AR 72205 USA,34.7486495972,-92.2744903564,Little Rock AR United States,473,208|1101|1763|2780|2943,431|26|10|4|2|,Little Rock AR United States|North Little Rock AR United States|Conway AR United St",34.74865,-92.27449
7584,Los Alamos Airport,Los Alamos,United States,LAM,KLAM,35.879802,-106.269415,80,31060,"Los Alamos Natl Lab, Los Alamos, NM 87545 USA,35.8806381226,-106.304389954,Los Alamos NM United States,715,104,715|,Los Alamos NM United States|",35.880638,-106.30439
3484,Los Angeles Intl,Los Angeles,United States,LAX,KLAX,33.942536,-118.408075,220184.500221,31080,"Univ Calif Los Angeles, Dept Med, Los Angeles, CA 90024 USA,34.0534896851,-118.245323181,Los Angeles CA United States,8062,9|43|108|319|364|493|527|611|624|679|808|922|940|1018|1054|1156|1424|1427|1509|1612|1716|1761|1809|1846|1954|1974|2050|2056|2115|21",34.05349,-118.245323
4014,Louisville International Airport,Louisville,United States,SDF,KSDF,38.174086,-85.736499,10134.000031,31140,"DermResearch PLLC, Louisville, KY USA,38.2548599243,-85.7664031982,Louisville KY United States,701,168|362|3741,514|185|2|,Louisville KY United States|New Albany IN United States|New Albany IN United States|",38.25486,-85.766403
3829,Lubbock Preston Smith Intl,Lubbock,United States,LBB,KLBB,33.663639,-101.822778,2254.666687,31180,"Texas Tech Univ, Dept Chem & Biochem, Lubbock, TX 79409 USA,33.5845108032,-101.84500885,Lubbock TX United States,180,385|3860,179|1|,Lubbock TX United States|Shallowater TX USA|",33.584511,-101.845009
5753,Lynchburg Regional Preston Glenn Field,Lynchburg,United States,LYH,KLYH,37.3267,-79.2004,480,31340,"Centra Lynchburg Gen Hosp, Lynchburg, VA USA,37.4140205383,-79.1428375244,Lynchburg VA USA,5,1898,5|,Lynchburg VA USA|",37.414021,-79.142838
3754,Middle Georgia Rgnl,Macon,United States,MCN,KMCN,32.69285,-83.649211,480,31420,"Childrens Hosp MCCG, Macon, GA USA,32.839679718,-83.6275787354,Macon GA United States,34,1125|2539|2611|3037|3847|4373|6211|6595,22|2|4|3|2|1|0|0|,Macon GA United States|Abastumani GA USA|GA United States|GA United States|Macon GA United States|Mt Kanobi",32.83968,-83.627579
3459,Dane Co Rgnl Truax Fld,Madison,United States,MSN,KMSN,43.139858,-89.337514,4217.166672,31540,"Univ Wisconsin, Lab Archaeol Chem, Madison, WI 53706 USA,43.0424690247,-89.403968811,Madison WI United States,1945,40|2013|2283|4213|4247,1928|7|6|2|2|,Madison WI United States|Madison WI United States|Middleton WI United States|Stoughton WI United State",43.042469,-89.403969
5770,Adirondack Regional Airport,Saranac Lake,United States,SLK,KSLK,44.3853,-74.2062,80,31660,"Trudeau Inst Inc, Saranac Lake, NY 12983 USA,44.3245315552,-74.1317901611,Saranac Lake NY United States,2,4082|6072,2|0|,Saranac Lake NY United States|Sarnac Lake NY USA|",44.324532,-74.13179
4050,Manhattan Reigonal,Manhattan,United States,MHK,KMHK,39.140972,-96.670833,960,31740,"Kansas State Univ, Manhattan, KS 66506 USA,39.1788101196,-96.5618362427,Manhattan KS United States,123,353,123|,Manhattan KS United States|",39.17881,-96.561836
6838,Sawyer International Airport,Marquette,United States,MQT,KMQT,46.353611,-87.395278,720,32100,"Marquette Fisheries Res Stn, Michigan Dept Nat Resources, Marquette, MI 49855 USA,46.545841217,-87.4136810303,Marquette MI United States,13,1274,13|,Marquette MI United States|",46.545841,-87.413681
2888,Eugenio Maria De Hostos,Mayaguez,Puerto Rico,MAZ,TJMZ,18.255694,-67.148472,80,32420,"Univ Puerto Rico, Mayaguez, PR 00681 USA,18.2036800385,-67.1468963623,Mayaguez  Puerto Rico,37,606,37|,Mayaguez  Puerto Rico|",18.20368,-67.146896
3826,Mc Allen Miller Intl,Mcallen,United States,MFE,KMFE,26.175833,-98.238611,1545.333344,32580,"Univ Texas Pan Amer, Dept Psychol, Edinburg, TX 78539 USA,26.3011608124,-98.160697937,Edinburg TX United States,24,1298|3193|3219|5832,17|3|3|1|,Edinburg TX United States|London Court TX United States|McAllen TX United States|Mercedes TX USA|",26.301161,-98.160698
4101,Rogue Valley Intl Medford,Medford,United States,MFR,KMFR,42.374228,-122.8735,2080,32780,"Stroo Consulting LLC, Ashland, OR 97520 USA,42.1996688843,-122.717033386,Ashland OR United States,7,2779|3045,4|3|,Ashland OR United States|Medford OR United States|",42.199669,-122.717033
3473,Memphis Intl,Memphis,United States,MEM,KMEM,35.042417,-89.976667,13395.999939,32820,"FedEx World Headquarters, Memphis, TN 38125 USA,35.1497612,-90.0492477417,Memphis TN United States,452,187|2119|5688|6274|6688,443|7|1|1|0|,Memphis TN United States|Arlington TN United States|Germantown TN United States|Collierville TN USA|Memphis TN Uni",35.149761,-90.049248
7122,Merced Municipal Airport,Merced,United States,MCE,KMCE,37.284722,-120.513889,240,32900,"Univ California, Merced, CA 95340 USA,37.3012695313,-120.486198425,Merced CA United States,41,873,41|,Merced CA United States|",37.30127,-120.486198
3576,Miami Intl,Miami,United States,MIA,KMIA,25.79325,-80.290556,200738.216049,33100,"Univ Miami, Miller Sch Med, Dept Psychiat & Behav Sci, Miami, FL 33136 USA,25.774810791,-80.1977310181,Miami FL United States,1098,99|413|633|739|850|1175|1362|1460|1723|1908|1944|2005|2571|2600|2757|3069|3150|3163|3304|3305|3485|3598|3638|3657|3774|3780",25.774811,-80.197731
3717,General Mitchell Intl,Milwaukee,United States,MKE,KMKE,42.947222,-87.896583,15602.800003,33340,"Med Coll Wisconsin, Dept Biostat, Milwaukee, WI 53226 USA,43.041809082,-87.9068374634,Milwaukee WI United States,822,92|1389|2044|3841|4428|5413|5623|5747|6017|6509,802|11|4|2|1|0|0|0|1|1|,Milwaukee WI United States|Waukesha WI United States|Wauwatosa WI",43.041809,-87.906837
3858,Minneapolis St Paul Intl,Minneapolis,United States,MSP,KMSP,44.881956,-93.221767,60979.169266,33460,"Univ Minnesota, Minneapolis, MN USA,44.9790306091,-93.2649307251,Minneapolis MN United States,1996,41|261|1281|1663|1776|1958|2089|2199|2934|3210|3222|3309|3470|3639|3759|3955|3957|4311|4623|5018|5019|5175|5466|6066|6100|6289|6290|6291|6429|6480,1613|301",44.979031,-93.264931
3498,Minot Intl,Minot,United States,MOT,KMOT,48.259378,-101.280333,1208,33500,"Minot State Univ, Minot, ND USA,48.2361106873,-101.296066284,Minot ND United States,1,5468,1|,Minot ND United States|",48.236111,-101.296066
4216,Missoula Intl,Missoula,United States,MSO,KMSO,46.916306,-114.090556,1688,33540,"Univ Montana, Div Biol Sci, Missoula, MT 59812 USA,46.8727798462,-113.996231079,Missoula MT United States,96,549,96|,Missoula MT United States|",46.87278,-113.996231
3782,Mobile Rgnl,Mobile,United States,MOB,KMOB,30.691231,-88.242814,2145.299988,33660,"Univ S Alabama, Mobile, AL 36688 USA,30.6863899231,-88.053237915,Mobile AL United States,75,600|2602,71|4|,Mobile AL United States|Dauphin Island AL United States|",30.68639,-88.053238
3816,Modesto City Co Harry Sham,Modesto,United States,MOD,KMOD,37.625817,-120.954422,80,33700,"Calif State Univ Stanislaus, Dept Teacher Educ, Turlock, CA 95382 USA,37.495010376,-120.846420288,Turlock CA United States,2,2969|4539,1|1|,Turlock CA United States|Stanislaus CA USA|",37.49501,-120.84642
3732,Monroe Rgnl,Monroe,United States,MLU,KMLU,32.510864,-92.037689,1440,33740,"Delta Res Partners LLC, Monroe, LA USA,32.5098304749,-92.1187896729,Monroe LA United States,3,2174,3|,Monroe LA United States|",32.50983,-92.11879
4115,Montgomery Regional Airport,MONTGOMERY,United States,MGM,KMGM,32.300639,-86.393972,1680,33860,"Alabama Liver & Digest Specialists, Montgomery, AL USA,32.3801193237,-86.3006286621,Montgomery AL United States,10,1700,10|,Montgomery AL United States|",32.380119,-86.300629
4284,Morgantown Muni Walter L Bill Hart Fld,Morgantown,United States,MGW,KMGW,39.642908,-79.916314,480,34060,"W Virginia Univ, Dept Polit Sci, Morgantown, WV 26506 USA,39.6303710938,-79.9578475952,Morgantown WV United States,286,294,286|,Morgantown WV United States|",39.630371,-79.957848
5754,Muskegon County Airport,Muskegon,United States,MKG,KMKG,43.1695,-86.2382,240,34740,"NOAA GLERL, Lake Michigan Field Stn, Muskegon, MI 49441 USA,43.2342414856,-86.2459335327,Muskegon MI USA,41,888|3707,40|1|,Muskegon MI USA|Whitehall MI USA|",43.234241,-86.245934
3515,Myrtle Beach Intl,Myrtle Beach,United States,MYR,KMYR,33.67975,-78.928333,8785.5,34820,"Carolina Urol Res Ctr, Myrtle Beach, SC USA,33.693561554,-78.8826599121,Myrtle Beach SC United States,14,1542|2168,10|4|,Myrtle Beach SC United States|Conway SC United States|",33.693562,-78.88266
4012,Naples Muni,Naples,United States,APF,KAPF,26.152619,-81.775294,80,34940,"Bittman Biostat Inc, Naples, FL USA,26.1390895844,-81.795791626,Naples FL USA,0,4509,0|,Naples FL USA|",26.13909,-81.795792
3690,Nashville Intl,Nashville,United States,BNA,KBNA,36.124472,-86.678194,20855.199829,34980,"Vanderbilt Univ, Med Ctr, Dept Pediat Surg, Nashville, TN USA,36.1678390503,-86.7781600952,Nashville TN United States,1361,54|1322|2507|2577|4239|4386|4923,1333|16|5|3|2|1|1|,Nashville TN United States|Murfreesboro TN United States|Brentwood TN USA|Frank",36.167839,-86.77816
3730,Craven Co Rgnl,New Bern,United States,EWN,KEWN,35.072972,-77.042944,1200,35100,"USN Hosp Cherry Point, Havelock, NC USA,34.875579834,-76.9034500122,Havelock NC United States,2,4230|4465,1|1|,Havelock NC United States|Oriental NC USA|",34.87558,-76.90345
4006,Tweed-New Haven Airport,New Haven,United States,HVN,KHVN,41.26375,-72.886806,480,35300,"Yale Canc Ctr, Sect Med Oncol, New Haven, CT USA,41.3076210022,-72.924621582,New Haven CT United States,2068,34|344|661|1250|1684|2114|2548|2868|3062|3124|3856|5439|6547|6548|6668,1773|197|63|12|6|4|4|2|0|3|1|1|1|1|0|,New Haven CT United States|West Have",41.307621,-72.924622
3861,Louis Armstrong New Orleans Intl,New Orleans,United States,MSY,KMSY,29.993389,-90.258028,32552.647636,35380,"Louisiana State Univ Hlth Sci Ctr New Orleans, New Orleans, LA USA,29.9536991119,-90.0777511597,New Orleans LA United States,544,144|2094|4322|6076,536|7|1|0|,New Orleans LA United States|Covington LA United States|Metairie LA United States|Belle Chasse",29.953699,-90.077751
3797,John F Kennedy Intl,New York,United States,JFK,KJFK,40.639751,-73.778925,340216.795471,35620,"Mem Sloan Kettering Canc Ctr, New York, NY USA,40.7820014954,-73.831703186,New York NY United States,10538,6|89|119|132|207|282|293|313|334|471|499|553|617|628|658|701|713|719|747|765|802|827|835|857|881|901|908|916|950|1040|1078|1111|1116|1157|1169|1220",40.782001,-73.831703
5748,North Platte Regional Airport Lee Bird Field,North Platte,United States,LBF,KLBF,41.1262,-100.684,240,35820,"N Platte Orthopaed & Sports Med Associates, N Platte, NE USA,41.1363182068,-100.763328552,N Platte NE USA,1,5507,1|,N Platte NE USA|",41.136318,-100.763329
4067,Sarasota Bradenton Intl,Sarasota,United States,SRQ,KSRQ,27.395444,-82.554389,3587.333344,35840,"Mote Marine Lab, Sarasota, FL 34236 USA,27.3388805389,-82.5396270752,Sarasota FL United States,35,1014|2090|3680|4089|4612|4733|5697,25|6|2|0|1|1|0|,Sarasota FL United States|Bradenton FL United States|Tampa Bay FL USA|Venice FL USA|Gaines FL USA|Longboa",27.338881,-82.539627
3546,Massena Intl Richards Fld,Massena,United States,MSS,KMSS,44.935833,-74.845547,160,36300,"Clarkson Univ, Potsdam, NY USA,44.6698608398,-74.9858932495,Potsdam NY United States,27,1058|2775,25|2|,Potsdam NY United States|Canton NY United States|",44.669861,-74.985893
3863,Will Rogers World,Oklahoma City,United States,OKC,KOKC,35.393089,-97.600733,10049.333328,36420,"Med Ctr, US Dept Vet Affairs, Oklahoma City, OK 73104 USA,35.4720306396,-97.5210723877,Oklahoma City OK United States,551,216|239|1206|1960|5635,233|307|4|6|1|,Norman OK United States|Oklahoma City OK United States|Langston OK United States|Edmond OK Uni",35.472031,-97.521072
3454,Eppley Afld,Omaha,United States,OMA,KOMA,41.303167,-95.894069,8538.666595,36540,"Univ Nebraska Med Ctr, Eppley Canc Ctr, Nebraska Med Ctr, Omaha, NE USA,41.2606887817,-95.9405899048,Omaha NE United States,334,189|6091,333|1|,Omaha NE United States|Union NE USA|",41.260689,-95.94059
3878,Orlando Intl,Orlando,United States,MCO,KMCO,28.429394,-81.308994,88688.166611,36740,"Univ Cent Florida, Coll Business Adm, Orlando, FL 32816 USA,28.538230896,-81.3773880005,Orlando FL United States,228,361|1727|1748|4908|4909|4964|5452|6065|6162,203|10|9|1|1|1|1|1|1|,Orlando FL United States|Celebration FL USA|Winter Park FL United State",28.538231,-81.377388
5758,Owensboro Daviess County Airport,Owensboro,United States,OWB,KOWB,37.7401,-87.1668,320,36980,"James Graham Brown Canc Ctr, Owensboro, KY USA,37.7742118835,-87.1135101318,Owensboro KY United States,6,2206,6|,Owensboro KY United States|",37.774212,-87.11351
3671,Melbourne Intl,Melbourne,United States,MLB,KMLB,28.102753,-80.645258,1200,37340,"Florida Inst Technol, Melbourne, FL 32901 USA,28.0794296265,-80.6071777344,Melbourne FL United States,22,1266|1818|3607|5591|5682,11|9|1|0|1|,Melbourne FL United States|Cape Canaveral FL USA|Brevard Co. FL United States|Rockledge IL USA|Titusville FL USA",28.07943,-80.607178
7669,Panama City-NW Florida Bea.,Panama City,United States,ECP,KECP,30.3417,-85.7973,1718.999969,37460,"Florida State Univ, Panama City, FL 32405 USA,30.1598701477,-85.6603317261,Panama City FL United States,3,1909,3|,Panama City FL United States|",30.15987,-85.660332
3564,Pensacola Rgnl,Pensacola,United States,PNS,KPNS,30.473425,-87.186611,5052,37860,"Naval Hosp Pensacola, Pensacola, FL USA,30.4208393097,-87.2172393799,Pensacola FL United States,16,1248|4220,14|2|,Pensacola FL United States|Gulf Breeze FL USA|",30.420839,-87.217239
4046,Peoria Regional,Peoria,United States,PIA,KPIA,40.664203,-89.693258,3630,37900,"Univ Illinois, Coll Med, Dept Neurol, Peoria, IL 61656 USA,40.6921386719,-89.5877609253,Peoria IL United States,51,804|2861,48|3|,Peoria IL United States|Metamora IL United States|",40.692139,-89.587761
3752,Philadelphia Intl,Philadelphia,United States,PHL,KPHL,39.871944,-75.241139,89391.631027,37980,"Fox Chase Canc Ctr, Philadelphia, PA 19111 USA,39.9691505432,-75.2064437866,Philadelphia PA United States,5329,10|270|426|487|522|637|729|740|746|752|792|831|1108|1224|1276|1338|1369|1372|1373|1439|1547|1556|1587|1590|1735|1867|1981|2213|2219|2240|2316|2",39.969151,-75.206444
3462,Phoenix Sky Harbor Intl,Phoenix,United States,PHX,KPHX,33.434278,-112.011583,82575.266815,38060,"Arizona State Univ, Sch Engn Matter Transport & Energy, Tempe, AZ 85287 USA,33.4255104065,-111.937423706,Tempe AZ United States,38206,3|15|94|160|243|517|554|998|1192|1885|1953|2012|2417|2564|2940|2942|3461|3462|3522|3597|3633|3706|4436|4437|4438|5711|68",33.42551,-111.937424
5761,Pierre Regional Airport,Pierre,United States,PIR,KPIR,44.3827,-100.286,1920,38180,"Univ S Dakota, Souix Falls, SD USA,44.4361343384,-100.230529785,Souix Falls SD USA,1,4001|6346,0|1|,Pierre SD United States|Souix Falls SD USA|",44.436134,-100.23053
3570,Pittsburgh Intl,Pittsburgh,United States,PIT,KPIT,40.491467,-80.232872,20314.833328,38300,"Univ Pittsburgh, Dept Hist & Philosophy Sci, Pittsburgh, PA USA,40.4383392334,-79.997467041,Pittsburgh PA United States,3160,16|1645|1945|2445|3406|3641|3663|3947|4188|4356|4497|4498|4540|5030|5392|5527|5695|5707|5890|5921|6329|6576|6686,3124|7|7|5|1|2|1",40.438339,-79.997467
3771,Plattsburgh Intl,Plattsburgh,United States,PBG,KPBG,44.650944,-73.468139,1860,38460,"Hamilton Coll, Clinton, NY 13323 USA,44.7462081909,-73.6781768799,Clinton Co. NY United States,19,1316|2783,15|4|,Clinton Co. NY United States|Plattsburgh NY United States|",44.746208,-73.678177
2889,Mercedita,Ponce,Puerto Rico,PSE,TJPS,18.008306,-66.563028,600,38660,"Ponce Sch Med, AIDS Res Program, Ponce, PR USA,18.0116500854,-66.6144180298,Ponce PR USA,6,1998,6|,Ponce PR USA|",18.01165,-66.614418
5731,William R Fairchild International Airport,Port Angeles,United States,CLM,KCLM,48.1202,-123.5,80,38820,"Galaxy View Observ, Sequim, WA 98382 USA,48.0796508789,-123.103668213,Sequim WA USA,2,2623|6413,2|0|,Sequim WA USA|Harborview WA USA|",48.079651,-123.103668
3862,Portland Intl Jetport,Portland,United States,PWM,KPWM,43.646161,-70.309281,2440,38860,"Maine Med Ctr, Div Nephrol & Transplantat, Portland, ME 04102 USA,43.6591415405,-70.256652832,Portland ME United States,113,710|1247|1260|1429|1731|1891|4328|4484|4830|6305,51|20|18|14|0|7|0|1|1|1|,Portland ME United States|Scarborough ME United States|B",43.659142,-70.256653
3720,Portland Intl,Portland,United States,PDX,KPDX,45.588722,-122.5975,31705.833572,38900,"Oregon Hlth & Sci Univ, Portland, OR 97201 USA,45.5117912292,-122.675628662,Portland OR United States,1166,83|726|866|982|1951|2271|3665|3823|3824|3948|4713|4729|5132|5438|5746|5943|6448,1024|52|34|32|8|4|2|1|2|2|0|1|0|1|1|1|1|,Portland OR United States|",45.511791,-122.675629
3446,Ernest A Love Fld,Prescott,United States,PRC,KPRC,34.654472,-112.419583,240,39140,"Embry Riddle Aeronaut Univ, Dept Phys, Prescott, AZ 86301 USA,34.5414199829,-112.468727112,Prescott AZ United States,14,1133|2455|2565|3690|4960|6146,8|0|3|2|0|1|,Prescott AZ United States|Santa Fe AZ USA|Phoenix Metropolitan Are AZ USA|Sedona AZ USA|Dew",34.54142,-112.468727
3641,Theodore Francis Green State,Providence,United States,PVD,KPVD,41.732581,-71.420383,7628,39300,"Brown Univ, Alpert Med Sch, Dept Neurol, Providence, RI 02903 USA,41.8238716125,-71.4119873047,Providence RI United States,905,91|647|1153|1180|1957|2018|2179|2231|2337|2674|2965|3019|3506|3994|4033|4154|4528|4800|5332|5363|5501|5929|6152,754|69|22|16|0|",41.823872,-71.411987
7579,Provo Municipal Airport,Provo,United States,PVU,KPVU,40.218056,-111.722222,744,39340,"Brigham Young Univ, Provo, UT 84602 USA,40.2336997986,-111.668502808,Provo UT United States,188,386|1880|2269|6002,179|5|4|0|,Provo UT United States|Orem UT United States|Alpine UT USA|Utah Co. UT United States|",40.2337,-111.668503
3527,Pueblo Memorial,Pueblo,United States,PUB,KPUB,38.289085,-104.496572,80,39380,"Colorado State Univ Pueblo, Pueblo, CO USA,38.2638587952,-104.612373352,Pueblo CO United States,4,2170,4|,Pueblo CO United States|",38.263859,-104.612373
3944,Pullman-Moscow Rgnl,Pullman,United States,PUW,KPUW,46.743861,-117.109583,480,39420,"Washington State Univ, Pullman, WA 99164 USA,46.7301483154,-117.181472778,Pullman WA United States,137,432,137|,Pullman WA United States|",46.730148,-117.181473
5774,Quincy Regional Baldwin Field,Quincy,United States,UIN,KUIN,39.9427,-91.1946,80,39500,"Culver Stockton Coll, Nat & Math Sci Div, Canton, MO 63435 USA,40.1340408325,-91.5190124512,Canton MO USA,2,4761|5927,1|1|,Canton MO USA|Quincy IL USA|",40.134041,-91.519012
3626,Raleigh Durham Intl,Raleigh-durham,United States,RDU,KRDU,35.877639,-78.787472,22988.866608,39580,"Next Level Solut, Raleigh, NC USA,35.7855110168,-78.6426696777,Raleigh NC United States,469,185|1009|1287|2015|2755|4823,423|23|15|5|3|0|,Raleigh NC United States|Morrisville NC United States|Cary NC United States|Apex NC USA|Wake Forest NC United States",35.785511,-78.64267
4087,Rapid City Regional Airport,Rapid City,United States,RAP,KRAP,44.045278,-103.057222,1920,39660,"S Dakota Sch Mines & Technol, Dept Chem & Biol Engn, Rapid City, SD USA,44.081161499,-103.230888367,Rapid City SD United States,4,2452,4|,Rapid City SD United States|",44.081161,-103.230888
4098,Redding Muni,Redding,United States,RDD,KRDD,40.509,-122.293389,80,39820,"SETI Inst, Hat Creek, CA 94043 USA,40.7917289734,-121.506736755,Hat Creek CA USA,0,5887,0|,Hat Creek CA USA|",40.791729,-121.506737
3807,Reno Tahoe Intl,Reno,United States,RNO,KRNO,39.499108,-119.768108,7434.666626,39900,"Univ Nevada, Dept Psychiat, Reno, NV 89557 USA,39.527381897,-119.813438416,Reno NV United States,137,453|3469|6765,136|1|0|,Reno NV United States|Sparks NV United States|Incline Village NV USA|",39.527382,-119.813438
3608,Richmond Intl,Richmond,United States,RIC,KRIC,37.505167,-77.319667,9254.666565,40060,"Virginia Commonwealth Univ, Richmond, VA USA,37.5406990051,-77.4336471558,Richmond VA United States,775,115|707|2594|2750|3364|4685|5080,704|59|3|4|3|1|1|,Richmond VA United States|Richmond VA United States|Glen Allen VA United States|Ashland VA United S",37.540699,-77.433647
3734,Ontario Intl,Ontario,United States,ONT,KONT,34.056,-117.601194,12918.000069,40140,"Univ Calif Riverside, Riverside, CA 92521 USA,33.981628418,-117.373878479,Riverside CA United States,416,190|814|867|2175|2361|2494|2786|3755|3986|4114|4232|5171|5231|5744|6304|6457|6532,326|37|23|5|5|3|4|2|2|1|2|1|1|1|1|1|1|,Riverside CA United States|L",33.981628,-117.373878
4016,Roanoke Regional,Roanoke VA,United States,ROA,KROA,37.325472,-79.975417,3671.333344,40220,"DuPont Co Inc, Appl Stat Grp, Roanoke, VA USA,37.2715187073,-79.9405288696,Roanoke VA United States,26,1282|1948|4901,17|8|1|,Roanoke VA United States|Salem VA United States|Ferrum VA United States|",37.271519,-79.940529
4048,Rochester,Rochester,United States,RST,KRST,43.908283,-92.500014,968,40340,"Mayo Clin, Rochester, MN USA,44.0193481445,-92.4591522217,Rochester MN United States,1596,47,1596|,Rochester MN United States|",44.019348,-92.459152
3622,Greater Rochester Intl,Rochester,United States,ROC,KROC,43.118866,-77.672389,7361.333374,40380,"Univ Rochester, Med Ctr, Rochester, NY 14642 USA,43.1557998657,-77.616317749,Rochester NY United States,1128,53|1168|1205|1525|1753|2017|2079|2233|3360|4835|6083,1056|19|18|5|8|4|7|6|3|1|1|,Rochester NY United States|Brockport NY United States|Canandaigu",43.1558,-77.616318
4028,Chicago Rockford International Airport,Rockford,United States,RFD,KRFD,42.195361,-89.097222,1328,40420,"ThermoFisher Sci, Rockford, IL 61105 USA,42.2668991089,-89.0783462524,Rockford IL United States,22,1162,22|,Rockford IL United States|",42.266899,-89.078346
5767,Rutland State Airport,Rutland,United States,RUT,KRUT,43.5294,-72.9496,80,40860,"Vermont Orthopaed Clin, Rutland, VT USA,43.6041107178,-73.0145874023,Rutland VT USA,3,4240|4451,2|1|,Rutland VT USA|Pittsford VT USA|",43.604111,-73.014587
3817,Sacramento Intl,Sacramento,United States,SMF,KSMF,38.695417,-121.590778,15547.199982,40900,"Baylor Coll Med, Davis, CA USA,38.5466918945,-121.744567871,Davis CA United States,1211,78|220|1410|1474|2066|2566|2792|2955|3249|3509|3511|3896|4074|4419|4459|4553|6151,819|341|5|15|7|4|4|3|2|2|2|2|2|1|1|1|0|,Davis CA United States|Sacramento Co. CA Uni",38.546692,-121.744568
4128,Mbs Intl,Saginaw,United States,MBS,KMBS,43.532913,-84.079647,1200,40980,"Saginaw Cty Mosquito Abatement Commiss, Saginaw, MI 48602 USA,43.4191818237,-83.9466705322,Saginaw MI United States,16,1512|4003,14|2|,Saginaw MI United States|University Ctr MI USA|",43.419182,-83.946671
4064,St George Muni,Saint George,United States,SGU,KSGU,37.090583,-113.593056,480,41100,"Dixie State Coll, Dept Sci, St George, UT 84770 USA,37.1090698242,-113.58329773,St George UT United States,1,4801,1|,St George UT United States|",37.10907,-113.583298
3678,Lambert St Louis Intl,St. Louis,United States,STL,KSTL,38.748697,-90.370028,27000.733292,41180,"Washington Univ, Sch Med, St Louis, MO 63130 USA,38.6277503967,-90.1995620728,St Louis MO United States,2850,23|1016|1172|2959|3675|3821|4249|4456|4715|4850|4884|5362|5410|5432|5967|5970|6472|6505|6506|6507,2784|28|17|3|2|2|2|1|1|1|1|1|1|1|1|1|0|1|1|1|,S",38.62775,-90.199562
5771,Salina Municipal Airport,Salina,United States,SLN,KSLN,38.791,-97.6522,80,41460,"Land Inst, Salina, KS 67401 USA,38.8405418396,-97.609703064,Salina KS United States,3,3123,3|,Salina KS United States|",38.840542,-97.609703
3948,Monterey Peninsula,Monterey,United States,MRY,KMRY,36.587,-121.842944,2240,41500,"Stanford Univ, Hopkins Marine Stn, Pacific Grove, CA 93950 USA,36.6193313599,-121.918586731,Pacific Grove CA United States,63,969|999|2971|3126,34|24|3|2|,Pacific Grove CA United States|Monterey CA United States|Seaside CA USA|Carmel CA United States|",36.619331,-121.918587
3642,Salisbury Ocean City Wicomico Rgnl,Salisbury,United States,SBY,KSBY,38.340525,-75.510289,960,41540,"Salisbury Univ, Dept Psychol, Salisbury, MD 21801 USA,38.3657302856,-75.5953216553,Salisbury MD United States,14,1749|2096|4153|4698,6|5|2|1|,Salisbury MD United States|Lewes DE United States|Princess Anne MD United States|Lewes Beach DE USA|",38.36573,-75.595322
3536,Salt Lake City Intl,Salt Lake City,United States,SLC,KSLC,40.788389,-111.977772,38269.833389,41620,"Univ Utah, Coll Nursing, Salt Lake City, UT 84112 USA,40.7603111267,-111.888221741,Salt Lake City UT United States,1080,68|1923|3976|3995|5794|5809|6401,1066|8|2|2|0|1|1|,Salt Lake City UT United States|Murray UT United States|Midvale UT United States|So",40.760311,-111.888222
3708,San Angelo Rgnl Mathis Fld,San Angelo,United States,SJT,KSJT,31.35775,-100.496306,480,41660,"San Angelo State Univ, San Angelo, TX USA,31.4615001678,-100.44242096,San Angelo TX USA,1,5845,1|,San Angelo TX USA|",31.4615,-100.442421
3621,San Antonio Intl,San Antonio,United States,SAT,KSAT,29.533694,-98.469778,17948.066681,41700,"Univ Texas Hlth Sci Ctr San Antonio, San Antonio, TX 78229 USA,29.4245796204,-98.4946136475,San Antonio TX United States,1184,75|1140|5565,1163|20|1|,San Antonio TX United States|Bexar Co. TX United States|Universal City TX USA|",29.42458,-98.494614
3731,San Diego Intl,San Diego,United States,SAN,KSAN,32.733556,-117.189667,37715.933289,41740,"Sanford Burnham Med Res Inst, Ctr Neurosci Aging & Stem Cell Res, La Jolla, CA 92037 USA,32.8370475769,-117.255386353,La Jolla CA United States,3533,45|55|768|1458|1781|1794|2029|2182|2444|2465|3233|4015|4231|5685|5752|6362|6481,1987|1437|54|15|5|8|6|5|5",32.837048,-117.255386
3469,San Francisco Intl,San Francisco,United States,SFO,KSFO,37.618972,-122.374889,119265.017853,41860,"Univ Calif San Francisco, San Francisco, CA 94143 USA,37.7771186829,-122.419639587,San Francisco CA United States,6132,25|31|188|205|280|463|514|632|780|807|826|896|1096|1119|1141|1573|1637|1791|1814|1841|1932|2082|2140|2155|2242|2379|2409|2556|2569|2586",37.777119,-122.41964
3748,Norman Y Mineta San Jose Intl,San Jose,United States,SJC,KSJC,37.3626,-121.929022,17689.133423,41940,"Stanford Univ, Lucile Packard Childrens Hosp, Sch Med, Stanford, CA 94305 USA,37.4296302795,-122.164772034,Santa Clara Co. CA United States,2657,39|165|360|433|484|518|738|1605|2353|2963|2999|5100|5180|6079|6784,1592|474|176|125|117|93|58|11|5|3|2|0|1|0|",37.42963,-122.164772
2890,Luis Munoz Marin Intl,San Juan,Puerto Rico,SJU,TJSJ,18.439417,-66.001833,25324.333496,41980,"Univ Puerto Rico, Grad Sch Publ Hlth, Ctr Evaluat & Sociomed Res, San Juan, PR 00936 USA,18.4515228271,-66.069480896,San Juan  Puerto Rico,113,521|2107|2108|3140|6395|6794,99|7|5|1|1|0|,San Juan  Puerto Rico|Cayey PR USA|Ro Piedras  Puerto Rico|",18.451523,-66.069481
5768,San Luis County Regional Airport,San Luis Obispo,United States,SBP,KSBP,35.2368,-120.642,640,42020,"Cal Poly State Univ, San Luis Obispo, CA USA,35.2855186462,-120.662521362,San Luis Obispo CA United States,38,863|5653|6662,37|1|0|,San Luis Obispo CA United States|Morro Bay CA USA|Cambria CA USA|",35.285519,-120.662521
3784,Santa Fe Muni,Santa Fe,United States,SAF,KSAF,35.617108,-106.089422,1440,42140,"Santa Fe Inst, Santa Fe, NM USA,35.6916809082,-105.937957764,Santa Fe NM United States,124,474,124|,Santa Fe NM United States|",35.691681,-105.937958
3949,Santa Barbara Muni,Santa Barbara,United States,SBA,KSBA,34.426211,-119.840372,1928,42200,"Univ Calif Santa Barbara, Dept Phys, Santa Barbara, CA 93106 USA,34.419380188,-119.699050903,Santa Barbara CA United States,568,152|1552|1722|2687|5364|5669|6820,544|13|10|0|1|0|0|,Santa Barbara CA United States|Goleta CA United States|Carpinteria CA Uni",34.41938,-119.699051
6992,Charles M Schulz Sonoma Co,Santa Rosa,United States,STS,KSTS,38.508978,-122.81288,1440,42220,"Amitabha Med Clin & Healing Ctr, Sebastopol, CA USA,38.4017410278,-122.825248718,Sebastopol CA United States,20,1703|1790|1987|5787,9|7|3|1|,Sebastopol CA United States|Sonoma CA USA|Rohnert Park CA United States|Santa Rosa CA United States|",38.401741,-122.825249
5729,Chippewa County International Airport,Sault Ste Marie,United States,CIU,KCIU,46.2508,-84.4724,240,42300,"Lake Super State Univ, Sch Biol Sci, Sault Ste Marie, MI 49783 USA,46.4923095703,-84.3517227173,Sault Ste Marie MI USA,3,2680|5183,2|1|,Sault Ste Marie MI USA|Sault Sainte Marie MI USA|",46.49231,-84.351723
3613,Savannah Hilton Head Intl,Savannah,United States,SAV,KSAV,32.127583,-81.202139,5550,42340,"Mem Hlth Univ Med Ctr, Dept Lab Oncol Res, Curtis & Elizabeth Anderson Canc Inst, Savannah, GA 31404 USA,32.080909729,-81.0911865234,Savannah GA United States,27,1011,27|,Savannah GA United States|",32.08091,-81.091187
4286,Wilkes Barre Scranton Intl,Scranton,United States,AVP,KAVP,41.338478,-75.723403,2280,42540,"Commonwealth Med Coll, Dept Basic Sci, Scranton, PA USA,41.4101486206,-75.6607818604,Scranton PA United States,10,1720|3895|4858|5694|6529,6|1|1|1|1|,Scranton PA United States|Dunmore PA United States|Atlanta PA USA|Hazleton PA USA|Wilkes Barre PA USA|",41.410149,-75.660782
3577,Seattle Tacoma Intl,Seattle,United States,SEA,KSEA,47.449,-122.309306,71050.683365,42660,"Fred Hutchinson Canc Res Ctr, Div Publ Hlth Sci, Seattle, WA 98104 USA,47.6035690308,-122.329452515,Seattle WA United States,4231,11|689|693|1084|1326|1942|2113|2365|2667|3234|3487|4310|4413|4593|4842|5033|5182|5614|5671|6171|6414|6536,4065|40|61|20|15|6",47.603569,-122.329453
3609,Shreveport Rgnl,Shreveport,United States,SHV,KSHV,32.446629,-93.8256,1920,43340,"Louisiana State Univ, Shreveport, LA 71105 USA,32.5146102905,-93.7472686768,Shreveport LA United States,58,698|6709,58|0|,Shreveport LA United States|Shrevport LA USA|",32.51461,-93.747269
6135,Grant County Airport,Silver City,United States,SVC,SVC,32.6365,-108.156,240,43500,"Dartmouth Med Sch, Dept Community & Family Med, Hanover, NM USA,32.810218811,-108.091712952,Hanover NM USA,3,3590|6518,2|1|,Hanover NM USA|Silver City NM USA|",32.810219,-108.091713
4009,Sioux Falls,Sioux Falls,United States,FSD,KFSD,43.582014,-96.741914,3312,43620,"Amer Canc Soc Inc, Community Partnerships South Dakota, Midwest Div, Sioux Falls, SD USA,43.5453491211,-96.7312774658,Sioux Falls SD United States,34,844,34|,Sioux Falls SD United States|",43.545349,-96.731277
4359,South Bend Rgnl,South Bend,United States,SBN,KSBN,41.708661,-86.31725,2700,43780,"Univ Notre Dame, Notre Dame, IN 46556 USA,41.6993293762,-86.2387924194,Notre Dame IN United States,1823,82|114|2157|3732|5135,1007|810|3|2|1|,Notre Dame IN United States|South Bend IN United States|Mishawaka IN United States|South Bend IN United States|G",41.699329,-86.238792
4034,Greenville-Spartanburg International,Greenville,United States,GSP,KGSP,34.895556,-82.218889,7129.733307,43900,"S Carolina Pharmaceut Res, Spartanburg, SC USA,34.9482498169,-81.9348678589,Spartanburg SC United States,15,1383|3584,13|2|,Spartanburg SC United States|Union SC USA|",34.94825,-81.934868
3467,Spokane Intl,Spokane,United States,GEG,KGEG,47.619861,-117.533833,3960,44060,"Genet Vet Sci, Paw Print Genet, Spokane, WA USA,47.6572608948,-117.412277222,Spokane WA United States,68,612|4834,68|0|,Spokane WA United States|Cheney WA United States|",47.657261,-117.412277
4336,Abraham Lincoln Capital,Springfield,United States,SPI,KSPI,39.8441,-89.677889,600,44100,"So Illinois Univ, Sch Med, Dept Surg, Springfield, IL 62794 USA,39.8010482788,-89.6436004639,Springfield IL United States,78,567,78|,Springfield IL United States|",39.801048,-89.6436
4348,Springfield Branson Natl,Springfield,United States,SGF,KSGF,37.245667,-93.388639,3420,44180,"Missouri State Univ, Dept Agr, Springfield, MO USA,37.2089691162,-93.291557312,Springfield MO United States,15,1408|5472,14|1|,Springfield MO United States|Springfield MO United States|",37.208969,-93.291557
4318,University Park Airport,State College Pennsylvania,United States,SCE,KUNV,40.849278,-77.848694,1200,44300,"Penn State Univ, University Pk, PA 16802 USA,40.7995681763,-77.8606872559,University Park PA United States,1237,72|2931|5912|6846,1234|2|1|0|,University Park PA United States|PA United States|PA United States|PA United States|",40.799568,-77.860687
4339,Yampa Valley,Hayden,United States,HDN,KHDN,40.481181,-107.21766,240,44460,"TriIntel, Oak Creek, CO USA,40.2760009766,-106.957748413,Oak Creek CO USA,1,6068,1|,Oak Creek CO USA|",40.276001,-106.957748
3805,Stockton Metropolitan,Stockton,United States,SCK,KSCK,37.894167,-121.238306,240,44700,"Univ Pacific, Sch Engn & Comp Sci, Stockton, CA 95211 USA,37.9536705017,-121.290748596,Stockton CA United States,23,860,23|,Stockton CA United States|",37.953671,-121.290749
3745,Syracuse Hancock Intl,Syracuse,United States,SYR,KSYR,43.111187,-76.106311,6392.333313,45060,"Syracuse Univ, Syracuse, NY 13244 USA,43.0499916077,-76.1473922729,Syracuse NY United States,388,134|1321|1342|1363|2714|2995|5616,334|17|16|13|4|3|1|,Syracuse NY United States|NY United States|Oswego NY United States|Hamilton NY United States|Altmar NY",43.049992,-76.147392
3698,Tallahassee Rgnl,Tallahassee,United States,TLH,KTLH,30.396528,-84.350333,3595.666687,45220,"Florida State Univ, Tallahassee, FL 32306 USA,30.4397697449,-84.2806472778,Tallahassee FL United States,651,98|4913,650|1|,Tallahassee FL United States|Tallahasee FL USA|",30.43977,-84.280647
3646,Tampa Intl,Tampa,United States,TPA,KTPA,27.975472,-82.53325,47827.799835,45300,"Univ S Florida, Tampa, FL USA,27.9465293884,-82.4592666626,Tampa FL United States,956,88|593|2229|2348|2368|3015|3240|3348|3450|3601|3938|5405|5621|5693|5987|6204|6347|6432,873|50|6|4|5|3|3|1|2|1|2|0|1|1|1|1|1|1|,Tampa FL United States|St Petersburg FL U",27.946529,-82.459267
3770,Texarkana Rgnl Webb Fld,Texarkana,United States,TXK,KTXK,33.453722,-93.991028,480,45500,"Arizona State Univ, Sch Life Sci, Tempe, AR USA,33.5826301575,-93.9940185547,Tempe AR USA,4,2567,4|,Tempe AR USA|",33.58263,-93.994019
4040,Toledo,Toledo,United States,TOL,KTOL,41.586806,-83.807833,1260,45780,"Univ Toledo, Dept Med Microbiol & Immunol, Toledo, OH 43606 USA,41.6538085938,-83.5362625122,Toledo OH United States,735,156|610|1215|1537|3039|5179,627|74|20|13|0|1|,Toledo OH United States|Bowling Green OH United States|Maumee OH United States|Maumee O",41.653809,-83.536263
3843,Forbes Fld,Topeka,United States,FOE,KFOE,38.950944,-95.663611,240,45820,"Kansas Dept Hlth & Environm, Diabet Prevent & Control Program, Topeka, KS USA,39.0492782593,-95.6711807251,Topeka KS United States,13,1487,13|,Topeka KS United States|",39.049278,-95.671181
4023,Cherry Capital Airport,Traverse City,United States,TVC,KTVC,44.741445,-85.582235,1190,45900,"Munson Med Ctr, Traverse City, MI USA,44.7787017822,-85.6520996094,Traverse City MI USA,9,1603|5584|5969|5979|6276|6813,6|1|0|1|1|0|,Traverse City MI USA|Rockville MI USA|Kansas City MI USA|Redwood City MI USA|Lake Leelanau MI USA|Cleveland MI USA|",44.778702,-85.6521
3447,Trenton Mercer,Trenton,United States,TTN,KTTN,40.276692,-74.813469,3472,45940,"Princeton Univ, Dept Comp Sci, Princeton, NJ 08540 USA,40.3603096008,-74.6642837524,Princeton NJ United States,973,93|851|858|924|981|1360|1393|2906|5750|5751|6445|6482,814|43|28|36|21|15|12|2|1|0|1|0|,Princeton NJ United States|Ewing NJ United States|Ho",40.36031,-74.664284
3636,Tucson Intl,Tucson,United States,TUS,KTUS,32.116083,-110.941028,7780,46060,"Univ Arizona, Dept Radiol, Tucson, AZ 85724 USA,32.2215499878,-110.96975708,Tucson AZ United States,2176,36|4440|6802,2175|1|0|,Tucson AZ United States|Arizona AZ USA|Tucson AZ United States|",32.22155,-110.969757
3855,Tulsa Intl,Tulsa,United States,TUL,KTUL,36.198389,-95.888111,7206,46140,"Univ Oklahoma, Sch Community Med, Dept Emergency Med, Tulsa, OK USA,36.1497383118,-95.9933319092,Tulsa OK United States,30,927,30|,Tulsa OK United States|",36.149738,-95.993332
5773,Tupelo Regional Airport,Tupelo,United States,TUP,KTUP,34.2681,-88.7699,480,46180,"N Mississippi Med Ctr, Tupelo, MS USA,34.2574081421,-88.7078323364,Tupelo MS United States,4,1533,4|,Tupelo MS United States|",34.257408,-88.707832
3848,Tyler Pounds Rgnl,Tyler,United States,TYR,KTYR,32.354139,-95.402386,720,46340,"Trinity Mother Frances Hlth Syst, Dept Anesthesiol, Tyler, TX USA,32.3474693298,-95.2942962646,Tyler TX United States,37,904,37|,Tyler TX United States|",32.347469,-95.294296
3728,Honolulu Intl,Honolulu,United States,HNL,PHNL,21.318681,-157.922428,51565.133545,46520,"Univ Hawaii, Honolulu, HI 96822 USA,21.3048496246,-157.857757568,Honolulu HI United States,493,173|1304|1673|3068|3761|3816|4136|4385|4525,453|18|11|3|2|2|2|1|1|,Honolulu HI United States|Aiea HI United States|Kaneohe HI United States|Waipahu HI United S",21.30485,-157.857758
5776,Valdosta Regional Airport,Valdosta,United States,VLD,KVLD,30.7825,-83.2767,720,46660,"Valdosta State Univ, Valdosta, GA 31698 USA,30.8347206116,-83.280921936,Valdosta GA United States,15,1440,15|,Valdosta GA United States|",30.834721,-83.280922
7076,Vernal Regional Airport,Vernal,United States,VEL,KVEL,40.440833,-109.51,80,46860,"Dinosaur Natl Monument, Jensen, UT 84035 USA,40.3696899414,-109.334899902,Jensen UT USA,1,4796,1|,Jensen UT USA|",40.36969,-109.3349
4265,Martha\\'s Vineyard,Vineyard Haven MA,United States,MVY,KMVY,41.391667,-70.615278,320,47240,"Glazer Med Solut, Menemsha, MA USA,41.3524398804,-70.7596130371,Menemsha MA USA,1,4972,1|,Menemsha MA USA|",41.35244,-70.759613
3611,Norfolk Intl,Norfolk,United States,ORF,KORF,36.894611,-76.201222,11183.333252,47260,"Old Dominion Univ, Norfolk, VA 23529 USA,36.8468208313,-76.2850570679,Norfolk VA United States,576,175|195|418|475|1263|2075|2858|3343|4457|4558,173|216|65|89|19|6|3|3|1|1|,Newport News VA United States|Norfolk VA United States|Williamsburg VA United Sta",36.846821,-76.285057
7121,Visalia Municipal Airport,Visalia,United States,VIS,KVIS,36.318611,-119.392778,240,47300,"US Geol Survey, Western Ecol Res Ctr, Three Rivers, CA 93271 USA,36.4396514893,-118.904556274,Three Rivers CA USA,1,3345,1|,Three Rivers CA USA|",36.439651,-118.904556
3700,Waco Rgnl,Waco,United States,ACT,KACT,31.611289,-97.230519,480,47380,"Baylor Univ, Waco, TX 76798 USA,31.5718193054,-97.1494979858,Waco TX United States,94,331,94|,Waco TX United States|",31.571819,-97.149498
5719,Walla Walla Regional Airport,Walla Walla,United States,ALW,KALW,46.0949,-118.288,240,47460,"Whitman Coll, Dept Psychol, Walla Walla, WA 99362 USA,46.0703811646,-118.342376709,Walla Walla WA United States,14,1619|4237,12|2|,Walla Walla WA United States|Alto WA United States|",46.070381,-118.342377
3714,Washington Dulles Intl,Washington,United States,IAD,KIAD,38.944533,-77.455811,121168.53331,47900,"NIAAA, Lab Mol Signaling, NIH, Bethesda, MD 20892 USA,38.9863700867,-77.0969161987,Bethesda MD United States,9519,17|26|85|136|151|177|248|318|382|465|468|479|590|720|773|809|978|992|1051|1056|1343|1434|1629|1737|1871|1922|1965|2071|2074|2158|2200|2217|2",38.98637,-77.096916
5718,Waterloo Regional Airport,Waterloo,United States,ALO,KALO,42.5571,-92.4003,480,47940,"Univ No Iowa, Dept Biol, Cedar Falls, IA 50614 USA,42.5281410217,-92.4455490112,Cedar Falls IA United States,8,1847|5564,7|1|,Cedar Falls IA United States|Waterloo IA USA|",42.528141,-92.445549
4045,Central Wisconsin,Wassau,United States,CWA,KCWA,44.772726,-89.646635,1200,48140,"Marshfield Clin Weston Ctr, Dept Hematol Oncol, Weston, WI 54476 USA,44.9046783447,-89.5535507202,Weston WI United States,2,5388|6417,1|1|,Weston WI United States|Wausau WI United States|",44.904678,-89.553551
6916,Pangborn Field,Wenatchee,United States,EAT,KEAT,47.398,-120.206,240,48300,"St Louis Childrens Hosp, St Louis, WA USA,47.4112930298,-120.556266785,St Louis WA USA,2,4956|5968|6513,0|1|1|,Rockville WA USA|St Louis WA USA|Wenatchee WA USA|",47.411293,-120.556267
3457,Wichita Mid Continent,Wichita,United States,ICT,KICT,37.649944,-97.433056,4925.333344,48620,"Hereditary Neurol Dis Ctr, Wichita, KS USA,37.6869812012,-97.3355789185,Wichita KS United States,74,577|5133,74|0|,Wichita KS United States|East KS United States|",37.686981,-97.335579
3680,Sheppard Afb Wichita Falls Muni,Wichita Falls,United States,SPS,KSPS,33.988797,-98.491894,480,48660,"Texas Oncol, Wichita Falls, TX USA,33.9082984924,-98.5009918213,Wichita Falls TX United States,4,2790,4|,Wichita Falls TX United States|",33.908298,-98.500992
3584,Williamsport Rgnl,Williamsport,United States,IPT,KIPT,41.241836,-76.921094,480,48700,"Penn Coll Technol, Sch Integrated Studies, Williamsport, PA 17701 USA,41.240940094,-77.001411438,Williamsport PA United States,1,5691,1|,Williamsport PA United States|",41.24094,-77.001411
3845,Wilmington Intl,Wilmington,United States,ILM,KILM,34.270615,-77.902569,3145.333344,48900,"Univ N Carolina, Dept Anthropol, Wilmington, NC USA,34.2349700928,-77.9459915161,Wilmington NC United States,46,731,46|,Wilmington NC United States|",34.23497,-77.945992
6426,Worcester Regional Airport,Worcester,United States,ORH,KORH,42.2673,-71.8757,480,49340,"Univ Massachusetts, Sch Med, Dept Med, Worcester, MA 01655 USA,42.2634086609,-71.802192688,Worcester MA United States,547,159|1499|1618|1840|2160|2612|2794|2948|3014|4501|4905|5515|5953|6023|6261|6705|6714,501|7|9|8|6|4|3|3|1|1|0|1|1|1|1|0|0|,Worcester M",42.263409,-71.802193
5779,Yakima Air Terminal McAllister Field,Yakima,United States,YKM,KYKM,46.5682,-120.544,240,49420,"Pacific Northwest Univ Hlth Sci, Yakima, WA 98901 USA,46.6041297913,-120.50704956,Yakima WA United States,2,2733,2|,Yakima WA United States|",46.60413,-120.50705
3881,Youngstown Warren Rgnl,Youngstown,United States,YNG,KYNG,41.260736,-80.679097,960,49660,"Youngstown State Univ, Dept Mech & Ind Engn, Youngstown, OH 44555 USA,41.0980987549,-80.6507873535,Youngstown OH United States,41,905|3945|4992,39|1|1|,Youngstown OH United States|Sharon PA USA|Grove City PA United States|",41.098099,-80.650787
3596,Yuma Mcas Yuma Intl,Yuma,United States,YUM,KYUM,32.656578,-114.60598,560,49740,"Univ Arizona, Yuma Agr Ctr, Yuma, AZ 85364 USA,32.6848487854,-114.624610901,Yuma AZ United States,4,3268|5333,3|1|,Yuma AZ United States|Los Alamos AZ USA|",32.684849,-114.624611
5997,Nagoya Airport,Nagoya,Japan,NKM,RJNA,35.255,136.924,1440,Aichi,"Nagoya Univ, Grad Sch Sci, Nagoya, Aichi 4648601, Japan,35.1433639526,136.916732788,Nagoya Aichi Japan,284,312|818|1381|1454|2342|2399|2466|3169|3875|4937|4939|5532|5666|6060,192|47|9|15|3|5|5|2|2|1|1|1|0|1|,Nagoya Aichi Japan|Okazaki Aichi Japan|Aichi J",35.143364,136.916733
2345,Akita,Akita,Japan,AXT,RJSK,39.615556,140.218611,2583.5,Akita,"Akita Prefectural Ctr Dev & Disabil, Akita, Japan,39.7627792358,140.319488525,Akita Japan,2,2535,2|,Akita Japan|",39.762779,140.319489
2340,Aomori,Aomori,Japan,AOJ,RJSA,40.734722,140.690833,1880,Aomori,"Hirosaki Univ, Grad Sch Sci & Technol, Hirosaki, Aomori 0368561, Japan,40.5979728699,140.476486206,Hirosaki Aomori Japan,4,3075|5268|5836,3|1|0|,Hirosaki Aomori Japan|Aomori  Japan|Nagashima Takeo Japan|",40.597973,140.476486
1613,Schwechat,Vienna,Austria,VIE,LOWW,48.110278,16.569722,92302.133392,AT127,"Int Inst Appl Syst Anal, A-2361 Laxenburg, Austria,48.0713996887,16.3600006104,Laxenburg Lower Austria Austria,15,1502|3459,13|2|,Laxenburg Lower Austria Austria|Seibersdorf  Austria|",48.0714,16.360001
4322,Woerthersee International Airport,Klagenfurt,Austria,KLU,LOWK,46.642514,14.337739,1696,AT211,"Alpen Adria Univ Klagenfurt, Fak Interdisziplinaere Forsch & Fortbildung, Klagenfurt, Austria,46.6403007507,14.3034000397,Klagenfurt  Austria,0,4408,0|,Klagenfurt  Austria|",46.640301,14.3034
1609,Graz,Graz,Austria,GRZ,LOWG,46.991067,15.439628,5184,AT221,"Med Univ Graz, Dept Pediat Surg, Graz, Austria,47.0556983948,15.4168996811,Graz Styria Austria,97,402|3674|3842,96|1|0|,Graz Styria Austria|St Radegund  Austria|Grazt  Austria|",47.055698,15.4169
1611,Linz,Linz,Austria,LNZ,LOWL,48.233219,14.187511,3400,AT312,"Univ Linz, Linz, Austria,48.3185005188,14.2853002548,Linz Upper Austria Austria,12,1272|6427,11|1|,Linz Upper Austria Austria|Wels  Austria|",48.318501,14.2853
1612,Salzburg,Salzburg,Austria,SZG,LOWS,47.793304,13.004333,10062,AT323,"Paracelsus Med Univ, Dept Internal Med 1, Salzburg, Austria,47.7848014832,13.0437002182,Salzburg Salzburg Austria,38,854|5299,37|1|,Salzburg Salzburg Austria|Hallein  Austria|",47.784801,13.0437
1610,Innsbruck,Innsbruck,Austria,INN,LOWI,47.260219,11.343964,2159,AT332,"Leopold Franzens Univ, Inst Astro & Teilchenphys, Innsbruck, Austria,47.2650985718,11.3489999771,Innsbruck Tyrol Austria,111,399,111|,Innsbruck Tyrol Austria|",47.265099,11.349
299,Deurne,Antwerp,Belgium,ANR,EBAW,51.189444,4.460278,480,BE211,"Univ Antwerp, Dept Biol, ECOBE, B-2610 Antwerp, Belgium,51.2351989746,4.4238801003,Antwerp Flemish Region Belgium,111,486|2797|4331|4390|5919|6107,106|3|0|0|1|1|,Antwerp Flemish Region Belgium|Edegem Flemish Region Belgium|Merksem  Belgium|Mortsel  Belgi",51.235199,4.42388
302,Brussels Natl,Brussels,Belgium,BRU,EBBR,50.901389,4.484444,108257.099861,BE241,"Natl Bot Garden Belgium, Dept Bryophyta & Thallophyta, B-1860 Meise, Belgium,50.9378013611,4.3277001381,Meise Flemish Region Belgium,2,3880,2|,Meise Flemish Region Belgium|",50.937801,4.3277
304,Brussels South,Charleroi,Belgium,CRL,EBCI,50.459197,4.453817,26710,BE322,"Univ Libre Brussels, Inst Mol Biol & Med, B-6041 Charleroi, Belgium,50.4157981873,4.4434900284,Charleroi Walloon Region Belgium,2,6252|6253,1|1|,Charleroi Walloon Region Belgium|La Louviere  Belgium|",50.415798,4.44349
309,Liege,Liege,Belgium,LGG,EBLG,50.637417,5.443222,2550,BE332,"Univ Liege, Inst Astrophys & Geophys, B-4000 Liege, Belgium,50.6223983765,5.5899600983,Lige Walloon Region Belgium,64,704|2099|2100,51|6|7|,Lige Walloon Region Belgium|Lige Walloon Region Belgium|Cointe Ougree  Belgium|",50.622398,5.58996
351,Tegel,Berlin,Germany,TXL,EDDT,52.559686,13.287711,86695.033386,BERLIN,"Deutsch Zentrum Luft & Raumfahrt DLR, Inst Planetary Res, Berlin, Germany,52.5014076233,13.4023284912,BE Germany,930,113|324|428|605|1990|2394|3095|3267|3687|6667,705|29|156|24|5|5|3|3|0|0|,BE Germany|Zeuthen BB Germany|Potsdam BB Germany|Golm BB Germany",52.501408,13.402328
1194,Sofia,Sofia,Bulgaria,SOF,LBSF,42.695194,23.406167,18058.933167,BG411,"Bulgarian Acad Sci, Inst Astron, BG-1040 Sofia, Bulgaria,42.6781921387,23.3990440369,Sofia City Bulgaria,24,721,24|,Sofia City Bulgaria|",42.678192,23.399044
1665,Geneve Cointrin,Geneva,Switzerland,GVA,LSGG,46.238064,6.10895,48898.933136,CH013,"CERN, Geneva, Switzerland,46.2000999451,6.1673002243,Geneva GE Switzerland,367,65|1302|3052|5029|6208|6209|6210,352|8|3|1|1|1|1|,Geneva GE Switzerland|Versoix  Switzerland|Plan-les-Ouates GE Switzerland|Chambesy  Switzerland|Carouge  Switzerland|Genave",46.2001,6.1673
1676,Bern Belp,Bern,Switzerland,BRN,LSZB,46.9141,7.497153,2880,CH021,"Univ Bern, Albert Einstein Ctr Fundamental Phys, Bern, Switzerland,46.9416007996,7.4088602066,Bern BE Switzerland,225,228|4058|6134,223|2|0|,Bern BE Switzerland|Thun BE Switzerland|Hinterkappelen  Switzerland|",46.941601,7.40886
1678,Zurich,Zurich,Switzerland,ZRH,LSZH,47.464722,8.549167,87667.866669,CH040,"Univ Zurich Hosp, Inst Neuropathol, CH-8091 Zurich, Switzerland,47.3656005859,8.5059499741,Zurich ZH Switzerland,869,110|1121|1609|2436|2605|3679|4216|4374|4814|5087|5860,817|25|12|5|3|2|2|1|0|1|1|,Zurich ZH Switzerland|Dbendorf ZH Switzerland|B",47.365601,8.50595
1679,St Gallen Altenrhein,Altenrhein,Switzerland,ACH,LSZR,47.485033,9.560775,480,CH055,"Univ St Gallen, Swiss Inst Empir Econ Res SEW, CH-9000 St Gallen, Switzerland,47.4216995239,9.3632898331,Sankt Gallen SG Switzerland,15,1421,15|,Sankt Gallen SG Switzerland|",47.4217,9.36329
1675,Lugano,Lugano,Switzerland,LUG,LSZA,46.004275,8.910578,480,CH070,"Ist Oncol Svizzera Italiana, CH-6500 Bellinzona, Switzerland,46.1999015808,9.0200595856,Bellinzona TI Switzerland,16,1591|1734|2643|2731,6|8|0|2|,Lugano TI Switzerland|Bellinzona TI Switzerland|Pambio-Noranco  Switzerland|Viganello TI Switzerland|",46.199902,9.02006
2279,Narita Intl,Tokyo,Japan,NRT,RJAA,35.764722,140.386389,228252.232788,Chiba,"Univ Tokyo, IPMU, Chiba 2778568, Japan,35.4557533264,140.204086304,Chiba Japan,279,357|685|1402|1866|1868|2670|2716|5226|5592|6054|6561,178|57|16|8|8|4|4|1|1|1|1|,Chiba Japan|Kashiwa Chiba Japan|Ichikawa Chiba Japan|Funabashi Chiba Japan|Funabashi Chiba",35.684174,139.768829
1197,Larnaca,Larnaca,Cyprus,LCA,LCLK,34.875117,33.62485,49863.666672,CY000,"Univ Cyprus, Dept Mech & Mfg Engn, CY-1678 Nicosia, Cyprus,35.1666984558,33.3666992188,Nicosia Nicosia District Cyprus,29,953|4831|4832|4833,27|1|1|0|,Nicosia Nicosia District Cyprus|Famagusta  Turkey|Gazimagusa N Cyprus Turkey|North Cyprus  Turkey|",35.166698,33.366699
1587,Ruzyne,Prague,Czech Republic,PRG,LKPR,50.100833,14.26,51306.0000609999,CZ010,"Acad Sci Czech Republic, Inst Phys, Ctr Particle Phys, Prague, Czech Republic,50.1269187927,14.4567203522,Prague Prague Czech Republic,241,122|4299|4380,240|0|1|,Prague Prague Czech Republic|Prague Prague Czech Republic|Lysolaje Prague Czech Republic|",50.126919,14.45672
1584,Pardubice,Pardubice,Czech Republic,PED,LKPD,50.013419,15.738647,472,CZ053,"Univ Pardubice, Fac Chem Technol, Dept Analyt Chem, Pardubice 53002, Czech Republic,50.0289993286,15.7629995346,Pardubice Pardubice Czech Republic,19,1223,19|,Pardubice Pardubice Czech Republic|",50.028999,15.763
1588,Turany,Brno,Czech Republic,BRQ,LKTB,49.151269,16.694433,320,CZ064,"Masaryk Univ, Inst Theoret Phys & Astrophys, CS-60177 Brno, Czech Republic,49.2043991089,16.6553993225,Brno South Moravia Czech Republic,79,602,79|,Brno South Moravia Czech Republic|",49.204399,16.655399
1582,Mosnov,Ostrava,Czech Republic,OSR,LKMT,49.696292,18.111053,1120,CZ080,"VSB Tech Univ, Observ & Planetarium J Palisa, Ostrava, Czech Republic,49.8392715454,18.2884998322,Ostrava  Czech Republic,3,3437|4244,1|2|,Ondrejov  Czech Republic|Ostrava  Czech Republic|",49.839272,18.2885
4166,Baden Airpark,Karlsruhe/Baden-Baden,Germany,FKB,EDSB,48.7793,8.08048,6114.666626,DE124,"IfU Diagnost Syst GmbH, D-09244 Lichtenau, Germany,48.7258987427,8.0104703903,Lichtenau BW Germany,2,3720,2|,Lichtenau BW Germany|",48.725899,8.01047
356,Mannheim City,Mannheim,Germany,MHG,EDFM,49.472706,8.514264,240,DE126,"Heidelberg Univ, ZITI Inst Tech Informat, D-6800 Mannheim, Germany,49.4812011719,8.4827098846,Mannheim BW Germany,108,416,108|,Mannheim BW Germany|",49.481201,8.48271
382,Friedrichshafen,Friedrichshafen,Germany,FDH,EDNY,47.671317,9.511486,3356,DE147,"Zeppelin Univ, Friedrichshafen, Germany,47.6649017334,9.4785804749,Friedrichshafen BW Germany,2,4272,2|,Friedrichshafen BW Germany|",47.664902,9.47858
346,Franz Josef Strauss,Munich,Germany,MUC,EDDM,48.353783,11.786086,130509.366501,DE21A,"Univ Appl Management UAM, Erding, Germany,48.3073997498,11.9032001495,Erding BY Germany,1,6108,1|,Erding BY Germany|",48.3074,11.9032
347,Nurnberg,Nuernberg,Germany,NUE,EDDN,49.4987,11.066897,13867,DE254,"Univ Munich, Inst Employment Res IAB, Joint Program Survey Methodol, Nurnberg, Germany,49.4651985168,11.0760002136,Nuremberg BY Germany,15,1340,15|,Nuremberg BY Germany|",49.465199,11.076
353,Neuenland,Bremen,Germany,BRE,EDDW,53.0475,8.786667,14430.333374,DE501,"Univ Bremen, RCOM, D-28359 Bremen, Germany,53.0750999451,8.804690361,Bremen HB Germany,97,563|4494,96|1|,Bremen HB Germany|Bermen  Germany|",53.0751,8.80469
342,Hamburg,Hamburg,Germany,HAM,EDDH,53.630389,9.988228,46290.600037,DE600,"Univ Hamburg, Inst Expt Phys, Hamburg, Germany,53.5533409119,9.9924697876,Hamburg HH Germany,436,111|3049|6216,435|0|1|,Hamburg HH Germany|Eilbek  Germany|Sande  Germany|",53.553341,9.99247
340,Frankfurt Main,Frankfurt,Germany,FRA,EDDF,50.026421,8.543125,218848.800186,DE712,"Deutsch Lufthansa AG, Lufthansa Aviat Ctr, D-60546 Frankfurt, Germany,50.1120796204,8.6834096909,Frankfurt HE Germany,230,320,230|,Frankfurt HE Germany|",50.11208,8.68341
772,Laage,Laage,Germany,RLG,ETNL,53.918167,12.278333,1248,DE80K,"Inst Atmospher Phys, Kuhlungsborn, Germany,54.1485099792,11.7579202652,Kuhlungsborn  Germany,5,2393,5|,Kuhlungsborn  Germany|",54.14851,11.75792
5557,Heringsdorf Airport,Heringsdorf,Germany,HDF,EDAH,53.878706,14.152347,1208,DE80N,"Ernst Moritz Arndt Univ Greifswald, Inst Geog & Geol, D-17487 Greifswald, Germany,54.0897445679,13.3912439346,Greifswald MV Germany,67,502|6721,67|0|,Greifswald MV Germany|Karlsburg  Germany|",54.089745,13.391244
352,Hannover,Hannover,Germany,HAJ,EDDV,52.461056,9.685078,21466,DE929,"Hannover Med Sch, Dept Pediat Surg, D-3000 Hannover, Germany,52.3722686768,9.7381496429,Hannover NI Germany,168,184|3046,168|0|,Hannover NI Germany|Langenhagen NI Germany|",52.372269,9.73815
345,Dusseldorf,Duesseldorf,Germany,DUS,EDDL,51.289453,6.766775,91848.399719,DEA11,"Univ Dusseldorf, Dept Metab Dis, Dusseldorf, Germany,51.2156295776,6.7760400772,Dsseldorf NW Germany,156,389,156|,Dsseldorf NW Germany|",51.21563,6.77604
344,Koln Bonn,Cologne,Germany,CGN,EDDK,50.865917,7.142744,37515.533386,DEA23,"Univ Cologne, Cologne Ctr Genom, Cologne, Germany,50.9416694641,6.955160141,Cologne NW Germany,266,250,266|,Cologne NW Germany|",50.941669,6.95516
371,Paderborn Lippstadt,Paderborn,Germany,PAD,EDLP,51.614089,8.616317,3360,DEA47,"Univ Paderborn, Dept Phys, D-33098 Paderborn, Germany,51.7181396484,8.7520399094,Paderborn NW Germany,10,1848|5240,9|1|,Paderborn NW Germany|Bad Lippspringe  Germany|",51.71814,8.75204
373,Dortmund,Dortmund,Germany,DTM,EDLW,51.518314,7.612242,9836,DEA52,"Tech Univ Dortmund, Inst Expt Phys 04, Dortmund, Germany,51.5166091919,7.4582901001,Dortmund NW Germany,29,660,29|,Dortmund NW Germany|",51.516609,7.45829
349,Saarbrucken,Saarbruecken,Germany,SCN,EDDR,49.214553,7.109508,2277,DEC01,"Univ Saarland, Dept Mat Sci & Engn, D-66123 Saarbrucken, Germany,49.2314910889,6.9983301163,Saarbrcken SL Germany,41,878|4192|6349,38|2|1|,Saarbrcken SL Germany|Saarbniecken  Germany|Saarbrucken Saarland Germany|",49.231491,6.99833
338,Dresden,Dresden,Germany,DRS,EDDC,51.132767,13.767161,6169,DED21,"Tech Univ Dresden, Inst Kern & Teilchenphys, D-01062 Dresden, Germany,51.0536308289,13.7408103943,Dresden SN Germany,177,297|2787|6027,175|1|1|,Dresden SN Germany|Dresden SN Germany|Dresden SN Germany|",51.053631,13.74081
364,Lubeck Blankensee,Luebeck,Germany,LBC,EDHL,53.805367,10.719222,1260,DEF03,"Univ Lubeck, Inst Biochem, Ctr Struct & Cell Biol Med, Lubeck, Germany,53.866268158,10.6808795929,Lbeck SH Germany,33,648,33|,Lbeck SH Germany|",53.866268,10.68088
410,Westerland Sylt,Westerland,Germany,GWT,EDXW,54.91325,8.340472,1821,DEF07,"Asklepios Nordseeklin, Westerland Sylt, Germany,54.9075317383,8.308930397,Westerland Sylt  Germany,0,6701,0|,Westerland Sylt  Germany|",54.907532,8.30893
339,Erfurt,Erfurt,Germany,ERF,EDDE,50.979811,10.958106,1528,DEG01,"Helios Klinikum Erfurt, Dept Neurol, Erfurt, Germany,51.028301239,11.0396003723,Erfurt TH Germany,3,2047,3|,Erfurt TH Germany|",51.028301,11.0396
608,Billund,Billund,Denmark,BLL,EKBI,55.740322,9.151778,13517.333313,DK032,"DONG Energy AS, DK-7000 Fredericia, Denmark,55.5617980957,9.7127504349,Fredericia South Denmark Denmark,6,2358|6364,5|1|,Fredericia South Denmark Denmark|Sonderborg  Denmark|",55.561798,9.71275
612,Karup,Karup,Denmark,KRP,EKKA,56.297458,9.124628,240,DK041,"Aarhus Univ, Dept Food Sci, Tjele, Denmark,56.4818611145,9.6264801025,Tjele Middle Jutland Denmark,5,2315|6483,5|0|,Tjele Middle Jutland Denmark|Viborg  Denmark|",56.481861,9.62648
607,Aarhus,Aarhus,Denmark,AAR,EKAH,56.300017,10.619008,2180,DK042,"Aarhus Univ, Dept Biosci, Aarhus, Denmark,56.1845016479,10.1903095245,_rhus Middle Jutland Denmark,181,366|2894|3184|3433|4066|4370|4371|5554|6094|6363,172|0|3|1|2|1|1|1|0|0|,_rhus Middle Jutland Denmark|Skejby  Denmark|Denmark|Ronde  Denmark|S",56.184502,10.19031
628,Aalborg,Aalborg,Denmark,AAL,EKYT,57.092789,9.849164,5269.599976,DK050,"Aalborg Univ, Dept Hlth Sci & Technol, Aalborg, Denmark,57.012348175,9.9256601334,_lborg North Jutland Denmark,54,712,54|,_lborg North Jutland Denmark|",57.012348,9.92566
415,Tallinn,Tallinn-ulemiste International,Estonia,TLL,EETN,59.413317,24.832844,9413.333344,EE001,"NICPB, EE-10143 Tallinn, Estonia,59.4371986389,24.7537002563,Tallinn Harjumaa Estonia,18,1303,18|,Tallinn Harjumaa Estonia|",59.437199,24.7537
416,Tartu,Tartu,Estonia,TAY,EETU,58.307461,26.690428,480,EE008,"Estonian Bioctr, Tartu, Estonia,58.3760299683,26.7255191803,Tartu Tartumaa Estonia,95,411,95|,Tartu Tartumaa Estonia|",58.37603,26.725519
2333,Matsuyama,Matsuyama,Japan,MYJ,RJOM,33.827222,132.699722,3973.833252,Ehime,"Ehime Univ, Grad Sch Sci & Engn, Matsuyama, Ehime 7908577, Japan,33.838104248,132.771911621,Matsuyama Ehime Japan,22,1314|2614|4021|6632,17|4|1|0|,Matsuyama Ehime Japan|Toh On Ehime Japan|Ehime Japan|Toon  Japan|",33.838104,132.771912
3941,Eleftherios Venizelos Intl,Athens,Greece,ATH,LGAV,37.936358,23.944467,59931.666901,EL305,"Biomed Sci Res Ctr Alexander Fleming, Inst Mol Oncol, Vari 16672, Greece,37.8354988098,23.8183994293,Vri Attica Greece,11,2899|3008|3070|3686|4506,3|3|3|1|1|,Vri Attica Greece|Pik_rmion Attica Greece|Anavissos  Greece|Anavyssos",37.835499,23.818399
1454,Kithira,Kithira,Greece,KIT,LGKC,36.274258,23.016978,976,EL307,"Natl Observ Athens, I Metaxa 11532, Greece,37.9297485352,23.6433391571,I Metaxa  Greece,2,5540|6326,1|1|,I Metaxa  Greece|Piraeus  Greece|",37.929749,23.643339
1469,Mitilini,Mytilini,Greece,MJT,LGMT,39.056667,26.598333,3936,EL411,"Univ Aegean, Dept Geog, Mitilini, Greece,39.1101989746,26.5547008514,Mitilini  Greece,2,4095,2|,Mitilini  Greece|",39.110199,26.554701
1450,Chios,Chios,Greece,JKH,LGHI,38.343175,26.140572,1464,EL413,"Univ Aegean, Dept Financial & Management Engn, Chios, Greece,38.3744010925,26.1331005096,Khos Northern Aegean Greece,0,4281,0|,Khos Northern Aegean Greece|",38.374401,26.133101
1452,Nikos Kazantzakis,Heraklion,Greece,HER,LGIR,35.339719,25.180297,34397.666748,EL431,"Fdn Res & Technol Hellas, IESL, GR-71110 Iraklion, Greece,35.3292999268,25.1240997314,Heraklion Crete Greece,22,1143|2136|6172,16|5|1|,Heraklion Crete Greece|Heraklion Crete Greece|Votai Crete Greece|",35.3293,25.1241
1474,Souda,Chania,Greece,CHQ,LGSA,35.531747,24.149678,14126,EL434,"Technol Educ Inst Crete, Ctr Plasma Phys & Lasers, Dept Elect, Khania, Crete, Greece,35.5041007996,24.0172996521,Khania Crete Greece,10,2092|2463,7|3|,Khania Crete Greece|Khani Crete Greece|",35.504101,24.0173
1446,Dimokritos,Alexandroupolis,Greece,AXD,LGAL,40.855869,25.956264,866.666687,EL511,"Democritus Univ Thrace, Dept Internal Med 1, Alexandroupolis, Greece,40.8470993042,25.8806991577,Alexandropolis Eastern Macedonia and Thrace Greece,0,6618,0|,Alexandropolis Eastern Macedonia and Thrace Greece|",40.847099,25.880699
1486,Makedonia,Thessaloniki,Greece,SKG,LGTS,40.519725,22.97095,25854.666718,EL522,"Aristotle Univ Thessaloniki, Dept Phys, GR-54006 Thessaloniki, Greece,40.648399353,22.935300827,Salonica Central Macedonia Greece,68,488|4433,68|0|,Salonica Central Macedonia Greece|Tessalonica  Greece|",40.648399,22.935301
1451,Ioannina,Ioannina,Greece,IOA,LGIO,39.696388,20.8225,480,EL543,"Fdn Res & Technol Hellas, Biomed Res Inst, Ioannina, Greece,39.6473007202,20.8414001465,Ioannina Epirus Greece,11,1182,11|,Ioannina Epirus Greece|",39.647301,20.8414
1448,Nea Anchialos,Nea Anghialos,Greece,VOL,LGBL,39.219619,22.794339,2040,EL613,"Univ Thessaly, Dept Econ, Volos 38333, Greece,39.3639984131,22.9291000366,Volos  Greece,5,2840|6385,4|1|,Volos  Greece|Volos Volos Greece|",39.363998,22.9291
1473,Araxos,Patras,Greece,GPA,LGRX,38.151111,21.425556,960,EL632,"Univ Patras, Div Oncol, Patras 26500, Greece,38.2235984802,21.7353992462,Patras Western Greece Greece,39,971|2273,33|6|,Patras Western Greece Greece|Rio Western Greece Greece|",38.223598,21.735399
1456,Kalamata,Kalamata,Greece,KLX,LGKL,37.068319,22.025525,2550,EL653,"Technol Educ Inst Crete, Dept Elect, GR-73133 Romanou, Chania, Greece,36.9933891296,21.6635093689,Romanou Chania Greece,0,6030,0|,Romanou Chania Greece|",36.993389,21.663509
1243,Santiago,Santiago,Spain,SCQ,LEST,42.896333,-8.415144,13932,ES111,"Univ Santiago Compostela, Santiago De Compostela, Spain,42.8790016174,-8.5265703201,Santiago de Compostela Galicia Spain,44,817|1576|1876|2836|3101|4335|4941|5170|6093|6355,17|9|7|4|3|0|1|1|1|1|,Santiago de Compostela Galicia Spain|Santiago de Compostela",42.879002,-8.52657
1250,Vigo,Vigo,Spain,VGO,LEVX,42.2318,-8.626775,2940,ES114,"Univ Vigo, Dept Signal Theory & Commun, Vigo 36310, Spain,42.2304000854,-8.7087402344,Vigo  Spain,58,769|2845,54|4|,Vigo  Spain|Vigo Pontevedra Spain|",42.2304,-8.70874
1214,Asturias,Aviles,Spain,OVD,LEAS,43.563567,-6.034622,4902,ES120,"Univ Oviedo, Hosp Cent Asturias, E-33080 Oviedo, Spain,43.3704986572,-5.859389782,Oviedo Principality of Asturias Spain,42,788|3005|5070|5071,37|3|1|1|,Oviedo Principality of Asturias Spain|Gijn Principality of Asturias Spain|Area Del Corazon",43.370499,-5.85939
1251,Santander,Santander,Spain,SDR,LEXJ,43.427064,-3.820006,5968,ES130,"Univ Cantabria, Inst Fis Cantabria, CSIC, E-39005 Santander, Spain,43.4641990662,-3.829390049,Santander Cantabria Spain,26,327|2262,26|0|,Santander Cantabria Spain|Cantabria  Spain|",43.464199,-3.82939
1242,San Sebastian,San Sebastian,Spain,EAS,LESO,43.356519,-1.790611,775,ES212,"BioDonostia Inst, Ilundain Fdn, Neurosci Unit, San Sebastian, Spain,43.3027000427,-1.9730399847,San Sebastin Basque Country Spain,12,1387|3546|4638,9|2|1|,San Sebastin Basque Country Spain|San Sebastin Basque Country Spain|G",43.3027,-1.97304
1216,Bilbao,Bilbao,Spain,BIO,LEBB,43.301097,-2.910608,18108.666656,ES213,"Univ Deusto Ikerbasque, Basque Fdn Sci, Bilbao, Spain,43.2560997009,-2.9078400135,Bilbao Basque Country Spain,31,876|2387|3699|4109|6729,28|1|1|1|0|,Bilbao Basque Country Spain|Vizcaya  Spain|Bizkaia  Spain|Leioa Basque Country Spain|Barakaldo Basque Cou",43.2561,-2.90784
1234,Pamplona,Pamplona,Spain,PNA,LEPP,42.770039,-1.646331,360,ES220,"Univ Navarra, Unidad Biol Tumores Cerebrales, Pamplona 31008, Spain,42.8148002625,-1.6664400101,Pamplona Chartered Community of Navarre Spain,55,757|1993|3323,47|5|3|,Pamplona Chartered Community of Navarre Spain|Chartered Community of Navarre Spain|Pamp",42.8148,-1.66644
5781,Logroo-Agoncillo Airport,Logroo-Agoncillo,Spain,RJL,LELO,42.4542,-2.32083,240,ES230,"CSIC UR CAR, Inst Ciencias Vino, Logrono, Spain,42.4625015259,-2.4310400486,Logro_o Autonoma de La Rioja Spain,0,6718,0|,Logro_o Autonoma de La Rioja Spain|",42.462502,-2.43104
1252,Zaragoza Ab,Zaragoza,Spain,ZAZ,LEZG,41.666242,-1.041553,2440,ES243,"Hosp Clin Zaragoza, Div Med Oncol, Zaragoza, Spain,41.6665000916,-0.8773199916,Zaragoza Aragon Spain,74,618,74|,Zaragoza Aragon Spain|",41.6665,-0.87732
1229,Barajas,Madrid,Spain,MAD,LEMD,40.493556,-3.566764,125767.183044,ES300,"Ctr Invest Energet Medioambientales & Tecnol, E-28040 Madrid, Spain,40.4202804565,-3.7057700157,Madrid Community of Madrid Spain,1039,80|737|1625|1905|2041|2095|2220|2274|2473|2653|2832|3004|3194|3277|3278|3568|3908|3952|3953|4180|4363|4536|4542|4664|486",40.42028,-3.70577
6757,Burgos Airport,Burgos,Spain,RGS,LEBG,42.357628,-3.620764,240,ES412,"Univ Burgos, Burgos 09001, Spain,42.3496017456,-3.6720099449,Burgos Castilla and Leon Spain,20,1256,20|,Burgos Castilla and Leon Spain|",42.349602,-3.67201
1238,Salamanca,Salamanca,Spain,SLM,LESA,40.952117,-5.501986,240,ES415,"Univ Salamanca, Dept Microbiol & Genet, E-37008 Salamanca, Spain,40.9496002197,-5.6692700386,Salamanca Castilla and Leon Spain,54,745,54|,Salamanca Castilla and Leon Spain|",40.9496,-5.66927
1247,Valladolid,Valladolid,Spain,VLL,LEVD,41.706111,-4.851944,1020,ES418,"Univ Valladolid, Dept Fis Teor, E-47011 Valladolid, Spain,41.6423988342,-4.7627100945,Valladolid Castilla and Leon Spain,22,1132|2637|5878,20|1|1|,Valladolid Castilla and Leon Spain|Leon  Spain|Boecillo  Spain|",41.642399,-4.76271
1219,Talavera La Real,Badajoz,Spain,BJZ,LEBZ,38.89125,-6.821333,480,ES431,"UEX, Dept Anat Humana, Badajoz, Spain,38.8672981262,-6.9803800583,Badajoz Estremadura Spain,18,1254,18|,Badajoz Estremadura Spain|",38.867298,-6.98038
1218,Barcelona,Barcelona,Spain,BCN,LEBL,41.297078,2.078464,125479.583237,ES511,"Univ Autonoma Barcelona, Inst Fis Altes Energies, E-08193 Barcelona, Spain,41.387298584,2.1686398983,Barcelona Catalonia Spain,842,69|528|761|911|991|1115|1860|2049|2130|3270|3322|3383|3516|3643|4560|4940|5422|5498|6114|6330|6409,723|12|25|27|16|21|0|4|0",41.387299,2.16864
1222,Girona,Gerona,Spain,GRO,LEGE,41.900969,2.760547,15588,ES512,"Catalan Inst Water Res ICRA, Girona 17003, Spain,41.976600647,2.8107500076,Girona Catalonia Spain,35,955|1903|4134|5946,24|8|2|1|,Girona Catalonia Spain|Blanes  Spain|Catalonia Girona Spain|Blanes Girona Spain|",41.976601,2.81075
7459,Lleida-Alguaire Airport,Lleida,Spain,ILD,LEDA,41.727778,0.535833,240,ES513,"Univ Lleida, Dept Matemat, Lleida 25001, Spain,41.6251983643,0.641110003,Lleida Catalonia Spain,3,2294|3300,1|2|,Catalonia Spain|Lleida Catalonia Spain|",41.625198,0.64111
1236,Reus,Reus,Spain,REU,LERS,41.147392,1.167172,6116,ES514,"Hosp Univ Joan XXIII, Tarragona, Spain,41.1178016663,1.2370500565,Tarragona Catalonia Spain,45,848|1534|2833|2834,39|0|4|2|,Tarragona Catalonia Spain|Reus Catalonia Spain|Tarragona Catalonia Spain|Reus Catalonia Spain|",41.117802,1.23705
1212,Alicante,Alicante,Spain,ALC,LEAL,38.282169,-0.558156,48490,ES521,"Miguel Hernandez Univ, Dept Appl Biol, Alicante, Spain,38.3009986877,-0.5374799967,Alicante Valencian Community Spain,43,887|2488|4815|6285,38|5|0|0|,Alicante Valencian Community Spain|Sant Joan dAlacant  Spain|Alacant  Spain|Elche  Spain|",38.300999,-0.53748
1246,Valencia,Valencia,Spain,VLC,LEVC,39.489314,-0.481625,23512,ES523,"Univ Valencia, Inst Fis Corpuscular, E-46071 Valencia, Spain,39.4631004333,-0.3253200054,Valencia Valencian Community Spain,130,112|2880|2919|4306|6007|6719,123|3|3|0|1|0|,Valencia Valencian Community Spain|Burjasot Valencian Community Spain|Burjasot Val",39.4631,-0.32532
3998,Son Sant Joan,Palma de Mallorca,Spain,PMI,LEPA,39.55361,2.727778,85262.000244,ES532,"IEO, Ctr Oceanog Baleares, Palma de Mallorca 07015, Spain,39.5723991394,2.6497199535,Palma Autonoma of Balearic Islands Spain,21,1003|1859|3545|4722|5423,16|1|2|1|1|,Palma Autonoma of Balearic Islands Spain|Palma Autonoma of Balearic Islands Spain|Mallor",39.572399,2.64972
1213,Almeria,Almeria,Spain,LEI,LEAM,36.843936,-2.370097,5494,ES611,"Estn Expt Zonas Aridas CSIC, Dept Ecol Func & Evolut, ES-04120 Almeria, Spain,36.8468017578,-2.4534099102,Almera Andalusia Spain,36,956|5061,35|1|,Almera Andalusia Spain|Cuevas del Almanzora Andalusia Spain|",36.846802,-2.45341
1226,Jerez,Jerez,Spain,XRY,LEJR,36.744622,-6.060111,6714.666626,ES612,"Univ Cadiz, Fac Ciencias Mar & Ambientales, Cadiz 11510, Spain,36.5355987549,-6.298019886,Cadiz  Spain,6,2260|6670,6|0|,Cadiz  Spain|El Palmar Andalusia Spain|",36.535599,-6.29802
1223,Granada,Granada,Spain,GRX,LEGR,37.188731,-3.777356,2400,ES614,"Univ Granada, Sch Dent, Oral Surg & Implant Dent Dept, Granada, Spain,37.2935371399,-3.2729349136,GR Andalusia Spain,228,288|4721,227|1|,GR Andalusia Spain|Armilla Granada Spain|",37.293537,-3.272935
1230,Malaga,Malaga,Spain,AGP,LEMG,36.6749,-4.499106,62993.666626,ES617,"Univ Malaga, Escuela Tech Super Ingn Ind, Malaga 29013, Spain,36.7215003967,-4.4422798157,Mlaga Andalusia Spain,31,865,31|,Mlaga Andalusia Spain|",36.7215,-4.44228
1253,Sevilla,Sevilla,Spain,SVQ,LEZL,37.418,-5.893106,19086,ES618,"Univ Pablo de Olavide, CSIC, Ctr Andaluz Biol Desarrollo, Seville, Spain,37.3879089355,-6.0019598007,Seville Andalusia Spain,69,644|3390,69|0|,Seville Andalusia Spain|Tijarafe La Palma Spain|",37.387909,-6.00196
1227,Murcia San Javier,Murcia,Spain,MJV,LELC,37.774972,-0.812389,5822.666626,ES620,"Univ Murcia, Fac Med, Dept Salud & Ciencias Sociales, E-30100 Murcia, Spain,37.9761009216,-1.1448199749,Murcia Regin de Murcia Spain,31,1034|3199,28|3|,Murcia Regin de Murcia Spain|Cartagena  Spain|",37.976101,-1.14482
1054,Gran Canaria,Gran Canaria,Spain,LPA,GCLP,27.931886,-15.386586,47700.666687,ES705,"Ocean Platform Canary Islands PLOCAN, Las Palmas Gran Canaria 35200, Spain,28.1310005188,-15.4435997009,Las Palmas Canary Islands Spain,15,1488|3397|3747|5622,12|0|2|1|,Las Palmas Canary Islands Spain|La Palma  Spain|Telde Gran Canaria Spain|Telde  Spain",28.131001,-15.4436
1053,La Palma,Santa Cruz De La Palma,Spain,SPC,GCLA,28.626478,-17.755611,2360,ES707,"Nord Opt Telescope, Santa Cruz De La Palma, Spain,28.6837997437,-17.7672996521,Santa Cruz de la Palma Canary Islands Spain,2,2718|3909,1|1|,Santa Cruz de la Palma Canary Islands Spain|Santa Cruz de La Palma  Spain|",28.6838,-17.7673
1056,Tenerife Sur,Tenerife,Spain,TFS,GCTS,28.044475,-16.572489,62106.999878,ES709,"Inst Astrofis Canarias, Tenerife, Spain,28.268611908,-16.605556488,Tenerife Canary Islands Spain,88,696|1208|1632|2483|2814|3703|5084|5148|5191|5807,59|11|8|2|4|1|1|1|1|0|,Tenerife Canary Islands Spain|San Cristobal la Laguna Tenerife Spain|San Cristobal",28.268612,-16.605556
430,Jyvaskyla,Jyvaskyla,Finland,JYV,EFJY,62.399453,25.678253,600,FI193,"Univ Jyvaskyla, FI-40014 Jyvaskyla, Finland,62.2134017944,25.7182006836,Jyvskyl West and Inner Finland Finland,98,536|4963|6244,96|1|1|,Jyvskyl West and Inner Finland Finland|Kinkomaa  Finland|Jyvskyl",62.213402,25.718201
462,Vaasa,Vaasa,Finland,VAA,EFVA,63.05065,21.762175,2084,FI195,"Vasa Cent Hosp, Vaasa 65130, Finland,63.0922012329,21.6608009338,Vaasa West and Inner Finland Finland,4,1988|2292,3|1|,Vaasa West and Inner Finland Finland|Pietarsaari  Finland|",63.092201,21.660801
448,Pori,Pori,Finland,POR,EFPO,61.461686,21.799983,720,FI196,"Univ Oulu, Dept Biol, Linnanmaa 90014, Finland,61.2190895081,21.6281509399,Linnanmaa  Finland,2,4178|6396,2|0|,Linnanmaa  Finland|Pori Southwest Finland Finland|",61.21909,21.628151
458,Tampere Pirkkala,Tampere,Finland,TMP,EFTP,61.414147,23.604392,3520,FI197,"Tampere Univ Hosp, Tampere, Finland,61.4978408813,23.762720108,Tampere West and Inner Finland Finland,21,551,21|,Tampere West and Inner Finland Finland|",61.497841,23.76272
421,Helsinki Vantaa,Helsinki,Finland,HEL,EFHK,60.317222,24.963333,51972.933319,FI1B1,"Univ Helsinki, Cent Hosp, Dept Clin Physiol & Nucl Med, Helsinki, Finland,60.2080001831,24.89909935,Helsinki Southern Finland Finland,751,79|1048|2724|4369|5031,733|13|4|1|0|,Helsinki Southern Finland Finland|Espoo Southern Finland Finland|Ekens",60.208,24.899099
460,Turku,Turku,Finland,TKU,EFTU,60.514142,22.262808,2060,FI1C1,"Abo Akad Univ, Turku, Finland,60.4540596008,22.2669944763,Turku Southwest Finland Finland,210,338|650|6639|6692|6790,178|32|0|0|0|,Turku Southwest Finland Finland|Piikki_ Southwest Finland Finland|Piikki  Finland|Piikiio  Finland|Piikio  Finland|",60.45406,22.266994
441,Lappeenranta,Lappeenranta,Finland,LPP,EFLP,61.044553,28.144397,960,FI1C5,"Savitaipale Hlth Ctr, Savitaipale, Finland,61.1929016113,27.6921005249,Savitaipale  Finland,2,3423|4301,1|1|,Savitaipale  Finland|Lappeenranta  Finland|",61.192902,27.692101
439,Kuopio,Kuopio,Finland,KUO,EFKU,63.00715,27.797756,248,FI1D2,"Kuopio Univ Hosp, Dept Clin Physiol & Nucl Med, SF-70210 Kuopio, Finland,62.9057006836,27.6847991943,Kuopio Eastern Finland Finland,209,323|3425,209|0|,Kuopio Eastern Finland Finland|Kangaslampi  Finland|",62.905701,27.684799
429,Joensuu,Joensuu,Finland,JOE,EFJO,62.662906,29.60755,240,FI1D3,"Univ Eastern Finland, Al Virtanen Inst Mol Sci, Dept Neurobiol, Joensuu, Finland,62.604221344,29.7592601776,Joensuu Eastern Finland Finland,15,1418|5951,14|1|,Joensuu Eastern Finland Finland|Kontiolahti  Finland|",62.604221,29.75926
446,Oulu,Oulu,Finland,OUL,EFOU,64.930061,25.354564,1394,FI1D6,"Univ Oulu, Sodankyla Geophys Observ, SF-90100 Oulu, Finland,65.0102996826,25.4734992981,Oulu Northern Finland Finland,173,384|638|1995|4179|4312|5024|5558,101|61|7|2|1|0|1|,Oulu Northern Finland Finland|Kylml Northern Finland Finland|Aa",65.0103,25.473499
453,Rovaniemi,Rovaniemi,Finland,RVN,EFRO,66.564822,25.830411,2156,FI1D7,"Lapland Cent Hosp, Dept Physiatr, Rovaniemi, Finland,66.4970016479,25.7301006317,Rovaniemi  Finland,0,2890,0|,Rovaniemi  Finland|",66.497002,25.730101
1374,Vatry,Chalons,France,XCR,LFOK,48.776072,4.184492,640,FR213,"Univ Reims, CReSTIC, F-51100 Reims, France,49.2924995422,4.0242199898,Reims Champagne-Ardenne France,6,2143|3827,4|2|,Reims Champagne-Ardenne France|Chalons Sur Marne  France|",49.2925,4.02422
1371,Octeville,Le Havre,France,LEH,LFOH,49.533889,0.088056,240,FR232,"Univ Rouen, FR 3038, Mont St Aignan, France,49.4761009216,1.0971000195,Mount-St-Aignan Upper Normandy France,15,1676|1989,11|4|,Mount-St-Aignan Upper Normandy France|Rouen Upper Normandy France|",49.476101,1.0971
1376,Val De Loire,Tours,France,TUF,LFOT,47.432222,0.727606,1600,FR244,"Univ Tours, Fac Sci, CNRS, UMR 6035,IRBI, F-37200 Tours, France,47.4255981445,0.705129981,Tours Center France,28,986|3398|5156,28|0|0|,Tours Center France|La Riche  France|Tours La Riche France|",47.425598,0.70513
1412,Carpiquet,Caen,France,CFR,LFRK,49.173333,-0.45,1420,FR251,"GANIL, F-14076 Caen 05, France,49.1878013611,-0.354339987,Caen Lower Normandy France,20,1072|4749,19|1|,Caen Lower Normandy France|F Caen  France|",49.187801,-0.35434
1425,Longvic,Dijon,France,DIJ,LFSD,47.26889,5.09,240,FR261,"Univ Burgondy, F-21079 Dijon, France,47.3443984985,5.0650200844,Dijon Burgundy France,9,1291,9|,Dijon Burgundy France|",47.344398,5.06502
1399,Lesquin,Lille,France,LIL,LFQQ,50.561942,3.089444,11164,FR301,"Hop Claude Huriez, Lille, France,50.6194992065,3.0612399578,Lille Nord-Pas-de-Calais France,180,371|1262|1777|3335|4326|4659|6255|6462|6467,155|16|6|2|0|0|0|0|1|,Lille Nord-Pas-de-Calais France|Villeneuve-d__Ascq Nord-Pas-de-Calais France|Douai Nord-",50.619499,3.06124
1320,Metz Nancy Lorraine,Metz,France,ETZ,LFJL,48.982142,6.251319,1176,FR413,"Univ Paul Verlaine Metz, LSMCL, Metz, France,49.1099014282,6.1658802032,Metz  France,2,3318,2|,Metz  France|",49.109901,6.16588
1435,Entzheim,Strasbourg,France,SXB,LFST,48.538319,7.628233,8520,FR421,"Univ Strasbourg, CNRS, IN2P3, IPHC, Strasbourg, France,48.5906982422,7.699930191,Strasbourg Alsace France,150,336|774,105|45|,Strasbourg Alsace France|Illkirch-Graffenstaden Alsace France|",48.590698,7.69993
4053,EuroAirport Basel-Mulhouse-Freiburg,Basel,Switzerland,BSL,\N,47.59,7.529167,29015,FR422,"Forenap Ctr Hosp Rouffach, Rouffach, France,47.9608001709,7.3157801628,Rouffach  France,1,3392|4289|4918,0|0|1|,Colmar Alsace France|Mulhouse Alsace France|Rouffach  France|",47.9608,7.31578
1418,Nantes Atlantique,Nantes,France,NTE,LFRS,47.153189,-1.610725,24564,FR511,"INSERM, UMR915, Inst Thorax, Nantes, France,47.2113990784,-1.5469299555,Nantes Loire Region France,64,512|6819,64|0|,Nantes Loire Region France|St Herblain  France|",47.211399,-1.54693
1403,Guipavas,Brest,France,BES,LFRB,48.447911,-4.418539,4640,FR522,"CNRS, UMR 7144, Grp Plancton Ocean, F-29680 Roscoff, France,48.7220001221,-3.9813299179,Roscoff Brittany France,57,1060|1075|1919,22|27|8|,Brest Brittany France|Roscoff Brittany France|Plouzane  France|",48.722,-3.98133
1415,St Jacques,Rennes,France,RNS,LFRN,48.069508,-1.734794,3968,FR523,"CHU Rennes, Rennes, France,48.1099014282,-1.6763900518,Rennes Brittany France,53,649|2202|3553|3622,47|2|2|2|,Rennes Brittany France|Le Rheu Brittany France|Paimpont  France|Bruz Brittany France|",48.109901,-1.67639
1409,Lann Bihoue,Lorient,France,LRT,LFRH,47.760555,-3.44,480,FR524,"Univ Bretagne Sud, Univ Europeenne Bretagne, LMAM, F-56017 Vannes, France,47.6395988464,-2.7764201164,Vannes Brittany France,2,4110,2|,Vannes Brittany France|",47.639599,-2.77642
1277,Brie Champniers,Angouleme,France,ANG,LFBU,45.729247,0.221456,240,FR531,"CNRS, UMR 7194, Museum Natl Hist Nat, F-16220 Montbron, France,45.6683998108,0.5006800294,Montbron  France,0,4671,0|,Montbron  France|",45.6684,0.50068
6493,La Rochelle-Ile de Re,La Rochelle,France,LRH,LFBH,46.1792,-1.19528,2800,FR532,"Univ La Rochelle, LEMMA, F-17042 La Rochelle 1, France,46.1540985107,-1.1925200224,La Rochelle  France,2,3299,2|,La Rochelle  France|",46.154099,-1.19252
1268,Biard,Poitiers,France,PIS,LFBI,46.587745,0.306666,1840,FR534,"CHU Poitiers, Poitiers, France,46.5758018494,0.3805100024,Poitiers Poitou-Charentes France,48,837|2502|3321|5146,42|3|3|0|,Poitiers Poitou-Charentes France|Nouzilly Poitou-Charentes France|Chasseneuil-du-Poitou Poitou-Charentes France|Gen_ton Poitou",46.575802,0.38051
1265,Roumaniere,Bergerac,France,EGC,LFBE,44.825279,0.518611,3568,FR611,"Musee Natl Prehist, F-24620 Les Eyzies, France,44.9359397888,1.0132700205,Les Eyzies  France,5,2424|4672|6809,5|0|0|,Les Eyzies  France|Les Eyzies De Tayac  France|Valojoulx Aquitaine France|",44.93594,1.01327
1264,Merignac,Bordeaux,France,BOD,LFBD,44.828335,-0.715556,17621.333313,FR612,"Univ Bordeaux, Lab Astrophys Bordeaux, Bordeaux, France,44.8549995422,-0.5744699836,Bordeaux Aquitaine France,153,421|1036|1319|1335|2301|2391|4670|5143,104|10|14|16|2|5|1|1|,Bordeaux Aquitaine France|Gradignan Aquitaine France|Pessac Aquitaine France|Ta",44.855,-0.57447
1262,La Garenne,Agen,France,AGF,LFBA,44.174721,0.590556,480,FR614,"Agence Biomed, Renal Epidemiol & Informat Network, La Plaine St Denis, France,44.1672744751,0.6083800197,La Plaine St Denis  France,0,4389,0|,La Plaine St Denis  France|",44.167274,0.60838
1280,Anglet,Biarritz-bayonne,France,BIQ,LFBZ,43.468419,-1.523325,4963,FR615,"TOTAL SA, Ctr Sci & Tech Jean Feger, F-64018 Pau, France,43.311000824,-0.3657599986,Pau Aquitaine France,3,3080|4079|6731,1|2|0|,Hendaye  France|Pau Aquitaine France|Saint-P_e-sur-Nivelle Aquitaine France|",43.311001,-0.36576
1289,Marcillac,Rodez,France,RDZ,LFCR,44.407869,2.482672,1200,FR622,"Univ Bordeaux, LAB, UMR 5804, F-33270 Floirac, France,44.286781311,1.9992599487,Floirac  France,43,445,43|,Floirac  France|",44.286781,1.99926
1273,Blagnac,Toulouse,France,TLS,LFBO,43.629075,1.363819,21571.999985,FR623,"Univ Toulouse 3, IMT, CNRS, UMR 5219, F-31062 Toulouse, France,43.6057281494,1.4486900568,Toulouse Mid-Pyrenees France,367,180|2053|2438|4682|6233|6390,353|7|5|1|1|0|,Toulouse Mid-Pyrenees France|Castanet-Tolosan Mid-Pyrenees France|Labege  France|Ramonv",43.605728,1.44869
1285,Mazamet,Castres,France,DCM,LFCK,43.55625,2.289183,720,FR627,"Pierre Fabre, Castres, France,43.6008987427,2.2457299232,Castres Mid-Pyrenees France,1,5710,1|,Castres Mid-Pyrenees France|",43.600899,2.24573
1270,Bellegarde,Limoges,France,LIG,LFBL,45.862778,1.179444,3040,FR633,"IUFM Limousin, F-87036 Limoges, France,45.8445014954,1.2485799789,Limoges Limousin France,2,3104,2|,Limoges Limousin France|",45.844501,1.24858
1350,Boutheon,St-Etienne,France,EBU,LFMH,45.540554,4.296389,1430,FR715,"U890, St Etienne, France,45.4404983521,4.3915100098,St.-_tienne Rhone-Alpes France,15,1236,15|,St.-_tienne Rhone-Alpes France|",45.440498,4.39151
1335,Saint Exupery,Lyon,France,LYS,LFLL,45.726387,5.090833,37603.999939,FR716,"Hosp Edouard Herriot, Lyon, France,45.7593917847,4.828979969,Lyon Rhone-Alpes France,336,233|405|1545|1567|1651|2362|3302|4286|4732|5568|6673,255|40|12|11|10|4|3|0|0|1|0|,Lyon Rhone-Alpes France|Villeurbanne Rhone-Alpes France|Pierre-B_nite Rhone-Al",45.759392,4.82898
1330,Auvergne,Clermont-Ferrand,France,CFE,LFLC,45.786661,3.169169,2240,FR724,"Univ Clermont Ferrand, Clermont Ferrand, France,45.7812004089,3.136879921,Clermont-Ferrand Auvergne France,37,483|556|643|3746,5|19|11|2|,Aubire Auvergne France|Clermont-Ferrand Auvergne France|Clermont-Ferrand Auvergne France|Saint-Gen",45.7812,3.13688
1352,Salvaza,Carcassonne,France,CCF,LFMK,43.215978,2.306317,3200,FR811,"INRA, UR50, Lab Biotechnol Environnement, F-11100 Narbonne, France,43.1851005554,2.9873099327,Narbonne  France,1,5144,1|,Narbonne  France|",43.185101,2.98731
1439,Garons,Nimes,France,FNI,LFTW,43.757444,4.416347,1280,FR812,"CEA Marcoule, Dept Radiochem & Proc, Nucl Energy Div, F-30200 Bagnols Sur Ceze, France,44.1598014832,4.6156902313,Bagnols Sur Ceze  France,7,2020,7|,Bagnols Sur Ceze  France|",44.159801,4.61569
1359,Mediterranee,Montpellier,France,MPL,LFMT,43.576194,3.963014,9152.5,FR813,"Ctr Natl Rech Sci, Montpellier, France,43.6133003235,3.8886499405,Montpellier Languedoc-Roussillon France,173,367|2651,169|4|,Montpellier Languedoc-Roussillon France|Montferrier Sur Lez  France|",43.6133,3.88865
1356,Rivesaltes,Perpignan,France,PGF,LFMP,42.740442,2.870667,1400,FR815,"Univ Perpignan, Lab ELIAUS, Perpignan, France,42.676700592,2.9055800438,Perpignan Languedoc-Roussillon France,18,1570|2827|4741,13|4|1|,Perpignan Languedoc-Roussillon France|Banyuls Sur Mer  France|Tautavel Languedoc-Roussillon France|",42.676701,2.90558
1354,Cote D\\'Azur,Nice,France,NCE,LFMN,43.658411,7.215872,37635.533203,FR823,"Observ Cote Azur, Lab Lagrange, F-06304 Nice 4, France,43.7010993958,7.2722101212,Nice PACA France,119,511|1306|1569|2491|3255|4304|4993|5190|6485,77|18|13|4|3|1|1|1|1|,Nice PACA France|Antibes PACA France|Grasse  France|Valbonne PACA France|Cannes PACA",43.701099,7.27221
1353,Provence,Marseille,France,MRS,LFML,43.435555,5.213611,38496.933289,FR824,"Univ Aix Marseille 2, Ctr Phys Particules Marseille, CNRS, IN2P3, F-13288 Marseille, France,43.2933616638,5.3712902069,Marseille PACA France,283,133|1813|1874|2796|3612|6097|6340,262|9|5|4|1|1|1|,Marseille PACA France|Marseilles  France|Aix-en-Provence P",43.293362,5.37129
1438,Le Palyvestre,Hyeres,France,TLN,LFTH,43.0973,6.14603,905,FR825,"Univ Toulon & Var, MIO USTV AMU CNRS IRD, UM 110, F-83957 La Garde, France,43.1379013062,6.0215201378,La Garde  France,6,2536|3574|6371,4|2|0|,La Garde  France|Hyres PACA France|Toulon PACA France|",43.137901,6.02152
1361,Caumont,Avignon,France,AVN,LFMV,43.9073,4.901831,480,FR826,"INRA, UR Plantes & Syst Horticoles 1115, F-84914 Avignon 09, France,43.9534416199,4.8060097694,Avignon PACA France,13,1660|4077,11|2|,Avignon PACA France|Saint-Trinit PACA France|",43.953442,4.80601
2881,Le Raizet,Pointe-a-pitre,Guadeloupe,PTP,TFFR,16.265306,-61.531806,9556,FRA10,"Univ Antilles Guyane, Ctr Hosp, Unite Transversale Drepanocytose, Point A Pitre, France,16.2411003113,-61.5331001282,Pointe--Pitre  French-Guadeloupe,7,3266|4099|4100,3|2|2|,Pointe--Pitre  French-Guadeloupe|Pointe--Pitre  Frenc",16.2411,-61.5331
2774,Rochambeau,Cayenne,French Guiana,CAY,SOCA,4.819808,-52.360447,2862,FRA30,"INRA UMR ECOFOG, Kourou, French Guiana,5.1596999168,-52.6502990723,Kourou  French Guiana,13,2052|2392|4668,7|5|1|,Kourou  French Guiana|Kourou  France|Cayenne  French Guiana|",5.1597,-52.650299
2305,Fukuoka,Fukuoka,Japan,FUK,RJFF,33.585942,130.450686,30509.599854,Fukuoka,"Kyushu Univ, Dept Phys, Fukuoka 812, Japan,33.5839653015,130.412857056,Fukuoka Fukuoka Japan,210,406|993|1198|3801|3874,155|30|21|2|2|,Fukuoka Fukuoka Japan|Kurume Fukuoka Japan|Kitakyushu Fukuoka Japan|Kokura Fukuoka Japan|Yanagawa  Japan|",33.583965,130.412857
5999,Fukushima Airport,Fukushima,Japan,FKS,RJSF,37.2274,140.431,926,Fukushima,"Choju Med Inst, Fukushimura, Japan,37.3774528503,140.280502319,Fukushima Japan,26,1592|1647|3265,12|11|3|,Fukushima Japan|Fukushima Japan|Aizuwakamatsu Fukushima Japan|",37.377453,140.280502
2326,Hiroshima,Hiroshima,Japan,HIJ,RJOA,34.436111,132.919444,5619,Hiroshima,"Hiroshima Inst Technol, Fac Appl Informat Sci, Hiroshima, Japan,34.3838806152,132.447937012,Hiroshima Hiroshima Japan,69,621|942|2878|3201|5454,55|10|0|3|1|,Hiroshima Hiroshima Japan|Higashihiroshima Hiroshima Japan|Higashihiroshima Hiroshima Japan|Mihar",34.383881,132.447937
2287,New Chitose,Sapporo,Japan,CTS,RJCC,42.7752,141.692283,38975.83313,Hokkaido,"Hokkaido Univ, Grad Sch Environm Earth Sci, Sapporo, Hokkaido 060, Japan,43.0552520752,141.345474243,Sapporo Hokkaido Japan,145,462|3076|3464|3697|4078|5041|5667|6855,134|3|2|2|2|1|1|0|,Sapporo Hokkaido Japan|Ishikari Hokkaido Japan|Asahikawa Hokkaido Ja",43.055252,141.345474
1205,Rijeka,Rijeka,Croatia,RJK,LDRI,45.216889,14.570267,1524,HR031,"KBC Rijeka, Dept Rheumatol & Clin Immunol, Rijeka, Croatia,45.323600769,14.4497003555,Rijeka  Croatia,1,5243,1|,Rijeka  Croatia|",45.323601,14.4497
1206,Split,Split,Croatia,SPU,LDSP,43.538944,16.297964,13141.999977,HR035,"Univ Split, Sch Med, Split, Croatia,43.5141983032,16.4314002991,Split Split-Dalmatia Croatia,6,1135|5690,6|0|,Split Split-Dalmatia Croatia|Solin Split-Dalmatia Croatia|",43.514198,16.4314
1202,Osijek,Osijek,Croatia,OSI,LDOS,45.462667,18.810156,880,HR04B,"Josip Juraj Strossmayer Univ Osijek, Gen Hosp Dr Josip Bencevic Slavonski Brod, Dept Pediat, Osijek, Croatia,45.5546989441,18.6870002747,Osijek Osijek-Baranja Croatia,3,3109,3|,Osijek Osijek-Baranja Croatia|",45.554699,18.687
1489,Ferihegy,Budapest,Hungary,BUD,LHBP,47.436933,19.255592,28237.866699,HU101,"Res Inst Particle & Nucl Phys, H-1525 Budapest, Hungary,47.5130310059,19.1229801178,Budapest Budapest Hungary,259,278|6628,259|0|,Budapest Budapest Hungary|Budapest Konkoly Thege M Hungary|",47.513031,19.12298
1490,Debrecen,Debrecen,Hungary,DEB,LHDC,47.488917,21.615333,600,HU321,"Hlth Sci Ctr, H-4032 Debrecen, Hungary,47.5989990234,21.5759506226,Debrecen Hajd-Bihar Hungary,45,762,45|,Debrecen Hajd-Bihar Hungary|",47.598999,21.575951
2334,Osaka Intl,Osaka,Japan,ITM,RJOO,34.785528,135.438222,13377.766632,Hygo,"Kobe Univ, Sch Med, Int Ctr Med Res & Treatment, Kobe, Hyogo 650, Japan,34.6844215393,135.182342529,Kobe Hyogo Japan,134,409|1252|1507|2125|2407|2812|3290|3466|3715|3787|4288|5274|6236,85|19|14|0|5|3|2|2|1|1|0|1|1|,Kobe Hyogo Japan|Say Hyogo Japa",34.684422,135.182343
2281,Hyakuri,Ibaraki,Japan,IBR,RJAH,36.181083,140.415444,1324,Ibaraki,"Univ Tsukuba, Tsukuba 305, Japan,36.0349006653,140.080154419,Tsukuba Ibaraki Japan,916,121|124|125|126|595|781|2903|3258|3402|4298|5035|5242|5276|6074|6674,197|197|197|197|77|40|3|3|1|0|1|1|1|1|0|,Tsukuba Ibaraki Japan|Tsukuba Ibaraki Japan|Tsukuba Ibara",36.034901,140.080154
5577,Donegal Airport,Dongloe,Ireland,CFN,EIDL,55.044192,-8.341,480,IE011,"Sligo Gen Hosp, Dept Radiol, Sligo, Ireland,54.2705993652,-8.4646501541,Sligo  Ireland,4,3228|5346|6502,2|1|1|,Sligo  Ireland|Letterkenny Donegal Ireland|Dundalk Leinster Ireland|",54.270599,-8.46465
600,Ireland West Knock,Connaught,Ireland,NOC,EIKN,53.910297,-8.818492,4568,IE013,"Natl Univ Ireland, Dept Biochem, Galway, Ireland,53.2687988281,-9.0701398849,Galway County Galway Ireland,67,736|1571|3352|5158|5556|6056,48|13|3|1|1|1|,Galway County Galway Ireland|Ireland|Ireland|Oranmore Co Galway Ireland|Maynooth Co Kildare Ireland|C",53.268799,-9.07014
599,Dublin,Dublin,Ireland,DUB,EIDW,53.421333,-6.270075,69356.333374,IE021,"Trinity Coll Dublin, Sch Med, Dept Psychiat, Autism Genet Grp, Dublin 8, Ireland,53.3330993652,-6.2488899231,Dublin Leinster Ireland,264,247|4820,263|1|,Dublin Leinster Ireland|Dublin County Dublin Ireland|",53.333099,-6.24889
603,Shannon,Shannon,Ireland,SNN,EINN,52.701978,-8.924817,9300,IE023,"Univ Hosp Limerick, Dept Psychiat, Limerick, Ireland,52.6646995544,-8.6230602264,Limerick Munster Ireland,70,671|4860,69|1|,Limerick Munster Ireland|County Clare Ireland|",52.6647,-8.62306
605,Waterford,Waterford,Ireland,WAT,EIWF,52.1872,-7.086964,480,IE024,"Waterford Reg Hosp, Dept Med Gerontol, Waterford, Ireland,52.2703018188,-7.1103000641,Waterford County Waterford Ireland,1,4064|6508,0|1|,Carlow Leinster Ireland|Waterford County Waterford Ireland|",52.270302,-7.1103
596,Cork,Cork,Ireland,ORK,EICK,51.841269,-8.491111,11900,IE025,"Natl Univ Ireland, Cork, Ireland,51.8983383179,-8.4727897644,Cork County Cork Ireland,53,664,53|,Cork County Cork Ireland|",51.898338,-8.47279
18,Reykjavik,Reykjavik,Iceland,RKV,BIRK,64.13,-21.940556,1200,IS001,"Natl Canc Detect Clin, Reykjavik, Iceland,64.1474075317,-21.9339904785,Reykjavk H_fuborgarsv_i Iceland,213,277|750|2553|2644|2911|3396|5090|6238|6624,197|13|0|0|1|0|1|1|0|,Reykjavk H_fu",64.147408,-21.93399
16,Keflavik International Airport,Keflavik,Iceland,KEF,BIKF,63.985,-22.605556,16983,IS002,"Agr Univ Iceland, Hvanneyri, Borgarnes, Iceland,64.5645065308,-21.7622795105,Hvanneyri Borgarnes Iceland,3,4392|4512|5089|6659,1|1|1|0|,Hvanneyri Borgarnes Iceland|Grindavik  Iceland|Akureyrarkaupstaur Nordhurland Eystra Iceland|Akureyri Nordhur",64.564507,-21.76228
2322,Komatsu,Kanazawa,Japan,KMQ,RJNK,36.394611,136.406544,5463,Ishikawa,"Kanazawa Univ, Dept Earth Sci, Kanazawa, Ishikawa 9201192, Japan,36.5558319092,136.662033081,Kanazawa Ishikawa Japan,80,653|3785|5192|5234,77|1|1|1|,Kanazawa Ishikawa Japan|Ishikawa Japan|Kahoku Ishikawa Japan|Uchinada Ishikawa Japan|",36.555832,136.662033
1526,Torino,Torino,Italy,TRN,LIMF,45.200761,7.649631,11810.333328,ITC11,"ISI Fdn Inst Sci Interchange, Turin, Italy,45.0754013062,7.6462001801,Turin Piem. Italy,306,225|1865|2131|2842|3917|4352|4756|6788|6789,294|3|4|3|2|0|0|0|0|,Turin Piem. Italy|Pino Torinese Piem. Italy|Pino Torinese TO Italy|Orbassano  Italy|Pino Torinese",45.075401,7.6462
1528,Genova Sestri,Genoa,Italy,GOA,LIMJ,44.413333,8.8375,5648.266663,ITC33,"Univ Genoa, Ist Nazl Fis Nucl, Genoa, Italy,44.4025001526,8.9312896729,Genoa Lig. Italy,158,223|6601,158|0|,Genoa Lig. Italy|Genoa Lig. Italy|",44.4025,8.93129
1524,Malpensa,Milano,Italy,MXP,LIMC,45.630606,8.728111,65283.466492,ITC41,"European Commiss EC JRC IPSC, Ispra, Italy,45.8120002747,8.6135902405,Ispra Lomb. Italy,30,1184|1284|3662|5494|5660,11|15|2|1|1|,Varese Lomb. Italy|Ispra Lomb. Italy|Busto Arsizio  Italy|Castellanza Lomb. Italy|Tradate Lomb. Italy|",45.812,8.61359
1525,Bergamo Orio Al Serio,Bergamo,Italy,BGY,LIME,45.673889,9.704166,25536,ITC46,"Nanoworld Inst Fdn EL BA Nicolini, Bergamo, Italy,45.6911010742,9.6902799606,Bergamo Lomb. Italy,37,758|6133,36|1|,Bergamo Lomb. Italy|Dalmine Lomb. Italy|",45.691101,9.69028
1529,Linate,Milan,Italy,LIN,LIML,45.445103,9.276739,16245.866547,ITC4C,"Ist Nazl Fis Nucl, Sez Bologna, Milan, Italy,45.4519996643,9.1927700043,Milan Lomb. Italy,683,87|926|1127|4666|5201,633|25|23|1|1|,Milan Lomb. Italy|San Donato Milanese Lomb. Italy|Rozzano  Italy|Segrate  Italy|Cinisello Balsamo  Italy|",45.452,9.19277
1505,Pescara,Pescara,Italy,PSR,LIBP,42.431656,14.181067,2834,ITF13,"CRA Biomat Clin Res Assoc, Pescara, Italy,42.4665985107,14.2091999054,Pescara  Italy,7,2349|3757,5|2|,Pescara  Italy|Pescara Abruzzo Italy|",42.466599,14.2092
1561,Capodichino,Naples,Italy,NAP,LIRN,40.886033,14.290781,22287.666733,ITF33,"Univ Naples Federico II, Dipartimento Sci Fis, Naples, Italy,40.8476982117,14.2625999451,Naples Camp. Italy,258,218|2028|3010|4176,247|7|2|2|,Naples Camp. Italy|Pozzuoli Camp. Italy|Nola Camp. Italy|Portici Camp. Italy|",40.847698,14.2626
1506,Casale,Brindisi,Italy,BDS,LIBR,40.657633,17.947033,6623.166687,ITF44,"Ist Sci Biomed Euro Mediterraneo, Brindisi, Italy,40.6273994446,17.9297008514,Brindisi  Italy,4,2203|6352,3|1|,Brindisi  Italy|Brindi  Italy|",40.627399,17.929701
1501,Bari,Bari,Italy,BRI,LIBD,41.138856,16.760594,14411.133316,ITF47,"Ist Nazl Fis Nucl, I-70126 Bari, Italy,41.1031990051,16.8645992279,Bari Pugl. Italy,49,472,49|,Bari Pugl. Italy|",41.103199,16.864599
1508,Lamezia Terme,Lamezia,Italy,SUF,LICA,38.905394,16.242269,7362,ITF63,"UMG, Catanzaro, Italy,38.917098999,16.5807991028,Catanzaro Cal. Italy,13,1575|3103|3935,8|3|2|,Catanzaro Cal. Italy|Lamezia Terme Cal. Italy|Cal. Italy|",38.917099,16.580799
1514,Reggio Calabria,Reggio Calabria,Italy,REG,LICR,38.071206,15.651556,1554,ITF65,"Inst Biomed & Immunol Mol Alberto Monroy Clin Epi, CNR, Reggio Di Calabria, Italy,38.1024017334,15.6483001709,Reggio di Calabria Cal. Italy,8,1126,8|,Reggio di Calabria Cal. Italy|",38.102402,15.6483
1512,Palermo,Palermo,Italy,PMO,LICJ,38.175958,13.091019,17468.599976,ITG12,"INAF Osservatorio Astron Palermo, I-90134 Palermo, Italy,38.117099762,13.3528995514,Palermo Sic. Italy,58,695,58|,Palermo Sic. Italy|",38.1171,13.3529
1509,Catania Fontanarossa,Catania,Italy,CTA,LICC,37.466781,15.0664,33623.300049,ITG17,"INAF OACt, Catania, Italy,37.5074005127,15.0925998688,Catania Sic. Italy,55,535,55|,Catania Sic. Italy|",37.507401,15.0926
1517,Alghero,Alghero,Italy,AHO,LIEA,40.632133,8.290772,9664,ITG25,"Univ Sassari, Fac Med & Surg, Dept Biomed Sci, I-07100 Sassari, Italy,40.7262992859,8.5579900742,Sassari Sard. Italy,64,690|5731|5736|6785,62|1|1|0|,Sassari Sard. Italy|Tramariglio Alghero Italy|Ozieri  Italy|Ss  Italy|",40.726299,8.55799
1519,Elmas,Cagliari,Italy,CAG,LIEE,39.251469,9.054283,12577.600006,ITG27,"Citta Univ Monserrato, CNR, INN, I-09042 Cagliari, Italy,39.248298645,9.1266298294,Cagliari Sard. Italy,343,317|599|1160|3382|3582|4329,232|85|23|1|2|0|,Cagliari Sard. Italy|Monserrato Sard. Italy|Pula  Italy|Capoterra  Italy|Cagliari Sard. Italy|Cagalia",39.248299,9.12663
1536,Bolzano,Bolzano,Italy,BZO,LIPB,46.460194,11.326383,480,ITH10,"Gen Cent Hosp, Dept Neurol, Bolzano, Italy,46.5001983643,11.3533000946,Bolzano Tr.A.A. Italy,61,598|1964|4925|4926|6708,52|8|1|0|0|,Bolzano Tr.A.A. Italy|Bozen Bolzano  Italy|Bressanone  Italy|S Tyrol  Italy|Brunico  Italy|",46.500198,11.3533
1550,Villafranca,Villafranca,Italy,VRN,LIPX,45.395706,10.888533,10815.666687,ITH31,"Univ Verona, Div Childhood Neuropsychiat, I-37100 Verona, Italy,45.4012985229,10.9869003296,Verona Ven. Italy,165,379|5661|6408,164|1|0|,Verona Ven. Italy|Bussolengo Ven. Italy|Negrar  Italy|",45.401299,10.9869
1539,Treviso,Treviso,Italy,TSF,LIPH,45.6484,12.194422,11980,ITH34,"Osped Giovanni 23, Unita Cardiovasc Radiol, I-31050 Monastier Di Treviso, TV, Italy,45.6516990662,12.4375,Monastier Di Treviso TV Italy,3,3934|4946,2|1|,Monastier Di Treviso TV Italy|Treviso  Italy|",45.651699,12.4375
1551,Venezia Tessera,Venice,Italy,VCE,LIPZ,45.505278,12.351944,36026.800003,ITH35,"Univ Venice, IUAV, Dept Art & Ind Design, I-30123 Venice, Italy,45.4376983643,12.3177995682,Venice Ven. Italy,9,1522,9|,Venice Ven. Italy|",45.437698,12.3178
1531,Parma,Parma,Italy,PMF,LIMP,44.824483,10.296367,1280,ITH52,"Ist Nazl Fis Nucl, Grp Coll Parma, I-43100 Parma, Italy,44.7831993103,10.3367004395,Parma Em.Rom. Italy,24,723,24|,Parma Em.Rom. Italy|",44.783199,10.3367
1538,Bologna,Bologna,Italy,BLQ,LIPE,44.535444,11.288667,25423.333328,ITH55,"Univ Bologna, Dipartmento Fis, Bologna, Italy,44.4970016479,11.3182001114,Bologna Em.Rom. Italy,314,120|5950,313|1|,Bologna Em.Rom. Italy|Vaticano Em.Rom. Italy|",44.497002,11.3182
1563,Firenze,Florence,Italy,FLR,LIRQ,43.809953,11.2051,13468,ITI14,"INAF Osservatorio Astrofis Arcetri, I-50125 Florence, Italy,43.7722015381,11.2536001205,Florence Tosc. Italy,239,252|976|2830|4879,229|6|4|0|,Florence Tosc. Italy|Sesto Fiorentino Tosc. Italy|Acone Tosc. Italy|Fiesole Tosc. Italy|",43.772202,11.2536
1558,Marina Di Campo,Marina Di Campo,Italy,EBA,LIRJ,42.760277,10.239445,1200,ITI16,"Accademia Navale Livorno, Livorno, Italy,43.556098938,10.3148002625,Livorno  Italy,0,6698,0|,Livorno  Italy|",43.556099,10.3148
1562,Pisa,Pisa,Italy,PSA,LIRP,43.683917,10.39275,23381.333336,ITI17,"Univ Pisa, Dipartimento Fis E Fermi, Pisa, Italy,43.7366981506,10.3984003067,Pisa Tosc. Italy,199,70|988|1524|4287|4894|6664,199|0|0|0|0|0|,Pisa Tosc. Italy|Cascina PI Italy|Cascina Pi Italy|Cascina Pisa  Italy|Pontedera Tosc. Italy|Peccioli Pisa  Italy|",43.736698,10.3984
1567,Perugia,Perugia,Italy,PEG,LIRZ,43.095906,12.513222,1580,ITI21,"Osserv Astron Brera, INAF, I-23807 Merate, LC, Italy,42.7669792175,12.4938230515,Merate LC Italy,89,594|1043|1597|1757|1800|2647|3225|3413|3581|3651|3936|3937|4317|5101|5505|5663|6286|6311|6596|6638|6684|6732|6737|6753|6755,14|29|9|10|8|2|3|2|2|2|2|2|0|1",42.766979,12.493823
4309,Falconara,Ancona,Italy,AOI,LIPY,43.616389,13.362222,2780,ITI32,"Polytech Univ Marche Reg Ancona, Sch Med, Sect Pathol Anat, Ancona, Italy,43.6170005798,13.5123996735,Ancona Marc. Italy,382,240|2741|3156|3961|4556,372|4|3|2|1|,Ancona Marc. Italy|Ancona Marc. Italy|Ancona Marc. Italy|Ancona Marc. Italy|Iesi Marc. Italy",43.617001,13.5124
1555,Fiumicino,Rome,Italy,FCO,LIRF,41.804475,12.250797,129231.049995,ITI43,"Univ Roma La Sapienza, Dipartimento Fis, I-00185 Rome, Italy,41.903049469,12.4958000183,Rome Laz. Italy,976,52|210|764|1226|2544|3765|4665|4753|5140|6342,867|59|35|6|4|2|0|1|1|1|,Rome Laz. Italy|Frascati Laz. Italy|Monte Porzio Catone Laz. Italy|Frascati",41.903049,12.4958
2344,Hanamaki,Hanamaki,Japan,HNA,RJSI,39.428611,141.135278,960,Iwate,"Iwate Cent Prefectural Hosp, Dept Nephrol, Morioka, Iwate 0200066, Japan,39.6971893311,141.15385437,Morioka Iwate Japan,11,1815|3716|3879|5204|5205,9|2|0|0|0|,Morioka Iwate Japan|Ichinoseki Iwate Japan|Mizusawa Iwate Japan|Yahaba Iwate Japan|Takizawa Iwa",39.697189,141.153854
2337,Takamatsu,Takamatsu,Japan,TAK,RJOT,34.214167,134.015556,2866.666626,Kagawa,"Kagawa Univ, Fac Med, Dept Ophthalmol, Kagawa 7610173, Japan,34.2980461121,133.994628906,Kagawa Japan,32,1199|1582,22|10|,Kagawa Japan|Takamatsu Kagawa Japan|",34.298046,133.994629
2307,Kagoshima,Kagoshima,Japan,KOJ,RJFK,31.803397,130.719408,6044.333313,Kagoshima,"Kagoshima Univ, Fac Sci, Kagoshima 890, Japan,31.5856170654,130.558242798,Kagoshima Kagoshima Japan,7,1772,7|,Kagoshima Kagoshima Japan|",31.585617,130.558243
2332,Kochi,Kochi,Japan,KCZ,RJOK,33.546111,133.669444,1163,Kochi,"Kochi Univ, Dept Dermatol, Kochi Med Sch, Nankoku, Kochi, Japan,33.5787506104,133.647842407,Nankoku Kochi Japan,2,3115,2|,Nankoku Kochi Japan|",33.578751,133.647842
609,Kastrup,Copenhagen,Denmark,CPH,EKCH,55.617917,12.655972,73522.312614,Kopenhagen,"Univ Copenhagen, Niels Bohr Inst, Copenhagen, Denmark,55.7132606506,12.5349302292,Copenhagen Capital Region Denmark,598,154|686|893|935|961|1094|1810|2543|3187|3253|3914|3915|4772|5248|5610|6026|6849,435|63|12|30|29|10|7|4|1|2|1|1|0|1|1|1|0|,Copenhagen C",55.713261,12.53493
2312,Kumamoto,Kumamoto,Japan,KMJ,RJFT,32.837319,130.85505,2889.166626,Kumamoto,"Kumamoto Univ, Dept Architectural & Civil Engn, Kumamoto, Japan,32.7885169983,130.714889526,Kumamoto Kumamoto Japan,44,832|5301,44|0|,Kumamoto Kumamoto Japan|Honjo Kumamoto Japan|",32.788517,130.71489
507,Heathrow,London,United Kingdom,LHR,EGLL,51.4775,-0.461389,505253.000031,LONDON,"Royal Holloway Univ London, Dept Phys, London, Surrey, England,51.5064201355,-0.1272100061,London England,4474,21|22,2237|2237|,London England|London England|",51.50642,-0.12721
3956,Kaunas Intl,Kaunas,Lithuania,KUN,EYKA,54.963919,24.084778,6080,LT002,"Lithuanian Acad Phys Educ, Dept Sport Sci, Kaunas, Lithuania,54.8945388794,23.9099693298,Kaunas Kauno Lithuania,73,669,73|,Kaunas Kauno Lithuania|",54.894539,23.909969
3959,Vilnius Intl,Vilnius,Lithuania,VNO,EYVI,54.634133,25.285767,16271.666656,LT00A,"Vilnius State Univ, Vilnius, Lithuania,54.6906204224,25.2698307037,Vilnius Vilniaus Lithuania,19,1071,19|,Vilnius Vilniaus Lithuania|",54.69062,25.269831
629,Luxembourg,Luxemburg,Luxembourg,LUX,ELLX,49.626575,6.211517,18172.666626,LU000,"Ctr Rech Publ Gabriel Lippmann, Dept Sci & Anal Mat SAM, L-4422 Belvaux, Luxembourg,49.5096588135,5.9278101921,Belvaux  Luxembourg,49,1052|1217|2351|2815|6817,19|21|5|4|0|,Luxembourg Luxembourg Luxembourg|Belvaux  Luxembourg|Esch Sur Alzette  Luxembourg|",49.509659,5.92781
1741,Podgorica,Podgorica,Montenegro,TGD,LYPG,42.359392,19.251894,7010,ME000,"Inst Socioecon Res, Podgorica, Montenegro,42.4354286194,19.2639007568,Podgorica  Montenegro,0,3753,0|,Podgorica  Montenegro|",42.435429,19.263901
2347,Sendai,Sendai,Japan,SDJ,RJSS,38.139722,140.916944,8843,Miyagi,"Tohoku Univ, Res Ctr Electron Photon Sci, Sendai, Miyagi 9808578, Japan,38.4269828796,141.035888672,Miyagi Japan,165,394|2897|6052,164|0|1|,Miyagi Japan|Tagaj-shi Miyagi Japan|Shiogama Miyagi Japan|",38.426983,141.035889
2308,Miyazaki,Miyazaki,Japan,KMI,RJFM,31.877222,131.448611,3405.499947,Miyazaki,"Miyazaki Univ, Fac Med, Kiyotake, Miyazaki 8891692, Japan,32.114490509,131.41015625,Miyazaki Japan,55,1029|1122,30|25|,Miyazaki Japan|Miyazaki Japan|",32.114491,131.410156
1737,Skopje,Skopje,Macedonia,SKP,LWSK,41.961622,21.621381,6893.333328,MK008,"Ss Cyril & Methodius Univ, Fac Elect Engn & Informat Technol, Skopje, Macedonia,41.9947395325,21.4299907684,Skopje Skopski FYRO Macedonia,27,1039,27|,Skopje Skopski FYRO Macedonia|",41.99474,21.429991
1606,Luqa,Malta,Malta,MLA,LMML,35.857497,14.4775,34464,MT001,"Univ Malta, Fac Dent Surg, Msida, Malta,35.899181366,14.4881296158,Msida Malta Majjistral Malta,5,2817|5918|5985,3|1|1|,Msida Malta Majjistral Malta|Floriana  Malta|Balzan  Malta|",35.899181,14.48813
2280,Matsumoto,Matsumoto,Japan,MMJ,RJAF,36.166758,137.922669,480,Nagano,"Shinshu Univ, Dept Phys, Nagano, Japan,36.6487121582,138.192306519,Nagano Nagano Japan,16,1113|1985|3838|5910,8|5|2|1|,Nagano Nagano Japan|Matsumoto Nagano Japan|Shiojiri Nagano Japan|Komagane Nagano Japan|",36.648712,138.192307
2313,Nagasaki,Nagasaki,Japan,NGS,RJFU,32.916944,129.913611,6927,Naoasaki,"Nagasaki Inst Appl Sci, Nagasaki, Japan,32.7433357239,129.881591797,Nagasaki Nagasaki Japan,7,1296|6598|6677,7|0|0|,Nagasaki Nagasaki Japan|Nagasaki Nagasaki Japan|Nagasaki Nagasaki Japan|",32.743336,129.881592
4381,Niigata,Niigata,Japan,KIJ,RJSN,37.5711,139.0646,4148,Niigata,"Niigata Univ, Dept Cellular Neurobiol, Brain Res Inst, Niigata 9518585, Japan,37.9233016968,139.045944214,Niigata Niigata Japan,71,585|5178,70|1|,Niigata Niigata Japan|Minamiuonuma Niigata Japan|",37.923302,139.045944
586,Eelde,Groningen,Netherlands,GRQ,EHGG,53.11972,6.579444,2080,NL131,"GGZ Drenthe, Dept Psychot Disorders, Assen, Netherlands,52.9976997375,6.5707402229,Assen Drenthe Netherlands,1,4965,1|,Assen Drenthe Netherlands|",52.9977,6.57074
580,Schiphol,Amsterdam,Netherlands,AMS,EHAM,52.308613,4.763889,171159.682938,NL326,"Nikhef Natl Inst Subat Phys, Amsterdam, Netherlands,52.3306999207,4.8665399551,Amsterdam North Holland Netherlands,767,62|3403|3956|4358|4409|6105,761|2|2|0|1|1|,Amsterdam North Holland Netherlands|Xh Amsterdam  Netherlands|Duivendrecht  Netherlands|Amst",52.3307,4.86654
591,Rotterdam,Rotterdam,Netherlands,RTM,EHRD,51.956944,4.437222,9260,NL339,"Erasmus MC, Dept Med Informat, NL-3015 GE Rotterdam, Netherlands,51.9156990051,4.4575099945,Rotterdam South Holland Netherlands,402,155|5989,401|1|,Rotterdam South Holland Netherlands|Rhoon  Netherlands|",51.915699,4.45751
585,Eindhoven,Eindhoven,Netherlands,EIN,EHEH,51.450139,5.374528,20464,NL414,"Tech Univ Eindhoven, Dept Mech Engn, NL-5600 MB Eindhoven, Netherlands,51.4483985901,5.4896302223,Eindhoven North Brabant Netherlands,104,532|2739|6745|6757,100|4|0|0|,Eindhoven North Brabant Netherlands|Best  Netherlands|Helmond North Brabant Netherland",51.448399,5.48963
582,Maastricht,Maastricht,Netherlands,MST,EHBK,50.911658,5.770144,3040,NL423,"Zuyd Univ, Fac Midwifery Educ & Studies, Maastricht, Netherlands,50.8460006714,5.7234401703,Maastricht Limburg Netherlands,108,467|2729|3602,104|2|2|,Maastricht Limburg Netherlands|Heerlen  Netherlands|Geleen  Netherlands|",50.846001,5.72344
644,Gardermoen,Oslo,Norway,OSL,ENGM,60.193917,11.100361,54548.566376,NO012,"Norwegian Univ Life Sci, Dept Chem Biotechnol & Food Sci, As, Norway,59.6669998169,10.7862997055,_s Akershus Norway,127,541|1787|2621|2722|4400|5651|5914,108|9|3|4|1|1|1|,_s Akershus Norway|Lrenskog  Norway|Lysaker  Norway|Kjeller Aker",59.667,10.7863
642,Leirin,Fagernes,Norway,VDB,ENFG,61.015556,9.288056,80,NO022,"Bioforsk Norwegian Inst Agr & Environm Res, N-2849 Kapp, Norway,60.7174263,10.8566703796,_stre Toten Oppland Norway,3,3495|5351,2|1|,_stre Toten Oppland Norway|Lillehammer  Norway|",60.717426,10.85667
659,Geiteryggen,Skien,Norway,SKE,ENSN,59.185,9.566944,240,NO034,"Statoil ASA, N-3908 Porsgrunn, Norway,59.1059989929,9.6597099304,Porsgrunn  Norway,7,2091,7|,Porsgrunn  Norway|",59.105999,9.65971
638,Kjevik,Kristiansand,Norway,KRS,ENCN,58.204214,8.085369,2861.599976,NO042,"Sorlandet Hosp HF, Kristiansand, Norway,58.1502990723,7.9914097786,Kristiansand Vest-Agder Norway,10,1585,10|,Kristiansand Vest-Agder Norway|",58.150299,7.99141
666,Sola,Stavanger,Norway,SVG,ENZV,58.876778,5.637856,17728.990402,NO043,"Univ Bergen, Stavanger Univ Hosp, Eye Dept, Stavanger, Norway,58.9700012207,5.7397398949,Stavanger Rogaland Norway,9,1845|4053|5174,7|1|1|,Stavanger Rogaland Norway|Haugesund  Norway|Hafrsfjord  Norway|",58.970001,5.73974
636,Flesland,Bergen,Norway,BGO,ENBR,60.293386,5.218142,19977.822205,NO051,"Univ Bergen, Dept Phys & Technol, Bergen, Norway,60.3928985596,5.3285999298,Bergen Hordaland Norway,72,417,72|,Bergen Hordaland Norway|",60.392899,5.3286
656,Roros,Roros,Norway,RRS,ENRO,62.578411,11.342347,320,NO061,"St Olavs Hosp, Dept Psychiat, Trondheim, Norway,63.3713989258,10.3622999191,Trondheim Sr-Trndelag Norway,129,443,129|,Trondheim Sr-Trndelag Norway|",63.371399,10.3623
665,Vaernes,Trondheim,Norway,TRD,ENVA,63.457556,10.92425,13207.599976,NO062,"Norwegian Univ Sci & Technol, Dept Publ Hlth & Gen Practice, HUNT Res Ctr, Levanger, Norway,63.7406005859,11.2829999924,Levanger  Norway,5,2128|3420|3912|5308,3|0|1|1|,Levanger  Norway|Verdal  Norway|Kvithamar Nord-Trndelag Norway|Stjrd",63.740601,11.283
635,Bodo,Bodo,Norway,BOO,ENBO,67.269167,14.365278,14967.199951,NO071,"Oppegard Municipal, Oppegard Cty, Norway,66.7666702271,14.8999252319,Oppegard Cty  Norway,3,3315|5650|6468|6469,0|1|1|1|,Bod Nordland Norway|Oppegard Cty  Norway|Osterkloft  Norway|Valnesfjord  Norway|",66.76667,14.899925
663,Langnes,Tromso,Norway,TOS,ENTC,69.683333,18.918919,7530.933319,NO072,"Tromso Univ Business Sch HHT, N-9037 Tromso, Norway,69.6832962036,19.073299408,Troms Troms Norway,40,806,40|,Troms Troms Norway|",69.683296,19.073299
2310,Oita,Oita,Japan,OIT,RJFO,33.479444,131.737222,2482.666626,Oita,"Oita Univ, Yufu, Japan,33.1833343506,131.433334351,Yufu  Japan,4,3922|5632|5633|5796,2|1|1|0|,Yufu  Japan|Oita  Japan|Yufu Oita Japan|Beppu Oita Japan|",33.183334,131.433334
2327,Okayama,Okayama,Japan,OKJ,RJOB,34.756944,133.855278,3927.333374,Okayama,"Okayama Univ, Fac Sci, Okayama 700, Japan,34.6652183533,133.92250061,Okayama Okayama Japan,97,430|1925|4083,93|2|2|,Okayama Okayama Japan|Kurashiki Okayama Japan|Tsuyama  Japan|",34.665218,133.922501
2384,Naha,Okinawa,Japan,OKA,ROAH,26.195814,127.645869,26345.916565,Okinawa,"Univ Ryukyus, Grad Sch Med, Div Cell Biol, Nishihara, Okinawa 9030215, Japan,26.3243999481,127.884002685,Nishihara Okinawa Japan,6,2495|5620,5|1|,Nishihara Okinawa Japan|Motobu Okinawa Japan|",26.3244,127.884003
3992,Kansai,Osaka,Japan,KIX,RJBB,34.434722,135.244167,65750.233459,Osaka,"Osaka Univ, Grad Sch Sci, Osaka, Japan,34.677520752,135.512908936,Osaka Osaka Japan,478,209|375|944|1459|1830|3112|3786|3788|3799|5659|6754,239|185|22|14|9|3|2|2|2|0|0|,Osaka Osaka Japan|Suita Osaka Japan|Toyonaka Osaka Japan|Ibaraki Osaka Japan|Neyagawa",34.677521,135.512909
1382,Charles De Gaulle,Paris,France,CDG,LFPG,49.012779,2.55,294161.099792,PARIS,"Univ Paris 06, CNRS, IN2P3, LPNHE, Paris, France,48.8521232605,2.3564190865,Paris IdF France,2574,37|123|206|287|365|461|470|558|620|1057|1158|1179|1246|1348|1400|1447|1500|1578|1622|1643|1675|1785|1799|1961|1976|2001|2034|2054|2106|2127|2191|2221|2272|2",48.852123,2.356419
8832,Lublin,Lublin,Poland,LUZ,EPLB,51.239333,22.714083,1640,PL314,"Marie Curie Sklodowska Univ, Dept Mol Biol, PL-02031 Lublin, Poland,51.2533988953,22.5515995026,Lublin LU Poland,39,871,39|,Lublin LU Poland|",51.253399,22.5516
675,Jasionka,Rzeszow,Poland,RZE,EPRZ,50.109958,22.019,3200,PL325,"Univ Rzeszow, Rzeszow, Poland,50.023399353,22.01720047,Rzeszw PK Poland,0,6781,0|,Rzeszw PK Poland|",50.023399,22.0172
674,Lawica,Poznan,Poland,POZ,EPPO,52.421031,16.826325,6040,PL415,"Adam Mickiewicz Univ Poznan, Fac Phys, PL-61614 Poznan, Poland,52.3557281494,16.8557567596,Pozna_ WP Poland,33,875,33|,Pozna_ WP Poland|",52.355728,16.855757
680,Strachowice,Wroclaw,Poland,WRO,EPWR,51.102683,16.885836,9703.333374,PL514,"Univ Wroclaw, Inst Geog & Reg Dev, PL-50137 Wroclaw, Poland,51.1106987,17.0429992676,Wroc_aw DS Poland,40,852|5723,39|1|,Wroc_aw DS Poland|Wrodaw  Poland|",51.110699,17.042999
5591,Bydgoszcz Ignacy Jan Paderewski Airport,Bydgoszcz,Poland,BZG,EPBY,53.0968,17.9777,960,PL613,"Nicholas Copernicus Univ, Torun, Poland,53.0295982361,18.5806999207,Toru_ KP Poland,22,948|3114,21|1|,Toru_ KP Poland|Bydgoszcz  Poland|",53.029598,18.5807
668,Lech Walesa,Gdansk,Poland,GDN,EPGD,54.377569,18.466222,14612.000053,PL633,"Med Univ Gdansk, Dept Immunopathol, Gdansk, Poland,54.3288993835,18.625,Gda_sk PM Poland,21,1069|6828,21|0|,Gda_sk PM Poland|Gdynia PM Poland|",54.328899,18.625
1636,Porto,Porto,Portugal,OPO,LPPR,41.248055,-8.681389,31295.666748,PT11A,"Univ Porto, Ctr Astrofis, P-4150762 Oporto, Portugal,41.1491012573,-8.6728801727,Porto Porto Portugal,98,607|1586|3548|5063|5166,83|12|2|1|0|,Porto Porto Portugal|Vairo Porto Portugal|Matosinhos  Portugal|Senhora da Hora Porto Portugal|Vila Nova",41.149101,-8.67288
1626,Faro,Faro,Portugal,FAO,LPFR,37.014425,-7.965911,32870.666748,PT150,"Univ Algarve, Ctr Marine Sci, Algae Marine Plant Ecol Res Grp, P-8005139 Faro, Portugal,37.0267982483,-7.9256801605,Faro Faro Portugal,10,1760,10|,Faro Faro Portugal|",37.026798,-7.92568
1638,Lisboa,Lisbon,Portugal,LIS,LPPT,38.781311,-9.135919,69057.766602,PT170,"Lab Instrumentacao & Fis Expt Particulas LIP, Lisbon, Portugal,38.716999054,-9.1386404037,Lisbon Lisbon Portugal,197,251|898|2124|3813|5065|5067,157|36|1|2|1|0|,Lisbon Lisbon Portugal|Oeiras Lisbon Portugal|Caparica  Portugal|Alfragide  Portugal|Amadora",38.716999,-9.13864
1633,Ponta Delgada,Ponta Delgada,Portugal,PDL,LPPD,37.741184,-25.69787,15570,PT200,"Hosp Divino Espirito Santo, Dept Neurol, P-9500 Ponta Delgada, Portugal,37.7437782288,-25.6605300903,Ponta Delgada  Portugal,13,1658|4108,11|2|,Ponta Delgada  Portugal|Azores  Portugal|",37.743778,-25.66053
4091,Madeira,Funchal,Portugal,FNC,LPMA,32.697889,-16.774453,17607.933289,PT300,"Univ Madeira, CQM Ctr Quim Madeira, P-9000390 Funchal, Portugal,32.6469306946,-16.9085292816,Funchal  Portugal,4,2816,4|,Funchal  Portugal|",32.646931,-16.908529
1656,Oradea,Oradea,Romania,OMR,LROD,47.025278,21.9025,480,RO111,"Forens Psychiat Hosp, Stei, Romania,46.5349006653,22.4561004639,Stei  Romania,0,3650,0|,Stei  Romania|",46.534901,22.4561
1652,Cluj Napoca,Cluj-napoca,Romania,CLJ,LRCL,46.785167,23.686167,5864.999985,RO113,"Natl Inst Res & Dev Isotop & Mol Technol, Dept Phys, Cluj Napoca, Romania,46.7780990601,23.6135997772,Cluj-Napoca Cluj Romania,33,1090|1924,25|8|,Cluj-Napoca Cluj Romania|Cluj Napoca CJ Romania|",46.778099,23.6136
1662,Transilvania Targu Mures,Tirgu Mures,Romania,TGM,LRTM,46.467714,24.412525,990,RO125,"Cty Emergency Hosp, Dept Psychiat 1, Targu Mures, Romania,46.5427703857,24.5671520233,Trgu Mure Mure Romania,2,4760|5453,1|1|,Trgu Mure Mure Romania|Sighisoara  Romania|",46.54277,24.567152
1655,Iasi,Iasi,Romania,IAS,LRIA,47.178492,27.620631,3008,RO213,"Gr T Popa Univ Med & Pharm, CI Parhon Univ Hosp, Clin Nephrol, Iasi, Romania,47.1666984558,27.5538005829,Iai Iai Romania,8,1399,8|,Iai Iai Romania|",47.166698,27.553801
1657,Henri Coanda,Bucharest,Romania,OTP,LROP,44.572161,26.102178,30713.933273,RO322,"Horia Hulubei Fdn, Magurele 077125, Romania,44.3501014709,26.0314998627,M_gurele Ilfov Romania,1,5056,1|,M_gurele Ilfov Romania|",44.350101,26.0315
1654,Craiova,Craiova,Romania,CRA,LRCV,44.318139,23.888611,600,RO411,"Univ Med & Pharm Craiova, Craiova, Romania,44.3089981079,23.7966003418,Craiova  Romania,2,3430,2|,Craiova  Romania|",44.308998,23.7966
1663,Traian Vuia,Timisoara,Romania,TSR,LRTR,45.809861,21.337861,3733.93335,RO424,"W Univ Timisoara, Timisoara, Romania,45.7555351257,21.2374992371,Timioara Timi Romania,3,1984,3|,Timioara Timi Romania|",45.755535,21.237499
5996,Saga Airport,Saga,Japan,HSG,RJFS,33.1497,130.302,698,Saga,"Saga Med Sch, Dept Lab Med, Saga 8498501, Japan,33.3005332947,130.096542358,Saga Japan,53,622,53|,Saga Japan|",33.300533,130.096542
737,Arlanda,Stockholm,Sweden,ARN,ESSA,59.651944,17.918611,73701.799973,SE110,"Karolinska Univ Hosp, Karolinska Inst, Dept Med, Cardiol Unit, Stockholm, Sweden,59.3525009155,18.0326004028,Stockholm Stockholm County Sweden,866,73|1144|2887|3251|3472|3587|3950|5160|5990|6011,838|18|1|3|1|2|1|1|0|1|,Stockholm Stockholm County Sweden|H",59.352501,18.0326
699,Skavsta,Stockholm,Sweden,NYO,ESKN,58.788636,16.912189,9780,SE122,"Malardalen Univ, Sch Hlth Care & Social Welf, Eskilstuna Vasteras, Sweden,59.3754692078,16.4560909271,Eskilstuna Vasteras  Sweden,3,5381|5383|5837,1|1|1|,Eskilstuna Vasteras  Sweden|Eskilstuna  Sweden|Ostra  Sweden|",59.375469,16.456091
742,Saab,Linkoeping,Sweden,LPI,ESSL,58.40615,15.680508,960,SE123,"Linkoping Univ, Dept Phys IFM, SE-58183 Linkoping, Sweden,58.3945999146,15.616900444,Link_ping Ostergotland County Sweden,32,989|2459,27|5|,Link_ping Ostergotland County Sweden|Norrk_ping Ostergotland County Sweden|",58.3946,15.6169
731,Orebro,Orebro,Sweden,ORB,ESOE,59.223733,15.037956,160,SE124,"Univ Orebro, Sch Sci & Technol, SE-70182 Orebro, Sweden,59.2896003723,15.2363004684,_rebro Orebro County Sweden,5,1971|6851,5|0|,_rebro Orebro County Sweden|Oerebro  Sweden|",59.2896,15.2363
733,Vasteras,Vasteras,Sweden,VST,ESOW,59.589444,16.633611,960,SE125,"Malardalen Univ, Sch Educ Culture & Commun, SE-72123 Vasteras, Sweden,59.6237983704,16.6040992737,Vsters Vastmanland County Sweden,2,5380|5382,1|1|,Vsters Vastmanland County Sweden|Eskilstuna Vasteras Vasteras Sweden",59.623798,16.604099
688,Jonkoping,Joenkoeping,Sweden,JKG,ESGJ,57.757594,14.068731,480,SE211,"Jonkoping Int Business Sch, SE-55111 Jonkoping, Sweden,57.7813987732,14.1857995987,J_nk_ping Jonkoping County Sweden,18,1148,18|,J_nk_ping Jonkoping County Sweden|",57.781399,14.1858
711,Kronoberg,Vaxjo,Sweden,VXO,ESMX,56.929144,14.727994,1880,SE212,"Vaxjo Univ, Vaxjo, Sweden,56.8974990845,14.7312002182,Vxj_ Kronoberg County Sweden,1,6474,1|,Vxj_ Kronoberg County Sweden|",56.897499,14.7312
707,Kalmar,Kalkmar,Sweden,KLR,ESMQ,56.685531,16.287578,717.333328,SE213,"Univ Kalmar, Sch Pure & Appl Nat Sci, SE-39182 Kalmar, Sweden,56.6882019043,16.3542995453,Kalmar  Sweden,5,2132,5|,Kalmar  Sweden|",56.688202,16.3543
685,Ronneby,Ronneby,Sweden,RNB,ESDF,56.266667,15.265,728.666672,SE221,"Blekinge Inst Technol, Dept Mech Engn, Karlskrona, Sweden,56.1627998352,15.5746002197,Karlskrona Blekinge County Sweden,4,2578,4|,Karlskrona Blekinge County Sweden|",56.1628,15.5746
708,Sturup,Malmoe,Sweden,MMX,ESMS,55.530193,13.371639,5019.999985,SE224,"Lund Univ, Lund, Sweden,55.7242012024,13.220700264,Lund Skane County Sweden,238,284|457|2766|3830|4580,153|80|2|2|1|,Lund Skane County Sweden|Malm_ Skane County Sweden|Alnarp Skane County Sweden|Helsingborg Skane County Sweden|Kristianstad  Sweden|",55.724201,13.2207
709,Halmstad,Halmstad,Sweden,HAD,ESMT,56.691128,12.820211,1200,SE231,"Chalmers, Onsala Space Observ, S-43992 Onsala, Sweden,57.4141616821,12.0221300125,Onsala  Sweden,31,789,31|,Onsala  Sweden|",57.414162,12.02213
687,Landvetter,Gothenborg,Sweden,GOT,ESGG,57.662836,12.279819,21076.766663,SE232,"Sahlgrens Univ Hosp, Div Gastroenterol & Hepatol, Gothenburg, Sweden,57.672000885,12.0335998535,Gothenburg Vastra Gotaland County Sweden,260,306|1050|1774|4212|4588|5303|6713,223|25|8|2|1|1|0|,Gothenburg Vastra Gotaland County Sweden|M_lndal Vastra",57.672001,12.0336
5595,Karlstad Airport,Karlstad,Sweden,KSD,ESOK,59.4447,13.3374,880,SE311,"Karlstad Univ, CTF Serv Res Ctr, Karlstad, Sweden,59.3809013367,13.5103998184,Karlstad  Sweden,4,2402,4|,Karlstad  Sweden|",59.380901,13.5104
698,Mora,Mora,Sweden,MXX,ESKM,60.957908,14.511383,320,SE312,"Univ Dalarna, Dept Hlth & Social Sci, Dalarna, Sweden,60.959980011,14.3476772308,Dalarna  Sweden,1,6173,1|,Dalarna  Sweden|",60.95998,14.347677
721,Sundsvall Harnosand,Sundsvall,Sweden,SDL,ESNN,62.528125,17.443928,2248.666672,SE321,"Res Inst Ind Econ, Stockholm, Bruegel, Sweden,62.6749725342,16.7980594635,Stockholm Bruegel Sweden,1,5790|6675,1|0|,Stockholm Bruegel Sweden|Maimo  Sweden|",62.674973,16.798059
728,Umea,Umea,Sweden,UME,ESNU,63.791828,20.282758,5075.600006,SE331,"Umea Univ, Umea, Sweden,63.8181991577,20.3117008209,Ume Vsterbotten Sweden,107,456,107|,Ume Vsterbotten Sweden|",63.818199,20.311701
715,Gallivare,Fuerteventura,Sweden,GEV,ESNG,67.132408,20.814636,3315.599976,SE332,"Swedish Inst Space Phys, S-98128 Kiruna, Sweden,67.8337020874,20.281999588,Kiruna  Sweden,87,691|1504|3783|6084,70|14|2|1|,Kiruna  Sweden|Lule Norrbotten Sweden|Kallax Norrbotten Sweden|Abisko  Sweden|",67.833702,20.282
2328,Izumo,Izumo,Japan,IZO,RJOC,35.413611,132.89,653,Shimane,"Shimane Univ, Dept Pediat, Izumo, Shimane, Japan,35.3597373962,132.757614136,Izumo Shimane Japan,32,889|2545,29|3|,Izumo Shimane Japan|Matsue Shimane Japan|",35.359737,132.757614
6476,Mt. Fuji Shizuoka Airport,Shizuoka,Japan,FSZ,RJNS,34.796111,138.189444,3528,Shizuoka,"Shizuoka Univ Welfare, Dept Informat Social Welfare, Shizuoka 4258611, Japan,34.9743347168,138.38911438,Shizuoka Shizuoka Japan,62,1091|1235|1431|2194|3259|4935|6549,24|20|7|6|3|1|1|,Shizuoka Shizuoka Japan|Shizuoka Shizuoka Japan|Hamamatsu Shizuoka Japa",34.974335,138.389114
1569,Ljubljana,Ljubljana,Slovenia,LJU,LJLJ,46.223686,14.457611,8146.666718,SI042,"Univ Clin Golnik, Golnik, Slovenia,46.3270797729,14.3302497864,Golnik  Slovenia,1,6167,1|,Golnik  Slovenia|",46.32708,14.33025
1745,M R Stefanik,Bratislava,Slovakia,BTS,LZIB,48.170167,17.212667,6048,SK010,"Comenius Univ, Bratislava 84248, Slovakia,48.1696205139,17.1295108795,Bratislava Bratislava Slovakia,27,410,27|,Bratislava Bratislava Slovakia|",48.169621,17.129511
1746,Kosice,Kosice,Slovakia,KSC,LZKZ,48.663055,21.241112,1380,SK042,"Inst Expt Phys, Kosice 04001, Slovakia,48.7074890137,21.2578392029,Koice Kosice Slovakia,8,464,8|,Koice Kosice Slovakia|",48.707489,21.257839
2336,Tokushima,Tokushima,Japan,TKS,RJOS,34.132808,134.606639,690.5,Tokushima,"Tokushima Breast Care Clin, Dept Surg, Tokushima, Japan,33.9224853516,134.327301025,Tokushima Japan,23,1159|5513|6848,22|1|0|,Tokushima Japan|Naruto  Japan|Naruto Tokushima Japan|",33.922485,134.327301
2335,Tottori,Tottori,Japan,TTJ,RJOR,35.530069,134.166553,292,Tottori,"Tottori Univ, Dept Appl Phys & Math, Tottori 6808552, Japan,35.3828468323,133.840621948,Tottori  Japan,16,1758|2433|2914,10|5|1|,Tottori  Japan|Misasa Tottori Japan|Yonago Tottori Japan|",35.382847,133.840622
2324,Toyama,Toyama,Japan,TOY,RJNT,36.648333,137.1875,3055,Toyama,"Toyama Univ, Dept Environm Biol & Chem, Toyama 9308555, Japan,36.6745948792,137.273468018,Toyama  Japan,7,1844,7|,Toyama  Japan|",36.674595,137.273468
1701,Ataturk,Istanbul,Turkey,IST,LTBA,40.976922,28.814606,175873.219727,TR100,"Dogus Univ, TR-34722 Istanbul, Turkey,41.0607299805,28.9877700806,Istanbul Istanbul Turkey,234,292|1225|2204|3764|5200|5457|6706,224|1|6|2|0|1|0|,Istanbul Istanbul Turkey|Bebek Istanbul Turkey|Maslak  Turkey|skdar Istanbul Turkey|Fatih",41.06073,28.98777
5802,Balikesir Korfez Airport,Balikesir Korfez,Turkey,EDO,LTFD,39.5546,27.0138,310,TR221,"Balikesir Univ, Dept Architecture, TR-10010 Balikesir, Turkey,39.6449813843,27.8854598999,Balikesir  Turkey,1,4467,1|,Balikesir  Turkey|",39.644981,27.88546
6781,Canakkale Airport,Canakkale,Turkey,CKZ,LTBH,40.137722,26.426777,256,TR222,"Canakkale Onsekiz Mart Univ, Fac Med, Dept Plast & Reconstruct Surg, Canakkale, Turkey,40.1506385803,26.4022102356,Canakkale  Turkey,2,4544|5996,1|1|,Canakkale  Turkey|Suleyman  Turkey|",40.150639,26.40221
1706,Adnan Menderes,Izmir,Turkey,ADB,LTBJ,38.292392,27.156953,21377.555542,TR310,"Ege Univ, Fac Sci, Dept Astron & Space Sci, TR-35100 Izmir, Turkey,38.4261817932,27.141910553,zmir zmir Turkey,65,645|6570,64|1|,zmir zmir Turkey|Urla Izmir  Turkey|",38.426182,27.141911
1699,Cardak,Denizli,Turkey,DNZ,LTAY,37.785567,29.701297,591,TR322,"Pamukkale Univ, Fac Med, Dept Rheumatol, TR-20160 Denizli, Turkey,37.7308006287,29.1406002045,Denizli  Turkey,0,5679,0|,Denizli  Turkey|",37.730801,29.1406
9045,Zafer,Kutahya,Turkey,KZR,LTBZ,39.111389,30.13,284,TR333,"Dumlupinar Univ, Dept Phys, Kutahya, Turkey,39.4208984375,29.9869709015,Ktahya Ktahya Turkey,0,2525,0|,Ktahya Ktahya Turkey|",39.420898,29.986971
6780,Anadolu Airport,Eskissehir,Turkey,AOE,LTBY,39.809858,30.519378,320,TR412,"Eskisehir Osmangazi Univ, Dept Otorhinolaryngol, Fac Med, Eskisehir, Turkey,39.7782897949,30.5154705048,Eskisehir  Turkey,1,3632,1|,Eskisehir  Turkey|",39.77829,30.515471
1682,Esenboga,Ankara,Turkey,ESB,LTAC,40.128082,32.995083,16127.619049,TR510,"Hacettepe Univ, Fac Dent, Dept Prosthodont, TR-06100 Ankara, Turkey,39.9429016113,32.8605003357,Ankara Ankara Turkey,280,249|3494|5412,277|2|1|,Ankara Ankara Turkey|Bilkent  Turkey|Etlik  Turkey|",39.942902,32.8605
1691,Konya,Konya,Turkey,KYA,LTAN,37.979,32.561861,1015.333344,TR521,"Selcuk Univ, Konya, Turkey,37.8704795837,32.5067901611,Konya Konya Turkey,2,4016,2|,Konya Konya Turkey|",37.87048,32.50679
1688,Antalya,Antalya,Turkey,AYT,LTAI,36.898731,30.800461,44546.200012,TR611,"Akdeniz Univ, TR-07058 Antalya, Turkey,36.8789405823,30.7092609406,Antalya Antalya Turkey,13,1164|4399,13|0|,Antalya Antalya Turkey|Antalyia  Turkey|",36.878941,30.709261
5801,Isparta Sleyman Demirel Airport,Isparta,Turkey,ISE,LTFC,37.8554,30.3684,274.666656,TR612,"Suleyman Demirel Univ, Fac Med, Dept Rheumatol, TR-32260 Isparta, Turkey,37.7498016357,30.5694007874,Isparta  Turkey,0,5995,0|,Isparta  Turkey|",37.749802,30.569401
1685,Adana,Adana,Turkey,ADA,LTAF,36.982166,35.280388,5370,TR621,"Cukurova Univ, Adana, Turkey,36.9853782654,35.3249702454,Adana Adana Turkey,4,2031,4|,Adana Adana Turkey|",36.985378,35.32497
7453,Hatay Airport,Hatay,Turkey,HTY,LTDA,36.362778,36.282222,2745,TR631,"Mustafa Kemal Univ, Dept Civil Engn, Antakya, Turkey,36.2033500671,36.1585388184,Antakya Hatay Turkey,5,2709|5500,4|1|,Antakya Hatay Turkey|Iskenderun Hatay Turkey|",36.20335,36.158539
5798,Kahramanmaras Airport,Kahramanmaras,Turkey,KCM,LTCN,37.539,36.9534,878,TR632,"Kahramanmaras Sutcu Imam Univ, Sci Teaching Dept, TR-46050 Kahramanmaras, Turkey,37.5858306885,36.9280700684,Kahramanmaras  Turkey,2,3781,2|,Kahramanmaras  Turkey|",37.585831,36.92807
3987,Kapadokya,Nevsehir,Turkey,NAV,LTAZ,38.771867,34.53455,609.333344,TR714,"King Abdul Aziz Med City, Riyadh, Turkey,39.0510101318,34.9303398132,Riyadh  Turkey,2,5258|5678,1|1|,Riyadh  Turkey|Denizli Kinikli Turkey|",39.05101,34.93034
1696,Erkilet,Kayseri,Turkey,ASR,LTAU,38.770386,35.495428,2318,TR721,"Erciyes Univ, Dishekimligi Fak, Ortodonti AD Melikgazi, Dept Orthodont, TR-38039 Kayseri, Turkey,38.7209892273,35.483379364,Kayseri Kayseri Turkey,1,3630,1|,Kayseri Kayseri Turkey|",38.720989,35.483379
1694,Sivas,Sivas,Turkey,VAS,LTAR,39.813828,36.903497,1224,TR722,"Cumhuriyet Univ, Fac Sci, Dept Math, TR-58410 Sivas, Turkey,39.7502593994,37.0175094604,Sivas Sivas Turkey,1,4762,1|,Sivas Sivas Turkey|",39.750259,37.017509
7821,Zonguldak,Zonguldak,Turkey,ONQ,LTAS,41.506111,32.088611,512,TR811,"Karaelmas Univ, Fac Dent, Dept Periodontol, Zonguldak, Turkey,41.4504013062,31.7565002441,Zonguldak  Turkey,1,3790,1|,Zonguldak  Turkey|",41.450401,31.7565
1726,Trabzon,Trabzon,Turkey,TZX,LTCG,40.995108,39.789728,3154.799988,TR901,"Numune Egitim Arastirma Hastanesi, Child & Adolescent Psychiat Clin, TR-61040 Trabzon, Turkey,41.001209259,39.7166786194,Trabzon  Turkey,1,5611,1|,Trabzon  Turkey|",41.001209,39.716679
1724,Erzurum,Erzurum,Turkey,ERZ,LTCE,39.956501,41.170166,1558,TRA11,"Ataturk Univ, Dept Mech Engn, Fac Engn, TR-25240 Erzurum, Turkey,39.9055786133,41.2671890259,Erzurum Erzurum Turkey,5,2329,5|,Erzurum Erzurum Turkey|",39.905579,41.267189
5796,Kars Airport,Kars,Turkey,KSY,LTCF,40.562222,43.115002,924,TRA22,"KuzeyDoga Dernegi, TR-36100 Kars, Turkey,40.6037406921,43.1026306152,Kars  Turkey,1,5307,1|,Kars  Turkey|",40.603741,43.102631
1695,Erhac,Malatya,Turkey,MLX,LTAT,38.435347,38.091006,1155.333374,TRB11,"Malatya Governor Res Hosp, Microbiol Lab, Malatya, Turkey,38.3489685059,38.3197097778,Malatya  Turkey,5,2062,5|,Malatya  Turkey|",38.348969,38.31971
1721,Elazig,Elazig,Turkey,EZS,LTCA,38.606925,39.291417,1816,TRB12,"Firat Univ, Dept Comp & Elect Sci, TR-23119 Elazig, Turkey,38.6678085327,39.2357215881,Elazig  Turkey,6,2184,6|,Elazig  Turkey|",38.667809,39.235722
1728,Van,Van,Turkey,VAN,LTCI,38.468219,43.3323,1538,TRB21,"Yuzuncu Yil Univ, Dept Math, Fac Arts & Sci, Van, Turkey,38.5570983887,43.3004989624,Van Van Turkey,3,3369|4378,3|0|,Van Van Turkey|Emek  Turkey|",38.557098,43.300499
1689,Oguzeli,Gaziantep,Turkey,GZT,LTAJ,36.947183,37.478683,2708.133331,TRC11,"Gaziantep Univ, Dept Engn Phys, Gaziantep, Turkey,37.1650466919,37.3105926514,Gaziantep Gaziantep Turkey,16,987|2875|4945|6207,14|0|1|1|,Gaziantep Gaziantep Turkey|Gaziantep Gaziantep Turkey|Gaziatep  Turkey|SE Anatolia  Turkey|",37.165047,37.310593
5800,Adiyaman Airport,Adiyaman,Turkey,ADF,LTCP,37.7314,38.4689,630,TRC12,"Adiyaman Univ, Dept Phys, TR-02040 Adiyaman, Turkey,37.7605018616,38.2759284973,Adiyaman  Turkey,0,6699,0|,Adiyaman  Turkey|",37.760502,38.275928
9044,Sanliurfa GAP,Sanliurfa,Turkey,GNY,LTCS,37.45,38.9,1518,TRC21,"Harran Univ, Sch Med, Dept Microbiol, Sanliurfa, Turkey,37.1567001343,38.785358429,Sanliurfa  Turkey,2,3066,2|,Sanliurfa  Turkey|",37.1567,38.785358
522,Durham Tees Valley Airport,Teesside,United Kingdom,MME,EGNV,54.509189,-1.429406,720,UKC11,"Univ Hosp N Tees, Dept Neonatal Paediat, Stockton On Tees, England,54.5614013672,-1.3278100491,Stockton On Tees  England,2,4139,2|,Stockton On Tees  England|",54.561401,-1.32781
521,Newcastle,Newcastle,United Kingdom,NCL,EGNT,55.0375,-1.691667,25058,UKC22,"Newcastle Univ, No Inst Canc Res, Newcastle Upon Tyne NE1 4LP, Tyne & Wear, England,54.9615707397,-1.6402900219,Newcastle Business Park England,159,349|3977,158|1|,Newcastle Business Park England|Gateshead  England|",54.961571,-1.64029
478,Manchester,Manchester,United Kingdom,MAN,EGCC,53.353744,-2.27495,113277.983788,UKD33,"Univ Manchester, Manchester M13 9PL, England,53.4650993347,-2.2370500565,Manchester England,0,4290,0|,Manchester England|",53.465099,-2.23705
514,Blackpool,Blackpool,United Kingdom,BLK,EGNH,53.771667,-3.028611,2112,UKD45,"Univ Cent Lancashire, Jeremiah Horrocks Inst, Preston PR1 2HE, Lancs, England,53.7579612732,-2.7057299614,Preston England,45,670,45|,Preston England|",53.757961,-2.70573
491,Liverpool,Liverpool,United Kingdom,LPL,EGGP,53.333611,-2.849722,17298,UKD72,"Univ Liverpool, Oliver Lodge Lab, Liverpool L69 3BX, Merseyside, England,53.4070014954,-2.9914999008,Liverpool City Centre England,141,236,141|,Liverpool City Centre England|",53.407001,-2.9915
517,Leeds Bradford,Leeds,United Kingdom,LBA,EGNM,53.865897,-1.660569,24369.333374,UKE42,"Univ Leeds, Sch Phys & Astron, Leeds LS2 9JT, W Yorkshire, England,53.7998008728,-1.5482000113,Leeds city centre England,176,339|6852,176|0|,Leeds city centre England|Ponefract W Yorks  England|",53.799801,-1.5482
523,Nottingham East Midlands,East Midlands,United Kingdom,EMA,EGNX,52.831111,-1.328056,30368,UKF22,"Univ Manchester, Manchester, Lancs, England,52.5988769531,-1.4668813944,England,681,142|286|480|2754|3241|3317|5040|5580|5911,310|238|122|3|3|3|1|0|1|,England|England|Leicester England|Oswestry Shrops England|Stafford Staffs England|Nottingham Leics Engl",52.598877,-1.466881
469,Birmingham,Birmingham,United Kingdom,BHX,EGBB,52.453856,-1.748028,44309.466644,UKG32,"JBH Consulting, Solihull, W Midlands, England,52.4207000732,-1.8122800589,Solihull England,0,6651,0|,Solihull England|",52.4207,-1.81228
547,Norwich,Norwich,United Kingdom,NWI,EGSH,52.675833,1.282778,2460,UKH15,"Univ E Anglia, Fac Hlth, Norwich Sch Med, Dept Mucosal Immunol, Norwich NR4 7TJ, Norfolk, England,52.6352996826,1.2940100431,Norwich England,61,665|6773,61|0|,Norwich England|Norwich England|",52.6353,1.29401
490,Bristol,Bristol,United Kingdom,BRS,EGGD,51.382669,-2.719089,30090,UKK12,"Univ Bath, Dept Biol & Biochem, Bath BA2 7AY, Avon, England,51.3860015869,-2.3620500565,Bath England,76,651|6131,75|1|,Bath England|Claverton Down  England|",51.386002,-2.36205
472,Gloucestershire,Golouchestershire,United Kingdom,GLO,EGBJ,51.894167,-2.167222,80,UKK13,"Cranfield Univ, Gloucestershire Royal Hosp, Gloucester, England,51.836101532,-2.2718698978,Gloucester  England,1,3566|6797,1|0|,Gloucester  England|Slimbridge Glos England|",51.836102,-2.27187
494,Bournemouth,Bournemouth,United Kingdom,BOH,EGHH,50.78,-1.8425,6000,UKK22,"Portland Vet Affairs VA Med Ctr, Portland, Dorset, England,50.5468902588,-2.4359600544,Portland Dorset England,4,2441,4|,Portland Dorset England|",50.54689,-2.43596
481,St Mawgan,Newquai,United Kingdom,NQY,EGDG,50.440558,-4.995408,1440,UKK30,"Univ Exeter, Coll Life & Environm Sci, Penryn TR10 9EZ, Cornwall, England,50.1696014404,-5.1142301559,Penryn England,7,2002|3405|3426|4838|6775,6|0|1|0|0|,Penryn England|Tremough Penryn England|Truro England|Truro Cornwall England|Penryn  England|",50.169601,-5.11423
552,Exeter,Exeter,United Kingdom,EXT,EGTE,50.734444,-3.413889,5820,UKK43,"Peninsula Med Sch, Epidemiol & Publ Hlth Grp, Exeter, Devon, England,50.7195014954,-3.5414600372,Exeter England,126,369|5812,125|1|,Exeter England|Okehampton  England|",50.719501,-3.54146
488,Cardiff,Cardiff,United Kingdom,CWL,EGFF,51.396667,-3.343333,8420,UKL22,"Cardiff Univ, Cardiff CF24 3AA, Wales,51.4953994751,-3.2379500866,Cardiff Wales,21,921|2264|2533|2846,11|6|0|4|,Cardiff Wales|Barry Wales|Cardiff  England|Grangetown Wales|",51.495399,-3.23795
519,Hawarden,Hawarden,United Kingdom,CEG,EGNR,53.178056,-2.977778,480,UKL23,"Maelor Gen Hosp, Dept Histopathol, Wrexham, Wales,53.0553016663,-2.9917299747,Wrexham Wales,1,5375,1|,Wrexham Wales|",53.055302,-2.99173
540,Dundee,Dundee,United Kingdom,DND,EGPN,56.452499,-3.025833,240,UKM21,"Univ Dundee, Ninewells Hosp & Med Sch, Med Res Inst, Div Neurosci, Dundee DD1 9SY, Scotland,56.4623908997,-3.0517199039,Dundee Scotland,46,564,46|,Dundee Scotland|",56.462391,-3.05172
535,Edinburgh,Edinburgh,United Kingdom,EDI,EGPH,55.95,-3.3725,33849.416687,UKM25,"Univ Edinburgh, SUPA Sch Phys & Astron, Edinburgh, Midlothian, Scotland,55.9541511536,-3.2027699947,Edinburgh Scotland,391,158,391|,Edinburgh Scotland|",55.954151,-3.20277
534,Glasgow,Glasgow,United Kingdom,GLA,EGPF,55.871944,-4.433056,33039.666626,UKM35,"Univ West Scotland, SUPA, Paisley PA1 2BE, Renfrew, Scotland,55.8468017578,-4.4026198387,Paisley Scotland,0,6591,0|,Paisley Scotland|",55.846802,-4.40262
532,Dyce,Aberdeen,United Kingdom,ABZ,EGPD,57.201944,-2.197778,10445.333328,UKM50,"Univ Aberdeen, Med Genet Grp, Sch Med & Dent, Aberdeen AB25 2ZD, Scotland,57.1454811096,-2.1027200222,Aberdeen Scotland,135,436,135|,Aberdeen Scotland|",57.145481,-2.10272
533,Inverness,Inverness,United Kingdom,INV,EGPE,57.5425,-4.0475,2544,UKM62,"Highland Hosp, Inverness, Scotland,57.4846000671,-4.2043099403,Inverness  Scotland,0,6831,0|,Inverness  Scotland|",57.4846,-4.20431
536,Islay,Islay,United Kingdom,ILY,EGPI,55.681944,-6.256667,480,UKM63,"Scottish Assoc Marine Sci, Oban PA37 1QA, Argyll, Scotland,56.4147987366,-5.4729800224,Oban Argyll Scotland,0,5873,0|,Oban Argyll Scotland|",56.414799,-5.47298
467,Belfast City,Belfast,United Kingdom,BHD,EGAC,54.618056,-5.8725,5100,UKN01,"Queens Univ Belfast, UK Clin Res Collaborat UKCRC, Ctr Excellence Publ Hlth Northern Ireland, Belfast, Antrim, North Ireland,54.577457428,-5.991191864,Belfast Northern Ireland,80,596,80|,Belfast Northern Ireland|",54.577457,-5.991192
465,Belfast Intl,Belfast,United Kingdom,BFS,EGAA,54.6575,-6.215833,9820,UKN03,"Univ Ulster, Sch Nursing, Inst Nursing & Hlth Res, Antrim BT37 0QB, CO, North Ireland,54.719554,-6.206274,Antrim CO North Ireland,1,6399,1|,Antrim CO North Ireland|",54.719554,-6.206274
468,City of Derry,Londonderry,United Kingdom,LDY,EGAE,55.042778,-7.161111,1600,UKN04,"Univ Ulster, Sch Creat Arts, Londonderry BT48 7JL, North Ireland,55.0320014954,-7.2925701141,Londonderry  North Ireland,1,6398,1|,Londonderry  North Ireland|",55.032001,-7.29257
2284,Nanki Shirahama,Nanki-shirahama,Japan,SHM,RJBD,33.662222,135.364444,240,Wakayama,"Kinki Univ, Dept Biol Oriented Sci & Technol, Wakayama, Japan,34.2182312012,135.172302246,Wakayama Wakayama Japan,17,1309,17|,Wakayama Wakayama Japan|",34.218231,135.172302
679,Okecie,Warsaw,Poland,WAW,EPWA,52.16575,20.967122,43174.0001219999,warsaw,"Polish Acad Sci, Inst Phys Chem, Warsaw, Poland,52.2287483215,21.0062503815,Warsaw MA Poland,387,172|2291|3756|4347,384|1|2|0|,Warsaw MA Poland|Otwock  Poland|Kajetany Nadarzyn Poland|Warsaw MA Poland|",52.228748,21.00625
2341,Yamagata,Yamagata,Japan,GAJ,RJSC,38.411894,140.371331,1070,Yamagata,"Keio Univ, Inst Adv Biosci, Tsuruoka, Yamagata 9970052, Japan,38.4699287415,140.077545166,Yamagata Japan,9,846|855,5|4|,Yamagata Japan|Yamagata Japan|",38.469929,140.077545
2296,Yamaguchi Ube,Yamaguchi,Japan,UBJ,RJDC,33.93,131.278611,1150,Yamaguchi,"Yamaguchi Univ, Yamaguchi, Japan,34.1016464233,131.523803711,Yamaguchi Japan,2,4271,2|,Yamaguchi Japan|",34.101646,131.523804
